{"type":"FeatureCollection","features":[{"type":"Feature","geometry":{"type":"Point","coordinates":[75.20837,31.50191]},"properties":{"udise":"03020600201","name":"GPS LIDHAR","state":"PUNJAB","district":"AMRITSAR","block":"RAYYA 2","indicator":"no_girls_toilet"}},{"type":"Feature","geometry":{"type":"Point","coordinates":[74.85865,31.61845]},"properties":{"udise":"03020803902","name":"GPS KATRA KHAJANA","state":"PUNJAB","district":"AMRITSAR","block":"AMRITSAR 1","indicator":"no_girls_toilet"}},{"type":"Feature","geometry":{"type":"Point","coordinates":[75.19983,31.68764]},"properties":{"udise":"03020706601","name":"GPS CHANANKE","state":"PUNJAB","district":"AMRITSAR","block":"TARSIKA","indicator":"no_girls_toilet"}},{"type":"Feature","geometry":{"type":"Point","coordinates":[74.85872,31.97344]},"properties":{"udise":"03020105901","name":"GPS Rurewal","state":"PUNJAB","district":"AMRITSAR","block":"AJNALA-2","indicator":"no_girls_toilet"}},{"type":"Feature","geometry":{"type":"Point","coordinates":[74.93048,32.01522]},"properties":{"udise":"03020112301","name":"GPS Ghonewala","state":"PUNJAB","district":"AMRITSAR","block":"AJNALA-2","indicator":"no_girls_toilet"}},{"type":"Feature","geometry":{"type":"Point","coordinates":[74.6309,31.71736]},"properties":{"udise":"03020202410","name":"HARMAN PUBLIC SCHOOL LOPOKE","state":"PUNJAB","district":"AMRITSAR","block":"CHOGAWAN 1","indicator":"no_girls_toilet"}},{"type":"Feature","geometry":{"type":"Point","coordinates":[74.87017,31.62797]},"properties":{"udise":"03020804504","name":"GPS CHUGGIAN","state":"PUNJAB","district":"AMRITSAR","block":"AMRITSAR 2","indicator":"no_girls_toilet"}},{"type":"Feature","geometry":{"type":"Point","coordinates":[74.74248,31.58715]},"properties":{"udise":"03020900702","name":"GMS HEIR","state":"PUNJAB","district":"AMRITSAR","block":"AMRITSAR 4","indicator":"no_girls_toilet"}},{"type":"Feature","geometry":{"type":"Point","coordinates":[74.928,32.01153]},"properties":{"udise":"03020112201","name":"GPS Machiwahla","state":"PUNJAB","district":"AMRITSAR","block":"AJNALA-2","indicator":"no_girls_toilet"}},{"type":"Feature","geometry":{"type":"Point","coordinates":[75.33873,31.63433]},"properties":{"udise":"03020603502","name":"GMS JAMALPUR","state":"PUNJAB","district":"AMRITSAR","block":"RAYYA 1","indicator":"girls_toilet_nonfunctional"}},{"type":"Feature","geometry":{"type":"Point","coordinates":[74.69425,31.63262]},"properties":{"udise":"03020200601","name":"GPS CHHIDAN","state":"PUNJAB","district":"AMRITSAR","block":"AMRITSAR 4","indicator":"girls_toilet_nonfunctional"}},{"type":"Feature","geometry":{"type":"Point","coordinates":[74.95781,31.52103]},"properties":{"udise":"03020404408","name":"SANT BABA LASHMAN SINGH JI DAY BOARDING SCHOOL","state":"PUNJAB","district":"AMRITSAR","block":"JANDIALA GURU","indicator":"girls_toilet_nonfunctional"}},{"type":"Feature","geometry":{"type":"Point","coordinates":[75.19657,31.63709]},"properties":{"udise":"03020706901","name":"GPS MEHSAMPUR KALAN","state":"PUNJAB","district":"AMRITSAR","block":"TARSIKA","indicator":"girls_toilet_nonfunctional"}},{"type":"Feature","geometry":{"type":"Point","coordinates":[75.02907,31.55886]},"properties":{"udise":"03020404004","name":"JYOT PUBLIC SCHOOL","state":"PUNJAB","district":"AMRITSAR","block":"JANDIALA GURU","indicator":"girls_toilet_nonfunctional"}},{"type":"Feature","geometry":{"type":"Point","coordinates":[74.94787,31.8325]},"properties":{"udise":"03020500801","name":"GPS PANDHER KALAN","state":"PUNJAB","district":"AMRITSAR","block":"MAJITHA 1","indicator":"girls_toilet_nonfunctional"}},{"type":"Feature","geometry":{"type":"Point","coordinates":[74.57781,31.72603]},"properties":{"udise":"03020203401","name":"GPS PANJURAI","state":"PUNJAB","district":"AMRITSAR","block":"CHOGAWAN 1","indicator":"girls_toilet_nonfunctional"}},{"type":"Feature","geometry":{"type":"Point","coordinates":[75.27823,31.63571]},"properties":{"udise":"03020604501","name":"GPS BUTTAR KALAN","state":"PUNJAB","district":"AMRITSAR","block":"RAYYA 1","indicator":"girls_toilet_nonfunctional"}},{"type":"Feature","geometry":{"type":"Point","coordinates":[74.92122,31.86887]},"properties":{"udise":"03020102201","name":"GPS Boharwala","state":"PUNJAB","district":"AMRITSAR","block":"AJNALA-1","indicator":"girls_toilet_nonfunctional"}},{"type":"Feature","geometry":{"type":"Point","coordinates":[74.81003,31.90897]},"properties":{"udise":"03020107305","name":"ST SEBASTIAN SCHOOL","state":"PUNJAB","district":"AMRITSAR","block":"AJNALA-2","indicator":"girls_toilet_nonfunctional"}},{"type":"Feature","geometry":{"type":"Point","coordinates":[75.08761,31.71196]},"properties":{"udise":"03020509101","name":"GPS DAHRIKE","state":"PUNJAB","district":"AMRITSAR","block":"MAJITHA 2","indicator":"girls_toilet_nonfunctional"}},{"type":"Feature","geometry":{"type":"Point","coordinates":[74.96427,31.6308]},"properties":{"udise":"03020401101","name":"GPS QILA JIWAN SINGH","state":"PUNJAB","district":"AMRITSAR","block":"AMRITSAR 1","indicator":"girls_toilet_nonfunctional"}},{"type":"Feature","geometry":{"type":"Point","coordinates":[75.26152,31.51538]},"properties":{"udise":"03020601403","name":"SHAHEED CAPTAIN DAYAL SINGH GMSS BULE NANGAL","state":"PUNJAB","district":"AMRITSAR","block":"RAYYA 1","indicator":"girls_toilet_nonfunctional"}},{"type":"Feature","geometry":{"type":"Point","coordinates":[74.62386,31.68815]},"properties":{"udise":"03020202601","name":"GPS JOEKE","state":"PUNJAB","district":"AMRITSAR","block":"CHOGAWAN 1","indicator":"girls_toilet_nonfunctional"}},{"type":"Feature","geometry":{"type":"Point","coordinates":[74.63465,31.73421]},"properties":{"udise":"03020208901","name":"GPS Preet Nagar","state":"PUNJAB","district":"AMRITSAR","block":"CHOGAWAN 1","indicator":"girls_toilet_nonfunctional"}},{"type":"Feature","geometry":{"type":"Point","coordinates":[75.30099,30.43126]},"properties":{"udise":"03200301001","name":"Freedom Fighter Darbara Singh Govt. Primary School Channa Gulab Singh,District Barnala","state":"PUNJAB","district":"BARNALA","block":"SEHNA","indicator":"girls_toilet_nonfunctional"}},{"type":"Feature","geometry":{"type":"Point","coordinates":[75.41757,30.37948]},"properties":{"udise":"03200305001","name":"GPS UGGOKE","state":"PUNJAB","district":"BARNALA","block":"SEHNA","indicator":"girls_toilet_nonfunctional"}},{"type":"Feature","geometry":{"type":"Point","coordinates":[74.9633,29.95847]},"properties":{"udise":"03140805001","name":"GPS RAMAN MANDI","state":"PUNJAB","district":"BATHINDA","block":"TALWANDI SABO","indicator":"no_girls_toilet"}},{"type":"Feature","geometry":{"type":"Point","coordinates":[74.7627,30.10493]},"properties":{"udise":"03140703001","name":"GPS NANDGARH","state":"PUNJAB","district":"BATHINDA","block":"SANGAT","indicator":"no_girls_toilet"}},{"type":"Feature","geometry":{"type":"Point","coordinates":[75.0896,30.31914]},"properties":{"udise":"03140402901","name":"GPS NATHANA Boys","state":"PUNJAB","district":"BATHINDA","block":"GONIANA MANDI","indicator":"no_girls_toilet"}},{"type":"Feature","geometry":{"type":"Point","coordinates":[75.12246,30.35754]},"properties":{"udise":"03140400102","name":"GMS BAJJOANA","state":"PUNJAB","district":"BATHINDA","block":"BHAGTA BHAI KA","indicator":"no_girls_toilet"}},{"type":"Feature","geometry":{"type":"Point","coordinates":[75.24237,30.48544]},"properties":{"udise":"03140202902","name":"GPS SALABATPURA","state":"PUNJAB","district":"BATHINDA","block":"BHAGTA BHAI KA","indicator":"no_girls_toilet"}},{"type":"Feature","geometry":{"type":"Point","coordinates":[74.9145,30.3221]},"properties":{"udise":"03140107102","name":"GURU NANAK PUBLIC SCHOOL GONIANA","state":"PUNJAB","district":"BATHINDA","block":"GONIANA MANDI","indicator":"no_girls_toilet"}},{"type":"Feature","geometry":{"type":"Point","coordinates":[75.20218,30.28184]},"properties":{"udise":"03140501901","name":"GPS KOTHE TALWANDI MEHRAJ","state":"PUNJAB","district":"BATHINDA","block":"RAMPURA PHUL","indicator":"no_girls_toilet"}},{"type":"Feature","geometry":{"type":"Point","coordinates":[75.03066,30.06706]},"properties":{"udise":"03140801703","name":"G NANAK PB SCH KAILE WANDER","state":"PUNJAB","district":"BATHINDA","block":"SANGAT","indicator":"no_girls_toilet"}},{"type":"Feature","geometry":{"type":"Point","coordinates":[74.8579,30.2889]},"properties":{"udise":"03140110901","name":"GPS NATHIANA","state":"PUNJAB","district":"BATHINDA","block":"GONIANA MANDI","indicator":"no_girls_toilet"}},{"type":"Feature","geometry":{"type":"Point","coordinates":[74.93685,30.19858]},"properties":{"udise":"03140103719","name":"JAME ASHRAF BABA HAZI RATAN ISLAMIA SCHOOL, BATHINDA","state":"PUNJAB","district":"BATHINDA","block":"BATHINDA","indicator":"no_girls_toilet"}},{"type":"Feature","geometry":{"type":"Point","coordinates":[75.22523,30.1052]},"properties":{"udise":"03140303201","name":"GPS RAMNAGAR","state":"PUNJAB","district":"BATHINDA","block":"MAUR","indicator":"no_girls_toilet"}},{"type":"Feature","geometry":{"type":"Point","coordinates":[75.16291,30.28361]},"properties":{"udise":"03140501801","name":"GPS KOTHE TALLWALI MEHRAJ","state":"PUNJAB","district":"BATHINDA","block":"RAMPURA PHUL","indicator":"no_girls_toilet"}},{"type":"Feature","geometry":{"type":"Point","coordinates":[75.2154,30.42915]},"properties":{"udise":"03140500205","name":"GPS BHAI RUPA BRANCH","state":"PUNJAB","district":"BATHINDA","block":"BHAGTA BHAI KA","indicator":"no_girls_toilet"}},{"type":"Feature","geometry":{"type":"Point","coordinates":[75.06542,29.88415]},"properties":{"udise":"03140801601","name":"GPS JOGEWALA","state":"PUNJAB","district":"BATHINDA","block":"TALWANDI SABO","indicator":"no_girls_toilet"}},{"type":"Feature","geometry":{"type":"Point","coordinates":[74.81132,30.14417]},"properties":{"udise":"03140100601","name":"GPS BAHO YATRI","state":"PUNJAB","district":"BATHINDA","block":"SANGAT","indicator":"girls_toilet_nonfunctional"}},{"type":"Feature","geometry":{"type":"Point","coordinates":[75.12443,30.13092]},"properties":{"udise":"03140303001","name":"GPS RAI KHANA","state":"PUNJAB","district":"BATHINDA","block":"MAUR","indicator":"girls_toilet_nonfunctional"}},{"type":"Feature","geometry":{"type":"Point","coordinates":[74.67997,30.13078]},"properties":{"udise":"03140703601","name":"GPS RAI KE KALAN","state":"PUNJAB","district":"BATHINDA","block":"SANGAT","indicator":"girls_toilet_nonfunctional"}},{"type":"Feature","geometry":{"type":"Point","coordinates":[75.20217,30.28196]},"properties":{"udise":"03140502702","name":"GPS PIPLI MEHRAJ","state":"PUNJAB","district":"BATHINDA","block":"RAMPURA PHUL","indicator":"girls_toilet_nonfunctional"}},{"type":"Feature","geometry":{"type":"Point","coordinates":[75.28927,30.34302]},"properties":{"udise":"03140500802","name":"GPS DHINGER","state":"PUNJAB","district":"BATHINDA","block":"BHAGTA BHAI KA","indicator":"girls_toilet_nonfunctional"}},{"type":"Feature","geometry":{"type":"Point","coordinates":[75.17806,30.28553]},"properties":{"udise":"03140501102","name":"GPS GURUSAR MEHRAJ","state":"PUNJAB","district":"BATHINDA","block":"RAMPURA PHUL","indicator":"girls_toilet_nonfunctional"}},{"type":"Feature","geometry":{"type":"Point","coordinates":[74.76319,30.67406]},"properties":{"udise":"03130103801","name":"GPS BALBIR BASTI FDK","state":"PUNJAB","district":"FARIDKOT","block":"FARIDKOT-02","indicator":"girls_toilet_nonfunctional"}},{"type":"Feature","geometry":{"type":"Point","coordinates":[74.79178,30.63558]},"properties":{"udise":"03130103306","name":"GPS TIBBI BHARIAN","state":"PUNJAB","district":"FARIDKOT","block":"FARIDKOT-02","indicator":"girls_toilet_nonfunctional"}},{"type":"Feature","geometry":{"type":"Point","coordinates":[76.44509,30.64227]},"properties":{"udise":"03080301601","name":"GPS BHAIRONPUR","state":"PUNJAB","district":"FATEHGARH SAHIB","block":"FATEHGARH SAHIB","indicator":"no_girls_toilet"}},{"type":"Feature","geometry":{"type":"Point","coordinates":[76.32013,30.78191]},"properties":{"udise":"03080501601","name":"GPS BHUTTA","state":"PUNJAB","district":"FATEHGARH SAHIB","block":"KHAMANO","indicator":"no_girls_toilet"}},{"type":"Feature","geometry":{"type":"Point","coordinates":[76.51484,30.59959]},"properties":{"udise":"03080304801","name":"GPS KHERI BHAI KI","state":"PUNJAB","district":"FATEHGARH SAHIB","block":"KHERA","indicator":"no_girls_toilet"}},{"type":"Feature","geometry":{"type":"Point","coordinates":[76.60924,30.63439]},"properties":{"udise":"03080307001","name":"GPS PAWALA","state":"PUNJAB","district":"FATEHGARH SAHIB","block":"KHERA","indicator":"no_girls_toilet"}},{"type":"Feature","geometry":{"type":"Point","coordinates":[76.54377,30.6677]},"properties":{"udise":"03080308102","name":"KHALSA MODEL SEN.SEC.SCHOOL SAMPLA","state":"PUNJAB","district":"FATEHGARH SAHIB","block":"KHERA","indicator":"no_girls_toilet"}},{"type":"Feature","geometry":{"type":"Point","coordinates":[76.43322,30.80707]},"properties":{"udise":"03080506801","name":"GPS SANDHARI MAJRA","state":"PUNJAB","district":"FATEHGARH SAHIB","block":"KHAMANO","indicator":"no_girls_toilet"}},{"type":"Feature","geometry":{"type":"Point","coordinates":[76.42083,30.48222]},"properties":{"udise":"03080107501","name":"GPS NARAINGARH CHHANA","state":"PUNJAB","district":"FATEHGARH SAHIB","block":"JAKHWALI","indicator":"no_girls_toilet"}},{"type":"Feature","geometry":{"type":"Point","coordinates":[76.324,30.73962]},"properties":{"udise":"03080506701","name":"GPS SAIDPURA","state":"PUNJAB","district":"FATEHGARH SAHIB","block":"MANDI GOBINDGARH","indicator":"no_girls_toilet"}},{"type":"Feature","geometry":{"type":"Point","coordinates":[76.60415,30.6133]},"properties":{"udise":"03080306301","name":"GPS NARAINA","state":"PUNJAB","district":"FATEHGARH SAHIB","block":"KHERA","indicator":"no_girls_toilet"}},{"type":"Feature","geometry":{"type":"Point","coordinates":[76.41906,30.80887]},"properties":{"udise":"03080507201","name":"GPS SIDHUPUR KALAN","state":"PUNJAB","district":"FATEHGARH SAHIB","block":"KHAMANO","indicator":"no_girls_toilet"}},{"type":"Feature","geometry":{"type":"Point","coordinates":[76.35121,30.85877]},"properties":{"udise":"03080504801","name":"GPS MANELI","state":"PUNJAB","district":"FATEHGARH SAHIB","block":"KHAMANO","indicator":"no_girls_toilet"}},{"type":"Feature","geometry":{"type":"Point","coordinates":[76.37358,30.47971]},"properties":{"udise":"03080103402","name":"GMS DHATAUNDA","state":"PUNJAB","district":"FATEHGARH SAHIB","block":"JAKHWALI","indicator":"no_girls_toilet"}},{"type":"Feature","geometry":{"type":"Point","coordinates":[76.41668,30.61949]},"properties":{"udise":"03080303201","name":"GPS DHUPSARI","state":"PUNJAB","district":"FATEHGARH SAHIB","block":"FATEHGARH SAHIB","indicator":"girls_toilet_nonfunctional"}},{"type":"Feature","geometry":{"type":"Point","coordinates":[76.3849,30.6644]},"properties":{"udise":"03080110203","name":"SUN RISE PUBLIC SCHOOL","state":"PUNJAB","district":"FATEHGARH SAHIB","block":"FATEHGARH SAHIB","indicator":"girls_toilet_nonfunctional"}},{"type":"Feature","geometry":{"type":"Point","coordinates":[76.51874,30.74341]},"properties":{"udise":"03080402102","name":"GMS BHATTERI","state":"PUNJAB","district":"FATEHGARH SAHIB","block":"BASSI PATHANA","indicator":"girls_toilet_nonfunctional"}},{"type":"Feature","geometry":{"type":"Point","coordinates":[76.29971,30.61728]},"properties":{"udise":"03080103601","name":"GPS FATEHPUR","state":"PUNJAB","district":"FATEHGARH SAHIB","block":"TARKHAN MAJRA","indicator":"girls_toilet_nonfunctional"}},{"type":"Feature","geometry":{"type":"Point","coordinates":[76.30332,30.7447]},"properties":{"udise":"03080501401","name":"GPS BHARI","state":"PUNJAB","district":"FATEHGARH SAHIB","block":"MANDI GOBINDGARH","indicator":"girls_toilet_nonfunctional"}},{"type":"Feature","geometry":{"type":"Point","coordinates":[76.3012,30.6631]},"properties":{"udise":"03080209601","name":"GPS WARD NO.FIFTEEN","state":"PUNJAB","district":"FATEHGARH SAHIB","block":"MANDI GOBINDGARH","indicator":"girls_toilet_nonfunctional"}},{"type":"Feature","geometry":{"type":"Point","coordinates":[76.57803,30.60884]},"properties":{"udise":"03080301701","name":"GPS BHUA KHERI","state":"PUNJAB","district":"FATEHGARH SAHIB","block":"KHERA","indicator":"girls_toilet_nonfunctional"}},{"type":"Feature","geometry":{"type":"Point","coordinates":[76.33681,30.86723]},"properties":{"udise":"03080507101","name":"GPS SHAMASPUR SINGHAN","state":"PUNJAB","district":"FATEHGARH SAHIB","block":"KHAMANO","indicator":"girls_toilet_nonfunctional"}},{"type":"Feature","geometry":{"type":"Point","coordinates":[76.43496,30.57708]},"properties":{"udise":"03080107101","name":"GPS NABIPUR","state":"PUNJAB","district":"FATEHGARH SAHIB","block":"JAKHWALI","indicator":"girls_toilet_nonfunctional"}},{"type":"Feature","geometry":{"type":"Point","coordinates":[76.22926,30.65859]},"properties":{"udise":"03080213601","name":"GPS SHAHPUR","state":"PUNJAB","district":"FATEHGARH SAHIB","block":"MANDI GOBINDGARH","indicator":"girls_toilet_nonfunctional"}},{"type":"Feature","geometry":{"type":"Point","coordinates":[76.12909,30.57394]},"properties":{"udise":"03080202701","name":"GPS BHARPOOR GARH","state":"PUNJAB","district":"FATEHGARH SAHIB","block":"AMLOH","indicator":"girls_toilet_nonfunctional"}},{"type":"Feature","geometry":{"type":"Point","coordinates":[76.39648,30.72704]},"properties":{"udise":"03080402701","name":"GPS DHUNDA","state":"PUNJAB","district":"FATEHGARH SAHIB","block":"BASSI PATHANA","indicator":"girls_toilet_nonfunctional"}},{"type":"Feature","geometry":{"type":"Point","coordinates":[76.35386,30.64725]},"properties":{"udise":"03080403501","name":"GPS HARLALPUR","state":"PUNJAB","district":"FATEHGARH SAHIB","block":"TARKHAN MAJRA","indicator":"girls_toilet_nonfunctional"}},{"type":"Feature","geometry":{"type":"Point","coordinates":[76.35627,30.64352]},"properties":{"udise":"03080406201","name":"GPS MAJRI AZEEM","state":"PUNJAB","district":"FATEHGARH SAHIB","block":"TARKHAN MAJRA","indicator":"girls_toilet_nonfunctional"}},{"type":"Feature","geometry":{"type":"Point","coordinates":[76.37025,30.79934]},"properties":{"udise":"03080506401","name":"GPS RANWAN","state":"PUNJAB","district":"FATEHGARH SAHIB","block":"KHAMANO","indicator":"girls_toilet_nonfunctional"}},{"type":"Feature","geometry":{"type":"Point","coordinates":[76.2929,30.6791]},"properties":{"udise":"03080209604","name":"DIYA INTERNATIONAL SCHOOL","state":"PUNJAB","district":"FATEHGARH SAHIB","block":"MANDI GOBINDGARH","indicator":"girls_toilet_nonfunctional"}},{"type":"Feature","geometry":{"type":"Point","coordinates":[74.27385,30.59045]},"properties":{"udise":"03210405401","name":"GPS ARAYIAN WALA","state":"PUNJAB","district":"FAZILKA","block":"JALALABAD-2","indicator":"no_girls_toilet"}},{"type":"Feature","geometry":{"type":"Point","coordinates":[74.24575,30.52676]},"properties":{"udise":"03210424501","name":"GPS DHANI MARHIAN WALA","state":"PUNJAB","district":"FAZILKA","block":"JALALABAD-2","indicator":"no_girls_toilet"}},{"type":"Feature","geometry":{"type":"Point","coordinates":[74.11779,30.51933]},"properties":{"udise":"03210414501","name":"GPS CHAK HAMID SAIDO KE","state":"PUNJAB","district":"FAZILKA","block":"JALALABAD-1","indicator":"no_girls_toilet"}},{"type":"Feature","geometry":{"type":"Point","coordinates":[74.11803,30.50222]},"properties":{"udise":"03210424401","name":"GPS BASTI CHANDIGARH","state":"PUNJAB","district":"FAZILKA","block":"JALALABAD-1","indicator":"no_girls_toilet"}},{"type":"Feature","geometry":{"type":"Point","coordinates":[74.16864,30.55082]},"properties":{"udise":"03210415301","name":"GPS CHAK MOHAMDE WALA","state":"PUNJAB","district":"FAZILKA","block":"JALALABAD-1","indicator":"no_girls_toilet"}},{"type":"Feature","geometry":{"type":"Point","coordinates":[74.06362,30.121]},"properties":{"udise":"03210206501","name":"GPS TELU PURA","state":"PUNJAB","district":"FAZILKA","block":"KHUIAN SARWAR","indicator":"no_girls_toilet"}},{"type":"Feature","geometry":{"type":"Point","coordinates":[73.98405,30.06498]},"properties":{"udise":"03210205004","name":"SHIV SHAKTI MODEL SCHOOL MAUJGARH","state":"PUNJAB","district":"FAZILKA","block":"KHUIAN SARWAR","indicator":"girls_toilet_nonfunctional"}},{"type":"Feature","geometry":{"type":"Point","coordinates":[74.19264,30.49454]},"properties":{"udise":"03210402901","name":"GPS HOJ KHAS","state":"PUNJAB","district":"FAZILKA","block":"JALALABAD-2","indicator":"girls_toilet_nonfunctional"}},{"type":"Feature","geometry":{"type":"Point","coordinates":[74.25324,30.56518]},"properties":{"udise":"03210406002","name":"GPS CHAK RUM WALA","state":"PUNJAB","district":"FAZILKA","block":"JALALABAD-2","indicator":"girls_toilet_nonfunctional"}},{"type":"Feature","geometry":{"type":"Point","coordinates":[74.21102,30.48818]},"properties":{"udise":"03210404801","name":"GPS LAKHO WALI","state":"PUNJAB","district":"FAZILKA","block":"JALALABAD-2","indicator":"girls_toilet_nonfunctional"}},{"type":"Feature","geometry":{"type":"Point","coordinates":[74.08933,30.50905]},"properties":{"udise":"03210315101","name":"GPS DHANI MOHNA RAM","state":"PUNJAB","district":"FAZILKA","block":"FAZILKA-1","indicator":"girls_toilet_nonfunctional"}},{"type":"Feature","geometry":{"type":"Point","coordinates":[74.23676,30.59795]},"properties":{"udise":"03210408201","name":"GPS BASTI TIWANA KALAN","state":"PUNJAB","district":"FAZILKA","block":"JALALABAD-1","indicator":"girls_toilet_nonfunctional"}},{"type":"Feature","geometry":{"type":"Point","coordinates":[74.11671,30.4956]},"properties":{"udise":"03210307601","name":"GPS DHANI SOHAN LAL","state":"PUNJAB","district":"FAZILKA","block":"FAZILKA-1","indicator":"girls_toilet_nonfunctional"}},{"type":"Feature","geometry":{"type":"Point","coordinates":[74.0102,30.37798]},"properties":{"udise":"03210303001","name":"GPS CHANAN WALA FZK-2","state":"PUNJAB","district":"FAZILKA","block":"FAZILKA-2","indicator":"girls_toilet_nonfunctional"}},{"type":"Feature","geometry":{"type":"Point","coordinates":[74.26709,30.58768]},"properties":{"udise":"03210418201","name":"GPS BASTI CHAK ARAYIAN WALA","state":"PUNJAB","district":"FAZILKA","block":"JALALABAD-2","indicator":"girls_toilet_nonfunctional"}},{"type":"Feature","geometry":{"type":"Point","coordinates":[74.4233,30.86879]},"properties":{"udise":"03110613801","name":"GSSS BOYS MAMDOT UTTAR","state":"PUNJAB","district":"FIROZPUR","block":"MAMDOT","indicator":"no_girls_toilet"}},{"type":"Feature","geometry":{"type":"Point","coordinates":[74.56475,30.97389]},"properties":{"udise":"03110719901","name":"GPS HUSAINI WALA WORKSHOP","state":"PUNJAB","district":"FIROZPUR","block":"FEROZEPUR-3","indicator":"no_girls_toilet"}},{"type":"Feature","geometry":{"type":"Point","coordinates":[74.59399,30.91945]},"properties":{"udise":"03110715501","name":"GPS NAURANG KE SIAL","state":"PUNJAB","district":"FIROZPUR","block":"FEROZEPUR-1","indicator":"girls_toilet_nonfunctional"}},{"type":"Feature","geometry":{"type":"Point","coordinates":[74.60835,30.98311]},"properties":{"udise":"03110707504","name":"GPS KHUH MOHAR SINGH WALA","state":"PUNJAB","district":"FIROZPUR","block":"FEROZEPUR-3","indicator":"girls_toilet_nonfunctional"}},{"type":"Feature","geometry":{"type":"Point","coordinates":[75.03668,30.93418]},"properties":{"udise":"03110908801","name":"GPS JHATRA","state":"PUNJAB","district":"FIROZPUR","block":"ZIRA","indicator":"girls_toilet_nonfunctional"}},{"type":"Feature","geometry":{"type":"Point","coordinates":[74.85071,30.96203]},"properties":{"udise":"03110905501","name":"GPS GOGOANI","state":"PUNJAB","district":"FIROZPUR","block":"ZIRA","indicator":"girls_toilet_nonfunctional"}},{"type":"Feature","geometry":{"type":"Point","coordinates":[75.08453,32.00033]},"properties":{"udise":"03010506501","name":"GPS TAPALA","state":"PUNJAB","district":"GURDASPUR","block":"DERA BABA NANAK-2","indicator":"no_girls_toilet"}},{"type":"Feature","geometry":{"type":"Point","coordinates":[75.34041,31.8674]},"properties":{"udise":"03011307102","name":"GMS DHARIWAL BHOJA","state":"PUNJAB","district":"GURDASPUR","block":"DHARIWAL-1","indicator":"no_girls_toilet"}},{"type":"Feature","geometry":{"type":"Point","coordinates":[75.07876,31.99213]},"properties":{"udise":"03010509401","name":"GPS PATTI BARIAR","state":"PUNJAB","district":"GURDASPUR","block":"DERA BABA NANAK-2","indicator":"no_girls_toilet"}},{"type":"Feature","geometry":{"type":"Point","coordinates":[75.31697,31.97001]},"properties":{"udise":"03011302302","name":"GMS THEH TIKHA","state":"PUNJAB","district":"GURDASPUR","block":"DHARIWAL-2","indicator":"no_girls_toilet"}},{"type":"Feature","geometry":{"type":"Point","coordinates":[75.4466,31.83651]},"properties":{"udise":"03011204801","name":"GPS HAMBOWAL","state":"PUNJAB","district":"GURDASPUR","block":"KAHNUWAN-2","indicator":"no_girls_toilet"}},{"type":"Feature","geometry":{"type":"Point","coordinates":[75.16485,31.96953]},"properties":{"udise":"03010807601","name":"GPS AUJLA","state":"PUNJAB","district":"GURDASPUR","block":"DERA BABA NANAK-2","indicator":"no_girls_toilet"}},{"type":"Feature","geometry":{"type":"Point","coordinates":[75.02187,31.99045]},"properties":{"udise":"03010507301","name":"GPS ABDAL","state":"PUNJAB","district":"GURDASPUR","block":"DERA BABA NANAK - 1","indicator":"no_girls_toilet"}},{"type":"Feature","geometry":{"type":"Point","coordinates":[75.00746,31.93748]},"properties":{"udise":"03010500902","name":"GMS RUPOWAL","state":"PUNJAB","district":"GURDASPUR","block":"DHIANPUR","indicator":"no_girls_toilet"}},{"type":"Feature","geometry":{"type":"Point","coordinates":[75.39618,32.03507]},"properties":{"udise":"03010107501","name":"GPS MEHMADPUR","state":"PUNJAB","district":"GURDASPUR","block":"GURDASPUR-1","indicator":"no_girls_toilet"}},{"type":"Feature","geometry":{"type":"Point","coordinates":[75.17001,31.82399]},"properties":{"udise":"03010704001","name":"GPS SIMBLE II","state":"PUNJAB","district":"GURDASPUR","block":"BATALA-2","indicator":"no_girls_toilet"}},{"type":"Feature","geometry":{"type":"Point","coordinates":[75.43928,31.72129]},"properties":{"udise":"03011500601","name":"GPS CHEEMA KHUDI","state":"PUNJAB","district":"GURDASPUR","block":"SHRI HARGOBINDPUR","indicator":"no_girls_toilet"}},{"type":"Feature","geometry":{"type":"Point","coordinates":[75.17458,31.85218]},"properties":{"udise":"03010702901","name":"GPS HARUWAL","state":"PUNJAB","district":"GURDASPUR","block":"BATALA-2","indicator":"no_girls_toilet"}},{"type":"Feature","geometry":{"type":"Point","coordinates":[75.41968,32.00628]},"properties":{"udise":"03010101104","name":"GSSS BABEHALI","state":"PUNJAB","district":"GURDASPUR","block":"GURDASPUR-1","indicator":"no_girls_toilet"}},{"type":"Feature","geometry":{"type":"Point","coordinates":[75.04793,31.93145]},"properties":{"udise":"03010511301","name":"GPS RAIMAL","state":"PUNJAB","district":"GURDASPUR","block":"DHIANPUR","indicator":"no_girls_toilet"}},{"type":"Feature","geometry":{"type":"Point","coordinates":[75.32868,32.15278]},"properties":{"udise":"03011604401","name":"GPS THAKARPUR","state":"PUNJAB","district":"GURDASPUR","block":"DORANGLA","indicator":"no_girls_toilet"}},{"type":"Feature","geometry":{"type":"Point","coordinates":[75.25225,31.97187]},"properties":{"udise":"03011302201","name":"GPS CHHOTEPUR","state":"PUNJAB","district":"GURDASPUR","block":"DHARIWAL-2","indicator":"no_girls_toilet"}},{"type":"Feature","geometry":{"type":"Point","coordinates":[75.49853,31.95008]},"properties":{"udise":"03011207001","name":"GPS DARAPUR","state":"PUNJAB","district":"GURDASPUR","block":"KAHNUWAN-1","indicator":"no_girls_toilet"}},{"type":"Feature","geometry":{"type":"Point","coordinates":[75.08185,32.05675]},"properties":{"udise":"03010504501","name":"GPS BHAGTANA TULIAN","state":"PUNJAB","district":"GURDASPUR","block":"DERA BABA NANAK-2","indicator":"no_girls_toilet"}},{"type":"Feature","geometry":{"type":"Point","coordinates":[75.03331,31.84593]},"properties":{"udise":"03010307101","name":"GPS ALIWAL JATTAN","state":"PUNJAB","district":"GURDASPUR","block":"FATEHGARH CHURIAN","indicator":"no_girls_toilet"}},{"type":"Feature","geometry":{"type":"Point","coordinates":[75.17496,31.87395]},"properties":{"udise":"03010311901","name":"GPS DHAMODER","state":"PUNJAB","district":"GURDASPUR","block":"DHIANPUR","indicator":"no_girls_toilet"}},{"type":"Feature","geometry":{"type":"Point","coordinates":[74.94719,31.88459]},"properties":{"udise":"03010300403","name":"GHS BADOWAL KALAN","state":"PUNJAB","district":"GURDASPUR","block":"FATEHGARH CHURIAN","indicator":"no_girls_toilet"}},{"type":"Feature","geometry":{"type":"Point","coordinates":[75.22953,31.87247]},"properties":{"udise":"03010701401","name":"GPS KOTLA SHAHIA","state":"PUNJAB","district":"GURDASPUR","block":"BATALA-2","indicator":"no_girls_toilet"}},{"type":"Feature","geometry":{"type":"Point","coordinates":[75.4168,32.04238]},"properties":{"udise":"03010101051","name":"MGM MODEL PRIMARY SCHOOLGSP","state":"PUNJAB","district":"GURDASPUR","block":"GURDASPUR-1","indicator":"no_girls_toilet"}},{"type":"Feature","geometry":{"type":"Point","coordinates":[75.27594,31.85484]},"properties":{"udise":"03010711901","name":"GPS HARSIAN","state":"PUNJAB","district":"GURDASPUR","block":"BATALA-1","indicator":"no_girls_toilet"}},{"type":"Feature","geometry":{"type":"Point","coordinates":[75.20315,31.99186]},"properties":{"udise":"03010801901","name":"GPS LAKHAN KALAN","state":"PUNJAB","district":"GURDASPUR","block":"DHARIWAL-2","indicator":"no_girls_toilet"}},{"type":"Feature","geometry":{"type":"Point","coordinates":[75.24694,32.06458]},"properties":{"udise":"03010115801","name":"GPS HARDOCHHANI","state":"PUNJAB","district":"GURDASPUR","block":"KALANAUR","indicator":"girls_toilet_nonfunctional"}},{"type":"Feature","geometry":{"type":"Point","coordinates":[75.43903,32.08557]},"properties":{"udise":"03010107801","name":"GPS GANDHI COLONY","state":"PUNJAB","district":"GURDASPUR","block":"DINANAGAR-2","indicator":"girls_toilet_nonfunctional"}},{"type":"Feature","geometry":{"type":"Point","coordinates":[74.98019,31.88896]},"properties":{"udise":"03010300701","name":"GPS JHANJIAN KHURD","state":"PUNJAB","district":"GURDASPUR","block":"FATEHGARH CHURIAN","indicator":"girls_toilet_nonfunctional"}},{"type":"Feature","geometry":{"type":"Point","coordinates":[75.15159,32.01033]},"properties":{"udise":"03010800109","name":"DAV High School kalanaur","state":"PUNJAB","district":"GURDASPUR","block":"KALANAUR","indicator":"girls_toilet_nonfunctional"}},{"type":"Feature","geometry":{"type":"Point","coordinates":[75.47865,32.09086]},"properties":{"udise":"03010608901","name":"GPS ANANDPUR","state":"PUNJAB","district":"GURDASPUR","block":"DINANAGAR - 1","indicator":"girls_toilet_nonfunctional"}},{"type":"Feature","geometry":{"type":"Point","coordinates":[75.28433,31.87027]},"properties":{"udise":"03011309002","name":"GURU NANAK H S SATOKHA","state":"PUNJAB","district":"GURDASPUR","block":"DHARIWAL-1","indicator":"girls_toilet_nonfunctional"}},{"type":"Feature","geometry":{"type":"Point","coordinates":[75.5011,32.13675]},"properties":{"udise":"03010609501","name":"GPS HAWELI","state":"PUNJAB","district":"GURDASPUR","block":"DINANAGAR - 1","indicator":"girls_toilet_nonfunctional"}},{"type":"Feature","geometry":{"type":"Point","coordinates":[75.5085,31.91999]},"properties":{"udise":"03011208001","name":"GPS MUNAN KALAN","state":"PUNJAB","district":"GURDASPUR","block":"KAHNUWAN-1","indicator":"girls_toilet_nonfunctional"}},{"type":"Feature","geometry":{"type":"Point","coordinates":[74.95723,31.86804]},"properties":{"udise":"03010304613","name":"BVN SCHOOL","state":"PUNJAB","district":"GURDASPUR","block":"FATEHGARH CHURIAN","indicator":"girls_toilet_nonfunctional"}},{"type":"Feature","geometry":{"type":"Point","coordinates":[75.12444,31.95387]},"properties":{"udise":"03010514301","name":"GPS MALAKPUR","state":"PUNJAB","district":"GURDASPUR","block":"DERA BABA NANAK-2","indicator":"girls_toilet_nonfunctional"}},{"type":"Feature","geometry":{"type":"Point","coordinates":[75.06655,31.93409]},"properties":{"udise":"03010301602","name":"GMS MANJIAN WALI","state":"PUNJAB","district":"GURDASPUR","block":"FATEHGARH CHURIAN","indicator":"girls_toilet_nonfunctional"}},{"type":"Feature","geometry":{"type":"Point","coordinates":[75.15177,32.01014]},"properties":{"udise":"03010116003","name":"EVERGREEN MODERN SCHOOL","state":"PUNJAB","district":"GURDASPUR","block":"KALANAUR","indicator":"girls_toilet_nonfunctional"}},{"type":"Feature","geometry":{"type":"Point","coordinates":[75.32183,31.87844]},"properties":{"udise":"03011309101","name":"GPS KHAN PIYARA","state":"PUNJAB","district":"GURDASPUR","block":"DHARIWAL-1","indicator":"girls_toilet_nonfunctional"}},{"type":"Feature","geometry":{"type":"Point","coordinates":[75.32802,32.10758]},"properties":{"udise":"03011606401","name":"GPS BAINS","state":"PUNJAB","district":"GURDASPUR","block":"DORANGLA","indicator":"girls_toilet_nonfunctional"}},{"type":"Feature","geometry":{"type":"Point","coordinates":[75.17153,31.88156]},"properties":{"udise":"03010713304","name":"GURU HAR RAI PUBLIC SCHOOL, D.B.N ROAD QILLA LAL SINGH","state":"PUNJAB","district":"GURDASPUR","block":"DHIANPUR","indicator":"girls_toilet_nonfunctional"}},{"type":"Feature","geometry":{"type":"Point","coordinates":[75.07603,31.83788]},"properties":{"udise":"03010305101","name":"GPS JANGLA","state":"PUNJAB","district":"GURDASPUR","block":"FATEHGARH CHURIAN","indicator":"girls_toilet_nonfunctional"}},{"type":"Feature","geometry":{"type":"Point","coordinates":[75.07587,32.01261]},"properties":{"udise":"03010500802","name":"GMS NIKKO SARAI","state":"PUNJAB","district":"GURDASPUR","block":"DHIANPUR","indicator":"girls_toilet_nonfunctional"}},{"type":"Feature","geometry":{"type":"Point","coordinates":[74.95667,31.86389]},"properties":{"udise":"03010304608","name":"MISSION PS FGC","state":"PUNJAB","district":"GURDASPUR","block":"FATEHGARH CHURIAN","indicator":"girls_toilet_nonfunctional"}},{"type":"Feature","geometry":{"type":"Point","coordinates":[75.53217,32.14069]},"properties":{"udise":"03010609801","name":"GPS KUNDE GHESAL","state":"PUNJAB","district":"GURDASPUR","block":"DINANAGAR - 1","indicator":"girls_toilet_nonfunctional"}},{"type":"Feature","geometry":{"type":"Point","coordinates":[75.412,31.85139]},"properties":{"udise":"03011200501","name":"GPS KOT TODER MAL","state":"PUNJAB","district":"GURDASPUR","block":"KAHNUWAN-2","indicator":"girls_toilet_nonfunctional"}},{"type":"Feature","geometry":{"type":"Point","coordinates":[75.11582,31.80057]},"properties":{"udise":"03010306201","name":"GPS KAMMONANGAL","state":"PUNJAB","district":"GURDASPUR","block":"DHIANPUR","indicator":"girls_toilet_nonfunctional"}},{"type":"Feature","geometry":{"type":"Point","coordinates":[75.5129,31.89148]},"properties":{"udise":"03011208501","name":"GPS JHANDA LUBANA","state":"PUNJAB","district":"GURDASPUR","block":"KAHNUWAN-1","indicator":"girls_toilet_nonfunctional"}},{"type":"Feature","geometry":{"type":"Point","coordinates":[75.33361,31.83818]},"properties":{"udise":"03010200202","name":"GMS TALWANDI JHUNGLAN","state":"PUNJAB","district":"GURDASPUR","block":"BATALA-2","indicator":"girls_toilet_nonfunctional"}},{"type":"Feature","geometry":{"type":"Point","coordinates":[75.02183,31.85172]},"properties":{"udise":"03010306301","name":"GPS MAAN SAIDWAL","state":"PUNJAB","district":"GURDASPUR","block":"FATEHGARH CHURIAN","indicator":"girls_toilet_nonfunctional"}},{"type":"Feature","geometry":{"type":"Point","coordinates":[75.24221,31.87077]},"properties":{"udise":"03010714101","name":"GPS KOTLI FASSI","state":"PUNJAB","district":"GURDASPUR","block":"BATALA-1","indicator":"girls_toilet_nonfunctional"}},{"type":"Feature","geometry":{"type":"Point","coordinates":[75.45202,31.78009]},"properties":{"udise":"03010207901","name":"GPS HARCHOWAL(B)","state":"PUNJAB","district":"GURDASPUR","block":"SHRI HARGOBINDPUR","indicator":"girls_toilet_nonfunctional"}},{"type":"Feature","geometry":{"type":"Point","coordinates":[75.36975,31.66859]},"properties":{"udise":"03011500901","name":"GPS MALOWAL","state":"PUNJAB","district":"GURDASPUR","block":"SHRI HARGOBINDPUR","indicator":"girls_toilet_nonfunctional"}},{"type":"Feature","geometry":{"type":"Point","coordinates":[75.26378,31.8375]},"properties":{"udise":"03010700201","name":"GPS MALAKPUR","state":"PUNJAB","district":"GURDASPUR","block":"BATALA-2","indicator":"girls_toilet_nonfunctional"}},{"type":"Feature","geometry":{"type":"Point","coordinates":[75.25349,31.78565]},"properties":{"udise":"03010714001","name":"GPS KHOJEWAL","state":"PUNJAB","district":"GURDASPUR","block":"BATALA-1","indicator":"girls_toilet_nonfunctional"}},{"type":"Feature","geometry":{"type":"Point","coordinates":[75.34653,32.11389]},"properties":{"udise":"03011610001","name":"GPS GANJI","state":"PUNJAB","district":"GURDASPUR","block":"DORANGLA","indicator":"girls_toilet_nonfunctional"}},{"type":"Feature","geometry":{"type":"Point","coordinates":[75.27346,31.97258]},"properties":{"udise":"03011301905","name":"PUNJAB PUB.SCH. KOT SANTOKHRAI","state":"PUNJAB","district":"GURDASPUR","block":"DHARIWAL-2","indicator":"girls_toilet_nonfunctional"}},{"type":"Feature","geometry":{"type":"Point","coordinates":[75.3959,31.61683]},"properties":{"udise":"03011505701","name":"GPS BAGHE","state":"PUNJAB","district":"GURDASPUR","block":"SHRI HARGOBINDPUR","indicator":"girls_toilet_nonfunctional"}},{"type":"Feature","geometry":{"type":"Point","coordinates":[75.56633,32.12301]},"properties":{"udise":"03010605501","name":"GPS CHAUNTA","state":"PUNJAB","district":"GURDASPUR","block":"DINANAGAR - 1","indicator":"girls_toilet_nonfunctional"}},{"type":"Feature","geometry":{"type":"Point","coordinates":[75.86839,31.41293]},"properties":{"udise":"03050505301","name":"GPS MONA KHURD","state":"PUNJAB","district":"HOSHIARPUR","block":"KOT FATUHI","indicator":"no_girls_toilet"}},{"type":"Feature","geometry":{"type":"Point","coordinates":[75.58972,31.9212]},"properties":{"udise":"03050807901","name":"GPS TANDA RAM SAHAI","state":"PUNJAB","district":"HOSHIARPUR","block":"MUKERIAN 1","indicator":"no_girls_toilet"}},{"type":"Feature","geometry":{"type":"Point","coordinates":[75.93563,31.41082]},"properties":{"udise":"03050506601","name":"GPS SEENA","state":"PUNJAB","district":"HOSHIARPUR","block":"MAHILPUR 2","indicator":"girls_toilet_nonfunctional"}},{"type":"Feature","geometry":{"type":"Point","coordinates":[75.6543,31.61484]},"properties":{"udise":"03051013001","name":"GPS KHARL KHURD","state":"PUNJAB","district":"HOSHIARPUR","block":"TANDA 1","indicator":"girls_toilet_nonfunctional"}},{"type":"Feature","geometry":{"type":"Point","coordinates":[75.78964,31.02307]},"properties":{"udise":"03040811401","name":"SCHOOL OF EMINENCE PHILLAUR, DISTRICT JALANDHAR","state":"PUNJAB","district":"JALANDHAR","block":"PHILLOUR","indicator":"no_girls_toilet"}},{"type":"Feature","geometry":{"type":"Point","coordinates":[75.466,31.129]},"properties":{"udise":"03040515701","name":"GPS SHERPUR","state":"PUNJAB","district":"JALANDHAR","block":"NAKODER-01","indicator":"no_girls_toilet"}},{"type":"Feature","geometry":{"type":"Point","coordinates":[75.27139,31.30472]},"properties":{"udise":"03040902802","name":"ADARSH PUB.SCHOOL(NOORMAHAL)","state":"PUNJAB","district":"JALANDHAR","block":"NOORMAHAL","indicator":"no_girls_toilet"}},{"type":"Feature","geometry":{"type":"Point","coordinates":[75.47096,31.05309]},"properties":{"udise":"03041107201","name":"GPS SHAHPUR","state":"PUNJAB","district":"JALANDHAR","block":"NAKODER-01","indicator":"no_girls_toilet"}},{"type":"Feature","geometry":{"type":"Point","coordinates":[75.53038,31.49617]},"properties":{"udise":"03040200301","name":"GPS ALAMPUR BAKKA","state":"PUNJAB","district":"JALANDHAR","block":"KARTARPUR","indicator":"girls_toilet_nonfunctional"}},{"type":"Feature","geometry":{"type":"Point","coordinates":[75.20333,31.12028]},"properties":{"udise":"03040704002","name":"DASMESH PUBLIC HIGH SCHOOL, KANG KHURD (LOHIAN KHAS)","state":"PUNJAB","district":"JALANDHAR","block":"LOHIAN KHASS","indicator":"girls_toilet_nonfunctional"}},{"type":"Feature","geometry":{"type":"Point","coordinates":[75.57735,30.98511]},"properties":{"udise":"03040901601","name":"GPS BHODA","state":"PUNJAB","district":"JALANDHAR","block":"NOORMAHAL","indicator":"girls_toilet_nonfunctional"}},{"type":"Feature","geometry":{"type":"Point","coordinates":[75.5256,31.6092]},"properties":{"udise":"03030302002","name":"GMS BEGOWAL","state":"PUNJAB","district":"KAPURTHALA","block":"BHOLATH","indicator":"no_girls_toilet"}},{"type":"Feature","geometry":{"type":"Point","coordinates":[75.43302,31.34667]},"properties":{"udise":"03030204401","name":"GPS DHAPAI","state":"PUNJAB","district":"KAPURTHALA","block":"KAPURTHALA-2","indicator":"no_girls_toilet"}},{"type":"Feature","geometry":{"type":"Point","coordinates":[75.4301,31.61732]},"properties":{"udise":"03030309401","name":"GPS MAND SARDAR SAHIB WALA","state":"PUNJAB","district":"KAPURTHALA","block":"NADALA","indicator":"no_girls_toilet"}},{"type":"Feature","geometry":{"type":"Point","coordinates":[75.50723,31.58468]},"properties":{"udise":"03030302303","name":"SANT MAJHA SINGH KARAMJOT MODEL PUBLIC SCHOOL","state":"PUNJAB","district":"KAPURTHALA","block":"BHOLATH","indicator":"no_girls_toilet"}},{"type":"Feature","geometry":{"type":"Point","coordinates":[75.43739,31.59165]},"properties":{"udise":"03030309501","name":"GPS MAND TALWANDI KUKA","state":"PUNJAB","district":"KAPURTHALA","block":"BHOLATH","indicator":"no_girls_toilet"}},{"type":"Feature","geometry":{"type":"Point","coordinates":[75.47289,31.6057]},"properties":{"udise":"03030310804","name":"GSSS NANGAL LUBANA","state":"PUNJAB","district":"KAPURTHALA","block":"BHOLATH","indicator":"no_girls_toilet"}},{"type":"Feature","geometry":{"type":"Point","coordinates":[75.36162,31.49351]},"properties":{"udise":"03030103701","name":"GPS GAZI GADNA","state":"PUNJAB","district":"KAPURTHALA","block":"NADALA","indicator":"no_girls_toilet"}},{"type":"Feature","geometry":{"type":"Point","coordinates":[75.3531,31.48253]},"properties":{"udise":"03030108802","name":"GMS NOOR PUR JATTAN","state":"PUNJAB","district":"KAPURTHALA","block":"KAPURTHALA-2","indicator":"no_girls_toilet"}},{"type":"Feature","geometry":{"type":"Point","coordinates":[75.41845,31.57689]},"properties":{"udise":"03030305701","name":"GPS HASSU WAL","state":"PUNJAB","district":"KAPURTHALA","block":"NADALA","indicator":"no_girls_toilet"}},{"type":"Feature","geometry":{"type":"Point","coordinates":[75.39477,31.55006]},"properties":{"udise":"03030513501","name":"GPS MIRZA PUR","state":"PUNJAB","district":"KAPURTHALA","block":"SULTANPUR LODHI-1","indicator":"no_girls_toilet"}},{"type":"Feature","geometry":{"type":"Point","coordinates":[75.1225,31.23643]},"properties":{"udise":"03030517902","name":"GMS SHBDULA PUR","state":"PUNJAB","district":"KAPURTHALA","block":"SULTANPUR LODHI-1","indicator":"no_girls_toilet"}},{"type":"Feature","geometry":{"type":"Point","coordinates":[75.37009,31.53005]},"properties":{"udise":"03030101602","name":"GHS BUTALA","state":"PUNJAB","district":"KAPURTHALA","block":"NADALA","indicator":"no_girls_toilet"}},{"type":"Feature","geometry":{"type":"Point","coordinates":[75.39514,31.47645]},"properties":{"udise":"03030109505","name":"GPS RAMIDI COLONY","state":"PUNJAB","district":"KAPURTHALA","block":"NADALA","indicator":"no_girls_toilet"}},{"type":"Feature","geometry":{"type":"Point","coordinates":[75.42127,31.27796]},"properties":{"udise":"03030216801","name":"GPS SUNNAR WAL","state":"PUNJAB","district":"KAPURTHALA","block":"KAPURTHALA-1","indicator":"no_girls_toilet"}},{"type":"Feature","geometry":{"type":"Point","coordinates":[75.51529,31.52735]},"properties":{"udise":"03030302401","name":"GPS BHAGWAN PUR","state":"PUNJAB","district":"KAPURTHALA","block":"BHOLATH","indicator":"no_girls_toilet"}},{"type":"Feature","geometry":{"type":"Point","coordinates":[75.45377,31.59281]},"properties":{"udise":"03030312502","name":"GMS TALWANDI KUKA","state":"PUNJAB","district":"KAPURTHALA","block":"BHOLATH","indicator":"girls_toilet_nonfunctional"}},{"type":"Feature","geometry":{"type":"Point","coordinates":[75.45235,31.5524]},"properties":{"udise":"03030313402","name":"GMS DAMULIAN","state":"PUNJAB","district":"KAPURTHALA","block":"NADALA","indicator":"girls_toilet_nonfunctional"}},{"type":"Feature","geometry":{"type":"Point","coordinates":[75.43959,31.55912]},"properties":{"udise":"03030311601","name":"GPS RAI PUR RAJ PUTTAN","state":"PUNJAB","district":"KAPURTHALA","block":"NADALA","indicator":"girls_toilet_nonfunctional"}},{"type":"Feature","geometry":{"type":"Point","coordinates":[75.83887,31.33546]},"properties":{"udise":"03030413601","name":"GPS TANDA BAGANA","state":"PUNJAB","district":"KAPURTHALA","block":"PHAGWARA-2","indicator":"girls_toilet_nonfunctional"}},{"type":"Feature","geometry":{"type":"Point","coordinates":[75.39365,31.37152]},"properties":{"udise":"03030207404","name":"BR PUBLIC SCHOOL","state":"PUNJAB","district":"KAPURTHALA","block":"KAPURTHALA-3","indicator":"girls_toilet_nonfunctional"}},{"type":"Feature","geometry":{"type":"Point","coordinates":[75.73297,31.25984]},"properties":{"udise":"03030408303","name":"RAMGARIYA M S NAGAL MAJHA","state":"PUNJAB","district":"KAPURTHALA","block":"PHAGWARA-2","indicator":"girls_toilet_nonfunctional"}},{"type":"Feature","geometry":{"type":"Point","coordinates":[75.13921,31.21803]},"properties":{"udise":"03030502901","name":"GPS BUSSOWAL","state":"PUNJAB","district":"KAPURTHALA","block":"SULTANPUR LODHI-1","indicator":"girls_toilet_nonfunctional"}},{"type":"Feature","geometry":{"type":"Point","coordinates":[75.44904,30.8426]},"properties":{"udise":"03091107801","name":"GPS SHERPUR KALAN","state":"PUNJAB","district":"LUDHIANA","block":"SIDHWAN BET-1","indicator":"no_girls_toilet"}},{"type":"Feature","geometry":{"type":"Point","coordinates":[76.21967,30.81923]},"properties":{"udise":"03091001201","name":"GPS Bondal","state":"PUNJAB","district":"LUDHIANA","block":"SAMRALA","indicator":"no_girls_toilet"}},{"type":"Feature","geometry":{"type":"Point","coordinates":[75.85584,30.90688]},"properties":{"udise":"03090510604","name":"GMS KUCHA NO.16","state":"PUNJAB","district":"LUDHIANA","block":"LUDHIANA-2","indicator":"no_girls_toilet"}},{"type":"Feature","geometry":{"type":"Point","coordinates":[75.64866,30.76865]},"properties":{"udise":"03091201601","name":"GPS PUL AKALGARH","state":"PUNJAB","district":"LUDHIANA","block":"SUDHAR","indicator":"no_girls_toilet"}},{"type":"Feature","geometry":{"type":"Point","coordinates":[75.98677,30.83646]},"properties":{"udise":"03090505308","name":"School Of Eminence Sahnewal Ludhiana","state":"PUNJAB","district":"LUDHIANA","block":"LUDHIANA-1","indicator":"no_girls_toilet"}},{"type":"Feature","geometry":{"type":"Point","coordinates":[75.9767,30.97803]},"properties":{"udise":"03090611002","name":"GHS MATTEWARA","state":"PUNJAB","district":"LUDHIANA","block":"MANGAT-2","indicator":"no_girls_toilet"}},{"type":"Feature","geometry":{"type":"Point","coordinates":[75.6487,30.76849]},"properties":{"udise":"03091201602","name":"GMS NEW ABADI AKALGARH","state":"PUNJAB","district":"LUDHIANA","block":"SUDHAR","indicator":"no_girls_toilet"}},{"type":"Feature","geometry":{"type":"Point","coordinates":[76.25893,30.80639]},"properties":{"udise":"03091005601","name":"GPS Sangatpura","state":"PUNJAB","district":"LUDHIANA","block":"SAMRALA","indicator":"girls_toilet_nonfunctional"}},{"type":"Feature","geometry":{"type":"Point","coordinates":[76.20125,30.76577]},"properties":{"udise":"03091000801","name":"GPS Bardala","state":"PUNJAB","district":"LUDHIANA","block":"SAMRALA","indicator":"girls_toilet_nonfunctional"}},{"type":"Feature","geometry":{"type":"Point","coordinates":[75.84019,30.61056]},"properties":{"udise":"03160103001","name":"GPS BEGOWAL","state":"PUNJAB","district":"MALERKOTLA","block":"AHMEDGARH","indicator":"no_girls_toilet"}},{"type":"Feature","geometry":{"type":"Point","coordinates":[75.85087,30.63576]},"properties":{"udise":"03160100801","name":"GPS ROHIRA","state":"PUNJAB","district":"MALERKOTLA","block":"AHMEDGARH","indicator":"no_girls_toilet"}},{"type":"Feature","geometry":{"type":"Point","coordinates":[75.78347,30.55836]},"properties":{"udise":"03160100301","name":"GPS ABDULLAPUR","state":"PUNJAB","district":"MALERKOTLA","block":"AHMEDGARH","indicator":"no_girls_toilet"}},{"type":"Feature","geometry":{"type":"Point","coordinates":[76.0033,30.5519]},"properties":{"udise":"03160709601","name":"GPS CHANDU RAIAN","state":"PUNJAB","district":"MALERKOTLA","block":"MALERKOTLA - 1","indicator":"no_girls_toilet"}},{"type":"Feature","geometry":{"type":"Point","coordinates":[75.76142,30.57002]},"properties":{"udise":"03160103701","name":"GPS DULWAN KALAN","state":"PUNJAB","district":"MALERKOTLA","block":"AHMEDGARH","indicator":"no_girls_toilet"}},{"type":"Feature","geometry":{"type":"Point","coordinates":[75.81403,30.55938]},"properties":{"udise":"03160109701","name":"GPS HUSSAINPURA","state":"PUNJAB","district":"MALERKOTLA","block":"AHMEDGARH","indicator":"no_girls_toilet"}},{"type":"Feature","geometry":{"type":"Point","coordinates":[75.87963,30.52952]},"properties":{"udise":"03160704302","name":"GPS MALERKOTLA (GIRLS)","state":"PUNJAB","district":"MALERKOTLA","block":"MALERKOTLA - 2","indicator":"no_girls_toilet"}},{"type":"Feature","geometry":{"type":"Point","coordinates":[75.87163,30.61195]},"properties":{"udise":"03160108501","name":"GPS KUP KALAN","state":"PUNJAB","district":"MALERKOTLA","block":"AHMEDGARH","indicator":"no_girls_toilet"}},{"type":"Feature","geometry":{"type":"Point","coordinates":[75.87537,30.51835]},"properties":{"udise":"03160707501","name":"MODERN PUBLIC SCHOOL JAMALPURA","state":"PUNJAB","district":"MALERKOTLA","block":"MALERKOTLA - 2","indicator":"no_girls_toilet"}},{"type":"Feature","geometry":{"type":"Point","coordinates":[75.84214,30.58978]},"properties":{"udise":"03160104602","name":"GMS JITWAL KHURD","state":"PUNJAB","district":"MALERKOTLA","block":"AHMEDGARH","indicator":"girls_toilet_nonfunctional"}},{"type":"Feature","geometry":{"type":"Point","coordinates":[75.8593,30.65524]},"properties":{"udise":"03160105703","name":"ISLAMIA PUBLIC SCHOOL","state":"PUNJAB","district":"MALERKOTLA","block":"AHMEDGARH","indicator":"girls_toilet_nonfunctional"}},{"type":"Feature","geometry":{"type":"Point","coordinates":[75.9312,30.49777]},"properties":{"udise":"03160705201","name":"GPS UPPEL KHERI","state":"PUNJAB","district":"MALERKOTLA","block":"MALERKOTLA - 1","indicator":"girls_toilet_nonfunctional"}},{"type":"Feature","geometry":{"type":"Point","coordinates":[75.86515,30.45435]},"properties":{"udise":"03160703001","name":"GPS HIMTANA MANDI","state":"PUNJAB","district":"MALERKOTLA","block":"MALERKOTLA - 2","indicator":"girls_toilet_nonfunctional"}},{"type":"Feature","geometry":{"type":"Point","coordinates":[75.89012,30.52501]},"properties":{"udise":"03160108304","name":"Vidyasagar Public school","state":"PUNJAB","district":"MALERKOTLA","block":"MALERKOTLA - 2","indicator":"girls_toilet_nonfunctional"}},{"type":"Feature","geometry":{"type":"Point","coordinates":[75.92082,30.52259]},"properties":{"udise":"03160713201","name":"GPS HAIDER NAGAR","state":"PUNJAB","district":"MALERKOTLA","block":"MALERKOTLA - 2","indicator":"girls_toilet_nonfunctional"}},{"type":"Feature","geometry":{"type":"Point","coordinates":[75.41648,29.808]},"properties":{"udise":"03150303302","name":"GPS NANDGARH","state":"PUNJAB","district":"MANSA","block":"JHUNIR-I","indicator":"no_girls_toilet"}},{"type":"Feature","geometry":{"type":"Point","coordinates":[75.22835,29.93623]},"properties":{"udise":"03150300201","name":"SHAHEED MANJINDER SINGH GPS BANA WALA","state":"PUNJAB","district":"MANSA","block":"JHUNIR-I","indicator":"no_girls_toilet"}},{"type":"Feature","geometry":{"type":"Point","coordinates":[75.53983,29.97352]},"properties":{"udise":"03150203402","name":"GPS GURNE KALAN","state":"PUNJAB","district":"MANSA","block":"BUDHLADA-I","indicator":"no_girls_toilet"}},{"type":"Feature","geometry":{"type":"Point","coordinates":[75.34935,29.70828]},"properties":{"udise":"03150502701","name":"GPS KARIPUR DUMB","state":"PUNJAB","district":"MANSA","block":"JHUNIR-II AT SDGH","indicator":"no_girls_toilet"}},{"type":"Feature","geometry":{"type":"Point","coordinates":[75.58643,29.7851]},"properties":{"udise":"03150211301","name":"GPS REOND PLOT I","state":"PUNJAB","district":"MANSA","block":"BUDHLADA-II AT BARETA","indicator":"no_girls_toilet"}},{"type":"Feature","geometry":{"type":"Point","coordinates":[75.54832,30.1169]},"properties":{"udise":"03150101502","name":"GPS GURTHARI","state":"PUNJAB","district":"MANSA","block":"BUDHLADA-I","indicator":"no_girls_toilet"}},{"type":"Feature","geometry":{"type":"Point","coordinates":[75.30707,29.68916]},"properties":{"udise":"03150503701","name":"GPS RANJITGARH BANDER","state":"PUNJAB","district":"MANSA","block":"JHUNIR-II AT SDGH","indicator":"no_girls_toilet"}},{"type":"Feature","geometry":{"type":"Point","coordinates":[75.34252,30.07971]},"properties":{"udise":"03150403002","name":"GPS BURJ RATHI","state":"PUNJAB","district":"MANSA","block":"MANSA","indicator":"no_girls_toilet"}},{"type":"Feature","geometry":{"type":"Point","coordinates":[75.53644,30.06686]},"properties":{"udise":"03150103301","name":"GPS BUS STAND BHIKHI","state":"PUNJAB","district":"MANSA","block":"BUDHLADA-I","indicator":"no_girls_toilet"}},{"type":"Feature","geometry":{"type":"Point","coordinates":[75.58674,29.75809]},"properties":{"udise":"03150207201","name":"GPS REOND KHURD","state":"PUNJAB","district":"MANSA","block":"BUDHLADA-II AT BARETA","indicator":"no_girls_toilet"}},{"type":"Feature","geometry":{"type":"Point","coordinates":[75.44561,29.86002]},"properties":{"udise":"03150204101","name":"GPS JOIAN","state":"PUNJAB","district":"MANSA","block":"JHUNIR-I","indicator":"no_girls_toilet"}},{"type":"Feature","geometry":{"type":"Point","coordinates":[75.55662,29.92895]},"properties":{"udise":"03150209702","name":"SHRI GURU TEG BAHADUR PUBLIC SCHOOL BUDHLADA","state":"PUNJAB","district":"MANSA","block":"BUDHLADA-I","indicator":"girls_toilet_nonfunctional"}},{"type":"Feature","geometry":{"type":"Point","coordinates":[75.39994,29.994]},"properties":{"udise":"03150405404","name":"BRIGHT FUTURE MIDDLE SCHOOL MANSA","state":"PUNJAB","district":"MANSA","block":"MANSA","indicator":"girls_toilet_nonfunctional"}},{"type":"Feature","geometry":{"type":"Point","coordinates":[75.49051,29.94879]},"properties":{"udise":"03150205303","name":"BMR MODEL SCH KULEHRI","state":"PUNJAB","district":"MANSA","block":"BUDHLADA-I","indicator":"girls_toilet_nonfunctional"}},{"type":"Feature","geometry":{"type":"Point","coordinates":[75.22848,29.82149]},"properties":{"udise":"03150501801","name":"GPS JAGAT GARH BANDRAN","state":"PUNJAB","district":"MANSA","block":"JHUNIR-II AT SDGH","indicator":"girls_toilet_nonfunctional"}},{"type":"Feature","geometry":{"type":"Point","coordinates":[75.41144,29.99629]},"properties":{"udise":"03150404703","name":"DASHMESH PB SCH MANSA","state":"PUNJAB","district":"MANSA","block":"MANSA","indicator":"girls_toilet_nonfunctional"}},{"type":"Feature","geometry":{"type":"Point","coordinates":[75.34664,29.67603]},"properties":{"udise":"03150502803","name":"GMS LOHGARH","state":"PUNJAB","district":"MANSA","block":"JHUNIR-II AT SDGH","indicator":"girls_toilet_nonfunctional"}},{"type":"Feature","geometry":{"type":"Point","coordinates":[75.43443,30.11846]},"properties":{"udise":"03150103209","name":"MAI BHAGO SS SCHOOL RALLA","state":"PUNJAB","district":"MANSA","block":"MANSA","indicator":"girls_toilet_nonfunctional"}},{"type":"Feature","geometry":{"type":"Point","coordinates":[75.72892,29.91109]},"properties":{"udise":"03150205006","name":"GPS KISHANGARH BRANCH","state":"PUNJAB","district":"MANSA","block":"BUDHLADA-II AT BARETA","indicator":"girls_toilet_nonfunctional"}},{"type":"Feature","geometry":{"type":"Point","coordinates":[75.49391,29.89835]},"properties":{"udise":"03150201103","name":"GPS BAREH PRI","state":"PUNJAB","district":"MANSA","block":"BUDHLADA-I","indicator":"girls_toilet_nonfunctional"}},{"type":"Feature","geometry":{"type":"Point","coordinates":[75.54534,29.92399]},"properties":{"udise":"03150209102","name":"UNIQUE PB SCH BLZ WNO.","state":"PUNJAB","district":"MANSA","block":"BUDHLADA-I","indicator":"girls_toilet_nonfunctional"}},{"type":"Feature","geometry":{"type":"Point","coordinates":[75.30945,29.77394]},"properties":{"udise":"03150501009","name":"SAINT MAHESH MUNI JI BOREWALA MEMORIAL SCHOOL","state":"PUNJAB","district":"MANSA","block":"JHUNIR-II AT SDGH","indicator":"girls_toilet_nonfunctional"}},{"type":"Feature","geometry":{"type":"Point","coordinates":[75.61227,29.96289]},"properties":{"udise":"03150200805","name":"NATIONAL PB SCH BACHHOANA","state":"PUNJAB","district":"MANSA","block":"BUDHLADA-I","indicator":"girls_toilet_nonfunctional"}},{"type":"Feature","geometry":{"type":"Point","coordinates":[75.25691,29.90846]},"properties":{"udise":"03150303502","name":"GPS RAIPUR","state":"PUNJAB","district":"MANSA","block":"JHUNIR-I","indicator":"girls_toilet_nonfunctional"}},{"type":"Feature","geometry":{"type":"Point","coordinates":[76.71744,30.56193]},"properties":{"udise":"03180221103","name":"SANAWAR MODEL SCHOOL","state":"PUNJAB","district":"MOHALI","block":"BANUR","indicator":"no_girls_toilet"}},{"type":"Feature","geometry":{"type":"Point","coordinates":[76.8249,30.6748]},"properties":{"udise":"03180115212","name":"JASMINE MODREN PUBLIC SCHOOL","state":"PUNJAB","district":"MOHALI","block":"BANUR","indicator":"girls_toilet_nonfunctional"}},{"type":"Feature","geometry":{"type":"Point","coordinates":[76.64241,30.74038]},"properties":{"udise":"03180200406","name":"JORAWAR PUBLIC SCHOOL","state":"PUNJAB","district":"MOHALI","block":"KHARAR 2","indicator":"girls_toilet_nonfunctional"}},{"type":"Feature","geometry":{"type":"Point","coordinates":[76.78113,30.83877]},"properties":{"udise":"03180305201","name":"GPS KARONDEWAL","state":"PUNJAB","district":"MOHALI","block":"MAJRI","indicator":"girls_toilet_nonfunctional"}},{"type":"Feature","geometry":{"type":"Point","coordinates":[76.72753,30.47044]},"properties":{"udise":"03180118001","name":"GPS BASMA COLONY","state":"PUNJAB","district":"MOHALI","block":"BANUR","indicator":"girls_toilet_nonfunctional"}},{"type":"Feature","geometry":{"type":"Point","coordinates":[76.69919,30.55934]},"properties":{"udise":"03180121103","name":"VISHKARMA PUBLIC SCHOOL","state":"PUNJAB","district":"MOHALI","block":"BANUR","indicator":"girls_toilet_nonfunctional"}},{"type":"Feature","geometry":{"type":"Point","coordinates":[74.30833,30.26361]},"properties":{"udise":"03120202902","name":"GPS DHANI UDAM SINGH","state":"PUNJAB","district":"MUKTSAR","block":"MALOUT","indicator":"no_girls_toilet"}},{"type":"Feature","geometry":{"type":"Point","coordinates":[74.80802,30.38271]},"properties":{"udise":"03120303601","name":"GPS KOTHE NAIWALA","state":"PUNJAB","district":"MUKTSAR","block":"GIDDERBAHA 2","indicator":"no_girls_toilet"}},{"type":"Feature","geometry":{"type":"Point","coordinates":[74.35003,30.44519]},"properties":{"udise":"03120105605","name":"DASHMESH PUBLIC SCHOOL BHAGSAR","state":"PUNJAB","district":"MUKTSAR","block":"MUKTSAR 2","indicator":"girls_toilet_nonfunctional"}},{"type":"Feature","geometry":{"type":"Point","coordinates":[74.46574,30.35249]},"properties":{"udise":"03120109301","name":"GPS TAMKOT","state":"PUNJAB","district":"MUKTSAR","block":"MUKTSAR 2","indicator":"girls_toilet_nonfunctional"}},{"type":"Feature","geometry":{"type":"Point","coordinates":[74.49128,30.65124]},"properties":{"udise":"03120104102","name":"GMS JAGAT SINGH WALA","state":"PUNJAB","district":"MUKTSAR","block":"MUKTSAR 1","indicator":"girls_toilet_nonfunctional"}},{"type":"Feature","geometry":{"type":"Point","coordinates":[74.44183,30.61285]},"properties":{"udise":"03120107801","name":"GPS RANJITGARH","state":"PUNJAB","district":"MUKTSAR","block":"MUKTSAR 1","indicator":"girls_toilet_nonfunctional"}},{"type":"Feature","geometry":{"type":"Point","coordinates":[74.43097,30.40762]},"properties":{"udise":"03120102202","name":"GMS CHAK MAHA BADHAR","state":"PUNJAB","district":"MUKTSAR","block":"MUKTSAR 2","indicator":"girls_toilet_nonfunctional"}},{"type":"Feature","geometry":{"type":"Point","coordinates":[74.51302,30.0997]},"properties":{"udise":"03120401201","name":"GPS DEON KHERA","state":"PUNJAB","district":"MUKTSAR","block":"LAMBI","indicator":"girls_toilet_nonfunctional"}},{"type":"Feature","geometry":{"type":"Point","coordinates":[74.38381,30.32837]},"properties":{"udise":"03120204101","name":"GPS TARKHAN WALA","state":"PUNJAB","district":"MUKTSAR","block":"MUKTSAR 2","indicator":"girls_toilet_nonfunctional"}},{"type":"Feature","geometry":{"type":"Point","coordinates":[76.12629,31.14302]},"properties":{"udise":"03060405802","name":"GMS MEHANDIPUR","state":"PUNJAB","district":"NAWANSHAHR","block":"NAWANSHAHAR-1","indicator":"no_girls_toilet"}},{"type":"Feature","geometry":{"type":"Point","coordinates":[75.84961,32.46276]},"properties":{"udise":"03220404301","name":"GPS BARSUDAL","state":"PUNJAB","district":"PATHANKOT","block":"DHAR-1","indicator":"girls_toilet_nonfunctional"}},{"type":"Feature","geometry":{"type":"Point","coordinates":[76.64851,30.50838]},"properties":{"udise":"03170700501","name":"GPS ALAMPUR","state":"PUNJAB","district":"PATIALA","block":"RAJPURA-2","indicator":"no_girls_toilet"}},{"type":"Feature","geometry":{"type":"Point","coordinates":[76.29095,30.47791]},"properties":{"udise":"03170409101","name":"GPS KHERI JATTAN","state":"PUNJAB","district":"PATIALA","block":"BHADSON-2","indicator":"no_girls_toilet"}},{"type":"Feature","geometry":{"type":"Point","coordinates":[76.53804,30.18518]},"properties":{"udise":"03170106702","name":"GTB PUBLIC SCHOOL","state":"PUNJAB","district":"PATIALA","block":"DEVIGARH","indicator":"no_girls_toilet"}},{"type":"Feature","geometry":{"type":"Point","coordinates":[76.41668,30.19535]},"properties":{"udise":"03170208801","name":"GPS SALEMPUR JATTAN","state":"PUNJAB","district":"PATIALA","block":"BHUNERHERI-1","indicator":"no_girls_toilet"}},{"type":"Feature","geometry":{"type":"Point","coordinates":[76.26237,30.4214]},"properties":{"udise":"03170400701","name":"GPS AJNODA KHURD","state":"PUNJAB","district":"PATIALA","block":"BABARPUR AT NABHA","indicator":"no_girls_toilet"}},{"type":"Feature","geometry":{"type":"Point","coordinates":[76.47479,30.36895]},"properties":{"udise":"03170500510","name":"GTB PUBLIC SCHOOL","state":"PUNJAB","district":"PATIALA","block":"PATIALA-1","indicator":"no_girls_toilet"}},{"type":"Feature","geometry":{"type":"Point","coordinates":[76.20581,29.9943]},"properties":{"udise":"03170806901","name":"GPS RAMPUR PARTA","state":"PUNJAB","district":"PATIALA","block":"SAMANA-3","indicator":"no_girls_toilet"}},{"type":"Feature","geometry":{"type":"Point","coordinates":[76.20057,30.47631]},"properties":{"udise":"03170411001","name":"GPS MANGEWAL","state":"PUNJAB","district":"PATIALA","block":"BHADSON-2","indicator":"no_girls_toilet"}},{"type":"Feature","geometry":{"type":"Point","coordinates":[76.06051,29.90324]},"properties":{"udise":"03170604901","name":"GPS MAULVIWALA","state":"PUNJAB","district":"PATIALA","block":"SAMANA-1 (AT PATRAN)","indicator":"no_girls_toilet"}},{"type":"Feature","geometry":{"type":"Point","coordinates":[76.5751,30.47952]},"properties":{"udise":"03170717202","name":"GPS DHAMOLI","state":"PUNJAB","district":"PATIALA","block":"RAJPURA-1","indicator":"no_girls_toilet"}},{"type":"Feature","geometry":{"type":"Point","coordinates":[76.31452,30.15956]},"properties":{"udise":"03170205801","name":"GPS KHERKI","state":"PUNJAB","district":"PATIALA","block":"SAMANA-2","indicator":"no_girls_toilet"}},{"type":"Feature","geometry":{"type":"Point","coordinates":[76.29859,30.50637]},"properties":{"udise":"03170413501","name":"GPS RAMPUR SAHIWAL","state":"PUNJAB","district":"PATIALA","block":"BHADSON-2","indicator":"no_girls_toilet"}},{"type":"Feature","geometry":{"type":"Point","coordinates":[76.58959,30.12329]},"properties":{"udise":"03170106401","name":"GPS ROSHANPUR JHUNGIAN","state":"PUNJAB","district":"PATIALA","block":"DEVIGARH","indicator":"no_girls_toilet"}},{"type":"Feature","geometry":{"type":"Point","coordinates":[76.69547,30.33535]},"properties":{"udise":"03170306301","name":"GPS MAHRIAN","state":"PUNJAB","district":"PATIALA","block":"DARIAN","indicator":"no_girls_toilet"}},{"type":"Feature","geometry":{"type":"Point","coordinates":[76.68543,30.36605]},"properties":{"udise":"03170311101","name":"GPS UNTSAR","state":"PUNJAB","district":"PATIALA","block":"DARIAN","indicator":"no_girls_toilet"}},{"type":"Feature","geometry":{"type":"Point","coordinates":[76.55605,30.55696]},"properties":{"udise":"03170712803","name":"ARVIND MODEL SCHOOL","state":"PUNJAB","district":"PATIALA","block":"RAJPURA-2","indicator":"no_girls_toilet"}},{"type":"Feature","geometry":{"type":"Point","coordinates":[76.19715,29.97759]},"properties":{"udise":"03170604301","name":"GPS KATH","state":"PUNJAB","district":"PATIALA","block":"SAMANA-3","indicator":"no_girls_toilet"}},{"type":"Feature","geometry":{"type":"Point","coordinates":[76.25218,30.52541]},"properties":{"udise":"03170407801","name":"GPS JHAMBALI SANI","state":"PUNJAB","district":"PATIALA","block":"BHADSON-2","indicator":"no_girls_toilet"}},{"type":"Feature","geometry":{"type":"Point","coordinates":[76.39794,30.20159]},"properties":{"udise":"03170204701","name":"GPS KAKKEPUR","state":"PUNJAB","district":"PATIALA","block":"BHUNERHERI-1","indicator":"girls_toilet_nonfunctional"}},{"type":"Feature","geometry":{"type":"Point","coordinates":[76.21587,30.20894]},"properties":{"udise":"03170806101","name":"GPS MIYAL KHURD","state":"PUNJAB","district":"PATIALA","block":"SAMANA-2","indicator":"girls_toilet_nonfunctional"}},{"type":"Feature","geometry":{"type":"Point","coordinates":[76.13796,30.0968]},"properties":{"udise":"03170806601","name":"GPS PREM SINGHWALA","state":"PUNJAB","district":"PATIALA","block":"SAMANA-3","indicator":"girls_toilet_nonfunctional"}},{"type":"Feature","geometry":{"type":"Point","coordinates":[76.12288,30.21286]},"properties":{"udise":"03170806301","name":"GPS NAMADA","state":"PUNJAB","district":"PATIALA","block":"SAMANA-2","indicator":"girls_toilet_nonfunctional"}},{"type":"Feature","geometry":{"type":"Point","coordinates":[76.56372,30.49231]},"properties":{"udise":"03170711101","name":"GPS PILKHANI","state":"PUNJAB","district":"PATIALA","block":"RAJPURA-1","indicator":"girls_toilet_nonfunctional"}},{"type":"Feature","geometry":{"type":"Point","coordinates":[76.51534,30.47509]},"properties":{"udise":"03170710601","name":"GPS PABRA","state":"PUNJAB","district":"PATIALA","block":"RAJPURA-1","indicator":"girls_toilet_nonfunctional"}},{"type":"Feature","geometry":{"type":"Point","coordinates":[76.37267,30.21009]},"properties":{"udise":"03170206903","name":"C N P SCHOOL","state":"PUNJAB","district":"PATIALA","block":"BHUNERHERI-1","indicator":"girls_toilet_nonfunctional"}},{"type":"Feature","geometry":{"type":"Point","coordinates":[76.04571,29.88157]},"properties":{"udise":"03170604502","name":"GMS KHANG","state":"PUNJAB","district":"PATIALA","block":"SAMANA-1 (AT PATRAN)","indicator":"girls_toilet_nonfunctional"}},{"type":"Feature","geometry":{"type":"Point","coordinates":[76.69062,30.48322]},"properties":{"udise":"03170712701","name":"GPS SURAJGARH","state":"PUNJAB","district":"PATIALA","block":"DARIAN","indicator":"girls_toilet_nonfunctional"}},{"type":"Feature","geometry":{"type":"Point","coordinates":[76.05049,29.95382]},"properties":{"udise":"03170608004","name":"MARI GOLD PUBLIC HIGH SCHOOL","state":"PUNJAB","district":"PATIALA","block":"SAMANA-1 (AT PATRAN)","indicator":"girls_toilet_nonfunctional"}},{"type":"Feature","geometry":{"type":"Point","coordinates":[76.41832,31.3306]},"properties":{"udise":"03070103601","name":"GPS DABKHERA LOWER","state":"PUNJAB","district":"RUPNAGAR","block":"ANANDPUR SAHIB","indicator":"no_girls_toilet"}},{"type":"Feature","geometry":{"type":"Point","coordinates":[76.6004,31.00319]},"properties":{"udise":"03070705101","name":"GPS CHAK KARMA","state":"PUNJAB","district":"RUPNAGAR","block":"ROPAR-2","indicator":"no_girls_toilet"}},{"type":"Feature","geometry":{"type":"Point","coordinates":[76.44077,31.27568]},"properties":{"udise":"03070103801","name":"GPS DASGRAIN","state":"PUNJAB","district":"RUPNAGAR","block":"ANANDPUR SAHIB","indicator":"no_girls_toilet"}},{"type":"Feature","geometry":{"type":"Point","coordinates":[76.39511,31.22009]},"properties":{"udise":"03070608601","name":"GPS RAMPUR KALAN I","state":"PUNJAB","district":"RUPNAGAR","block":"JHAJ","indicator":"no_girls_toilet"}},{"type":"Feature","geometry":{"type":"Point","coordinates":[76.42764,30.99955]},"properties":{"udise":"03070707401","name":"GPS FATEHPUR","state":"PUNJAB","district":"RUPNAGAR","block":"MIANPUR","indicator":"no_girls_toilet"}},{"type":"Feature","geometry":{"type":"Point","coordinates":[76.48328,31.13642]},"properties":{"udise":"03070601301","name":"GPS BARARI","state":"PUNJAB","district":"RUPNAGAR","block":"TAKHATGARH","indicator":"no_girls_toilet"}},{"type":"Feature","geometry":{"type":"Point","coordinates":[76.55027,30.83264]},"properties":{"udise":"03070501501","name":"GPS BEHDALI","state":"PUNJAB","district":"RUPNAGAR","block":"MORINDA","indicator":"no_girls_toilet"}},{"type":"Feature","geometry":{"type":"Point","coordinates":[76.49779,31.1776]},"properties":{"udise":"03070605001","name":"GPS JHINJRI (NURPURBEDI)","state":"PUNJAB","district":"RUPNAGAR","block":"JHAJ","indicator":"no_girls_toilet"}},{"type":"Feature","geometry":{"type":"Point","coordinates":[76.5838,30.90726]},"properties":{"udise":"03070700401","name":"GPS AKALGARH ALIAS BURJWALA","state":"PUNJAB","district":"RUPNAGAR","block":"MIANPUR","indicator":"no_girls_toilet"}},{"type":"Feature","geometry":{"type":"Point","coordinates":[76.50853,30.9472]},"properties":{"udise":"03070717501","name":"GPS SAMRALA","state":"PUNJAB","district":"RUPNAGAR","block":"ROPAR-2","indicator":"no_girls_toilet"}},{"type":"Feature","geometry":{"type":"Point","coordinates":[76.3978,31.27278]},"properties":{"udise":"03070101704","name":"GMS BELA RAMGARH","state":"PUNJAB","district":"RUPNAGAR","block":"NANGAL","indicator":"no_girls_toilet"}},{"type":"Feature","geometry":{"type":"Point","coordinates":[76.50609,30.76244]},"properties":{"udise":"03070506301","name":"GPS RATTANGARH","state":"PUNJAB","district":"RUPNAGAR","block":"MORINDA","indicator":"no_girls_toilet"}},{"type":"Feature","geometry":{"type":"Point","coordinates":[76.52196,30.91906]},"properties":{"udise":"03070702301","name":"GPS BARA","state":"PUNJAB","district":"RUPNAGAR","block":"SALURA","indicator":"no_girls_toilet"}},{"type":"Feature","geometry":{"type":"Point","coordinates":[76.56573,30.88727]},"properties":{"udise":"03070704801","name":"GPS BRAHMAN MAJRA","state":"PUNJAB","district":"RUPNAGAR","block":"MIANPUR","indicator":"no_girls_toilet"}},{"type":"Feature","geometry":{"type":"Point","coordinates":[76.5565,31.11447]},"properties":{"udise":"03070604401","name":"GPS MANKOLI","state":"PUNJAB","district":"RUPNAGAR","block":"TAKHATGARH","indicator":"no_girls_toilet"}},{"type":"Feature","geometry":{"type":"Point","coordinates":[76.57107,31.14996]},"properties":{"udise":"03070708805","name":"NAVKIRAN PUBLIC SCHOOL","state":"PUNJAB","district":"RUPNAGAR","block":"KIRATPUR SAHIB","indicator":"no_girls_toilet"}},{"type":"Feature","geometry":{"type":"Point","coordinates":[76.47215,31.20637]},"properties":{"udise":"03070603701","name":"GPS GOBINDPUR BELA","state":"PUNJAB","district":"RUPNAGAR","block":"JHAJ","indicator":"no_girls_toilet"}},{"type":"Feature","geometry":{"type":"Point","coordinates":[76.32838,31.33091]},"properties":{"udise":"03070112501","name":"GPS SUREWAL","state":"PUNJAB","district":"RUPNAGAR","block":"NANGAL","indicator":"no_girls_toilet"}},{"type":"Feature","geometry":{"type":"Point","coordinates":[76.35525,30.96501]},"properties":{"udise":"03070210501","name":"GPS SULTANPUR","state":"PUNJAB","district":"RUPNAGAR","block":"CHAMKAUR SAHIB","indicator":"no_girls_toilet"}},{"type":"Feature","geometry":{"type":"Point","coordinates":[76.47933,31.16933]},"properties":{"udise":"03070607702","name":"GPS GIRLS NURPUR KALAN","state":"PUNJAB","district":"RUPNAGAR","block":"JHAJ","indicator":"no_girls_toilet"}},{"type":"Feature","geometry":{"type":"Point","coordinates":[76.37254,31.37765]},"properties":{"udise":"03070115401","name":"GPS Railway Road Nangal","state":"PUNJAB","district":"RUPNAGAR","block":"NANGAL","indicator":"no_girls_toilet"}},{"type":"Feature","geometry":{"type":"Point","coordinates":[76.40778,30.93685]},"properties":{"udise":"03070201403","name":"MAHARANI SATINDER KAUR MODREN SR. SEC. SCHOOL","state":"PUNJAB","district":"RUPNAGAR","block":"CHAMKAUR SAHIB","indicator":"no_girls_toilet"}},{"type":"Feature","geometry":{"type":"Point","coordinates":[76.4857,31.20916]},"properties":{"udise":"03070600301","name":"GPS AMARPUR BELA","state":"PUNJAB","district":"RUPNAGAR","block":"JHAJ","indicator":"no_girls_toilet"}},{"type":"Feature","geometry":{"type":"Point","coordinates":[76.57437,30.9528]},"properties":{"udise":"03070701601","name":"GPS BAGHWALI","state":"PUNJAB","district":"RUPNAGAR","block":"MIANPUR","indicator":"no_girls_toilet"}},{"type":"Feature","geometry":{"type":"Point","coordinates":[76.51267,31.09502]},"properties":{"udise":"03070603301","name":"GPS DHAMANA","state":"PUNJAB","district":"RUPNAGAR","block":"TAKHATGARH","indicator":"no_girls_toilet"}},{"type":"Feature","geometry":{"type":"Point","coordinates":[76.5256,31.17455]},"properties":{"udise":"03070605801","name":"GPS KHERI","state":"PUNJAB","district":"RUPNAGAR","block":"JHAJ","indicator":"no_girls_toilet"}},{"type":"Feature","geometry":{"type":"Point","coordinates":[76.44133,30.8658]},"properties":{"udise":"03070200801","name":"GPS MAKRAUNA KALAN","state":"PUNJAB","district":"RUPNAGAR","block":"CHAMKAUR SAHIB","indicator":"no_girls_toilet"}},{"type":"Feature","geometry":{"type":"Point","coordinates":[76.4482,30.83032]},"properties":{"udise":"03070501901","name":"GPS CHAKLAN","state":"PUNJAB","district":"RUPNAGAR","block":"MORINDA","indicator":"girls_toilet_nonfunctional"}},{"type":"Feature","geometry":{"type":"Point","coordinates":[76.39434,31.36191]},"properties":{"udise":"03070108504","name":"INDIAN NATIONAL PUBLIC SCHOOL MANAKPUR","state":"PUNJAB","district":"RUPNAGAR","block":"NANGAL","indicator":"girls_toilet_nonfunctional"}},{"type":"Feature","geometry":{"type":"Point","coordinates":[76.36807,31.29409]},"properties":{"udise":"03070102301","name":"GPS BHANAM","state":"PUNJAB","district":"RUPNAGAR","block":"NANGAL","indicator":"girls_toilet_nonfunctional"}},{"type":"Feature","geometry":{"type":"Point","coordinates":[76.61416,31.02765]},"properties":{"udise":"03070704601","name":"GPS BIKKON","state":"PUNJAB","district":"RUPNAGAR","block":"ROPAR-2","indicator":"girls_toilet_nonfunctional"}},{"type":"Feature","geometry":{"type":"Point","coordinates":[76.55512,30.88912]},"properties":{"udise":"03070718705","name":"GURU NANAK ACADEMY","state":"PUNJAB","district":"RUPNAGAR","block":"MIANPUR","indicator":"girls_toilet_nonfunctional"}},{"type":"Feature","geometry":{"type":"Point","coordinates":[76.53149,31.04167]},"properties":{"udise":"03070705001","name":"GPS CHAK DHERAN","state":"PUNJAB","district":"RUPNAGAR","block":"ROPAR-2","indicator":"girls_toilet_nonfunctional"}},{"type":"Feature","geometry":{"type":"Point","coordinates":[76.58517,31.13594]},"properties":{"udise":"03070722401","name":"SHAHEED BHAI UDAY SINGH PUBLIC SCHOOL, HAZARA","state":"PUNJAB","district":"RUPNAGAR","block":"KIRATPUR SAHIB","indicator":"girls_toilet_nonfunctional"}},{"type":"Feature","geometry":{"type":"Point","coordinates":[76.50546,31.2344]},"properties":{"udise":"03070113402","name":"VSN PUBLIC SCHOOL APS","state":"PUNJAB","district":"RUPNAGAR","block":"ANANDPUR SAHIB","indicator":"girls_toilet_nonfunctional"}},{"type":"Feature","geometry":{"type":"Point","coordinates":[76.58681,30.96897]},"properties":{"udise":"03070717601","name":"GPS SANANA","state":"PUNJAB","district":"RUPNAGAR","block":"SALURA","indicator":"girls_toilet_nonfunctional"}},{"type":"Feature","geometry":{"type":"Point","coordinates":[76.36847,31.38149]},"properties":{"udise":"03070114903","name":"GURU TEG BAHADUR PUB SCH","state":"PUNJAB","district":"RUPNAGAR","block":"NANGAL","indicator":"girls_toilet_nonfunctional"}},{"type":"Feature","geometry":{"type":"Point","coordinates":[76.51712,31.11293]},"properties":{"udise":"03070602501","name":"GPS BHOGIPUR","state":"PUNJAB","district":"RUPNAGAR","block":"TAKHATGARH","indicator":"girls_toilet_nonfunctional"}},{"type":"Feature","geometry":{"type":"Point","coordinates":[76.54467,31.07931]},"properties":{"udise":"03070603202","name":"GMS DAHIRPUR","state":"PUNJAB","district":"RUPNAGAR","block":"TAKHATGARH","indicator":"girls_toilet_nonfunctional"}},{"type":"Feature","geometry":{"type":"Point","coordinates":[76.57628,31.18432]},"properties":{"udise":"03070106104","name":"BIBI MULA DEVI PUBLIC SCHOOL","state":"PUNJAB","district":"RUPNAGAR","block":"KIRATPUR SAHIB","indicator":"girls_toilet_nonfunctional"}},{"type":"Feature","geometry":{"type":"Point","coordinates":[76.11243,29.83428]},"properties":{"udise":"03160205101","name":"GURU SAGAR GLOBAL SCHOOL","state":"PUNJAB","district":"SANGRUR","block":"MOONAK","indicator":"no_girls_toilet"}},{"type":"Feature","geometry":{"type":"Point","coordinates":[75.91758,29.83648]},"properties":{"udise":"03160201605","name":"GURUKUL PUBLIC SEN SEC SCHOOL","state":"PUNJAB","district":"SANGRUR","block":"MOONAK","indicator":"no_girls_toilet"}},{"type":"Feature","geometry":{"type":"Point","coordinates":[75.8218,30.23125]},"properties":{"udise":"03160901511","name":"AKAL DEGREE COLLEGE MASTUANA","state":"PUNJAB","district":"SANGRUR","block":"CHEEMA","indicator":"no_girls_toilet"}},{"type":"Feature","geometry":{"type":"Point","coordinates":[75.84979,30.2391]},"properties":{"udise":"03160906001","name":"GPS BHALLA BASTI SANGRUR","state":"PUNJAB","district":"SANGRUR","block":"SANGRUR - 1","indicator":"no_girls_toilet"}},{"type":"Feature","geometry":{"type":"Point","coordinates":[75.88756,29.81835]},"properties":{"udise":"03160201001","name":"HAPPY PUBLIC SCHOOL","state":"PUNJAB","district":"SANGRUR","block":"MOONAK","indicator":"no_girls_toilet"}},{"type":"Feature","geometry":{"type":"Point","coordinates":[75.72808,30.40226]},"properties":{"udise":"03161102302","name":"GMS DIDARGARH","state":"PUNJAB","district":"SANGRUR","block":"SHERPUR","indicator":"no_girls_toilet"}},{"type":"Feature","geometry":{"type":"Point","coordinates":[75.83793,30.43631]},"properties":{"udise":"03160708204","name":"UMAR MIDDLE SCHOOL","state":"PUNJAB","district":"SANGRUR","block":"SHERPUR","indicator":"no_girls_toilet"}},{"type":"Feature","geometry":{"type":"Point","coordinates":[75.67303,30.19274]},"properties":{"udise":"03160900102","name":"Shaheed Bhai Mati Dass School Of Eminence Longowal Sangrur","state":"PUNJAB","district":"SANGRUR","block":"CHEEMA","indicator":"no_girls_toilet"}},{"type":"Feature","geometry":{"type":"Point","coordinates":[75.82767,30.41889]},"properties":{"udise":"03160708901","name":"GPS BAMAL","state":"PUNJAB","district":"SANGRUR","block":"DHURI","indicator":"no_girls_toilet"}},{"type":"Feature","geometry":{"type":"Point","coordinates":[75.80272,30.12394]},"properties":{"udise":"03161208901","name":"RAMA BHARTI BAL VIDYA MANDIR SCHOOL","state":"PUNJAB","district":"SANGRUR","block":"SUNAM - 1","indicator":"no_girls_toilet"}},{"type":"Feature","geometry":{"type":"Point","coordinates":[75.95129,29.78874]},"properties":{"udise":"03160201803","name":"SEWAK PUBLIC HIGH SCHOOL","state":"PUNJAB","district":"SANGRUR","block":"MOONAK","indicator":"girls_toilet_nonfunctional"}},{"type":"Feature","geometry":{"type":"Point","coordinates":[75.91648,29.96674]},"properties":{"udise":"03160600301","name":"GPS ROREWALA","state":"PUNJAB","district":"SANGRUR","block":"LEHRAGAGA","indicator":"girls_toilet_nonfunctional"}},{"type":"Feature","geometry":{"type":"Point","coordinates":[75.88996,29.8182]},"properties":{"udise":"03160202501","name":"MAHARAJA RAN SINGH SEN. SEC. SCHOOL","state":"PUNJAB","district":"SANGRUR","block":"MOONAK","indicator":"girls_toilet_nonfunctional"}},{"type":"Feature","geometry":{"type":"Point","coordinates":[75.79272,30.13188]},"properties":{"udise":"03161205101","name":"GPS S.U.S SUNAM","state":"PUNJAB","district":"SANGRUR","block":"SUNAM - 1","indicator":"girls_toilet_nonfunctional"}},{"type":"Feature","geometry":{"type":"Point","coordinates":[75.71767,30.15994]},"properties":{"udise":"03161201708","name":"SHRI HARKRISHAN PUBLIC SEN SEC SCHOOL","state":"PUNJAB","district":"SANGRUR","block":"CHEEMA","indicator":"girls_toilet_nonfunctional"}},{"type":"Feature","geometry":{"type":"Point","coordinates":[76.01792,29.81976]},"properties":{"udise":"03160201501","name":"GPS SHAHPUR NOBAD THERI","state":"PUNJAB","district":"SANGRUR","block":"MOONAK","indicator":"girls_toilet_nonfunctional"}},{"type":"Feature","geometry":{"type":"Point","coordinates":[75.85794,30.39953]},"properties":{"udise":"03160504801","name":"GPS DAULATPUR","state":"PUNJAB","district":"SANGRUR","block":"DHURI","indicator":"girls_toilet_nonfunctional"}},{"type":"Feature","geometry":{"type":"Point","coordinates":[76.06128,29.78909]},"properties":{"udise":"03160203304","name":"SHAHEED BHAGAT SINGH MODEL SCHOOL","state":"PUNJAB","district":"SANGRUR","block":"MOONAK","indicator":"girls_toilet_nonfunctional"}},{"type":"Feature","geometry":{"type":"Point","coordinates":[75.86565,30.36774]},"properties":{"udise":"03160504101","name":"NEW ROBIN MODEL HIGH SCHOOL","state":"PUNJAB","district":"SANGRUR","block":"DHURI","indicator":"girls_toilet_nonfunctional"}},{"type":"Feature","geometry":{"type":"Point","coordinates":[75.82037,30.39044]},"properties":{"udise":"03160502301","name":"GPS JAHANGIR","state":"PUNJAB","district":"SANGRUR","block":"DHURI","indicator":"girls_toilet_nonfunctional"}},{"type":"Feature","geometry":{"type":"Point","coordinates":[75.74952,30.00101]},"properties":{"udise":"03161203001","name":"GPS GANDUAN","state":"PUNJAB","district":"SANGRUR","block":"CHEEMA","indicator":"girls_toilet_nonfunctional"}},{"type":"Feature","geometry":{"type":"Point","coordinates":[75.8598,30.13065]},"properties":{"udise":"03161206001","name":"GPS BIGHARWAL","state":"PUNJAB","district":"SANGRUR","block":"SUNAM - 1","indicator":"girls_toilet_nonfunctional"}},{"type":"Feature","geometry":{"type":"Point","coordinates":[75.80659,30.01006]},"properties":{"udise":"03160601503","name":"ACADEMIC WORLD  SCHOOL","state":"PUNJAB","district":"SANGRUR","block":"LEHRAGAGA","indicator":"girls_toilet_nonfunctional"}},{"type":"Feature","geometry":{"type":"Point","coordinates":[75.59264,30.21615]},"properties":{"udise":"03160901301","name":"GPS BUGAR","state":"PUNJAB","district":"SANGRUR","block":"CHEEMA","indicator":"girls_toilet_nonfunctional"}},{"type":"Feature","geometry":{"type":"Point","coordinates":[75.93872,30.15546]},"properties":{"udise":"03161301004","name":"M AND M PUBLIC SCHOOL","state":"PUNJAB","district":"SANGRUR","block":"SUNAM - 2","indicator":"girls_toilet_nonfunctional"}},{"type":"Feature","geometry":{"type":"Point","coordinates":[76.04086,29.80999]},"properties":{"udise":"03160204903","name":"S.B.S PUBLIC SCHOOL","state":"PUNJAB","district":"SANGRUR","block":"MOONAK","indicator":"girls_toilet_nonfunctional"}},{"type":"Feature","geometry":{"type":"Point","coordinates":[74.9972,31.25727]},"properties":{"udise":"03190201010","name":"SUN RISE PUBLIC SCHOOL CHOHLA SAHIB","state":"PUNJAB","district":"TARAN TARAN","block":"CHOHLA SAHIB","indicator":"no_girls_toilet"}},{"type":"Feature","geometry":{"type":"Point","coordinates":[74.82401,31.41855]},"properties":{"udise":"03190702701","name":"GES JEOBALA","state":"PUNJAB","district":"TARAN TARAN","block":"NOORDI","indicator":"no_girls_toilet"}},{"type":"Feature","geometry":{"type":"Point","coordinates":[75.16519,31.48542]},"properties":{"udise":"03190402501","name":"GES FATEHPUR BADESHA","state":"PUNJAB","district":"TARAN TARAN","block":"KHADUR SAHIB","indicator":"no_girls_toilet"}},{"type":"Feature","geometry":{"type":"Point","coordinates":[74.93314,31.45142]},"properties":{"udise":"03190709101","name":"SCHOOL OF EMINENCE, TARN TARAN","state":"PUNJAB","district":"TARAN TARAN","block":"TARNTARAN PROPER","indicator":"no_girls_toilet"}},{"type":"Feature","geometry":{"type":"Point","coordinates":[74.98117,31.52114]},"properties":{"udise":"03190704202","name":"LOVELY LOTUS PUBLIC SCHOOL KHABBE DOGRA","state":"PUNJAB","district":"TARAN TARAN","block":"TARNTARAN PROPER","indicator":"no_girls_toilet"}},{"type":"Feature","geometry":{"type":"Point","coordinates":[75.01166,31.40037]},"properties":{"udise":"03190503201","name":"GES LALPUR","state":"PUNJAB","district":"TARAN TARAN","block":"NAUSHEHRA PANNUAN","indicator":"no_girls_toilet"}},{"type":"Feature","geometry":{"type":"Point","coordinates":[75.09802,31.42319]},"properties":{"udise":"03190404209","name":"RIVER DALE PUBLIC SCHOOL BHAROWAL","state":"PUNJAB","district":"TARAN TARAN","block":"KHADUR SAHIB","indicator":"no_girls_toilet"}},{"type":"Feature","geometry":{"type":"Point","coordinates":[74.92553,31.44739]},"properties":{"udise":"03190710401","name":"MAHARAJA RANJIT SINGH PUBLIC SCHOOL TARN TARAN","state":"PUNJAB","district":"TARAN TARAN","block":"NOORDI","indicator":"no_girls_toilet"}},{"type":"Feature","geometry":{"type":"Point","coordinates":[74.72728,31.2284]},"properties":{"udise":"03190602201","name":"GES GHARIALA B","state":"PUNJAB","district":"TARAN TARAN","block":"PATTI","indicator":"no_girls_toilet"}},{"type":"Feature","geometry":{"type":"Point","coordinates":[74.8407,31.24044]},"properties":{"udise":"03190606001","name":"GES SANGWAN","state":"PUNJAB","district":"TARAN TARAN","block":"PATTI","indicator":"no_girls_toilet"}},{"type":"Feature","geometry":{"type":"Point","coordinates":[74.63731,31.27291]},"properties":{"udise":"03190100201","name":"GES ALGON KALAN","state":"PUNJAB","district":"TARAN TARAN","block":"BHIKHIWIND","indicator":"no_girls_toilet"}},{"type":"Feature","geometry":{"type":"Point","coordinates":[74.88741,31.30277]},"properties":{"udise":"03190603301","name":"GES KANDIALA","state":"PUNJAB","district":"TARAN TARAN","block":"PATTI","indicator":"girls_toilet_nonfunctional"}},{"type":"Feature","geometry":{"type":"Point","coordinates":[75.17747,31.43192]},"properties":{"udise":"03190404701","name":"GES KIRI BODAL","state":"PUNJAB","district":"TARAN TARAN","block":"KHADUR SAHIB","indicator":"girls_toilet_nonfunctional"}},{"type":"Feature","geometry":{"type":"Point","coordinates":[75.09322,31.46062]},"properties":{"udise":"03190406701","name":"GES SANGHAR KALAN","state":"PUNJAB","district":"TARAN TARAN","block":"KHADUR SAHIB","indicator":"girls_toilet_nonfunctional"}},{"type":"Feature","geometry":{"type":"Point","coordinates":[75.02207,31.33712]},"properties":{"udise":"03190500401","name":"GES CHAMBA KHURD","state":"PUNJAB","district":"TARAN TARAN","block":"NAUSHEHRA PANNUAN","indicator":"girls_toilet_nonfunctional"}},{"type":"Feature","geometry":{"type":"Point","coordinates":[74.81063,31.5174]},"properties":{"udise":"03190304404","name":"Shaheed Bhagat Singh public school, Mannan","state":"PUNJAB","district":"TARAN TARAN","block":"GANDIWIND","indicator":"girls_toilet_nonfunctional"}},{"type":"Feature","geometry":{"type":"Point","coordinates":[74.73798,31.4935]},"properties":{"udise":"03190301301","name":"GES CHHAPA","state":"PUNJAB","district":"TARAN TARAN","block":"GANDIWIND","indicator":"girls_toilet_nonfunctional"}},{"type":"Feature","geometry":{"type":"Point","coordinates":[74.8755,31.37979]},"properties":{"udise":"03190504301","name":"GES SAKHIRA","state":"PUNJAB","district":"TARAN TARAN","block":"NAUSHEHRA PANNUAN","indicator":"girls_toilet_nonfunctional"}},{"type":"Feature","geometry":{"type":"Point","coordinates":[74.96964,31.50502]},"properties":{"udise":"03190704201","name":"GES KHABBE DOGRA","state":"PUNJAB","district":"TARAN TARAN","block":"TARNTARAN PROPER","indicator":"girls_toilet_nonfunctional"}},{"type":"Feature","geometry":{"type":"Point","coordinates":[74.6812,31.19516]},"properties":{"udise":"03190803402","name":"GMS MAHNE KE","state":"PUNJAB","district":"TARAN TARAN","block":"VALTOHA","indicator":"girls_toilet_nonfunctional"}},{"type":"Feature","geometry":{"type":"Point","coordinates":[74.83885,31.24684]},"properties":{"udise":"03190600901","name":"GES BHAGGUPUR","state":"PUNJAB","district":"TARAN TARAN","block":"PATTI","indicator":"girls_toilet_nonfunctional"}},{"type":"Feature","geometry":{"type":"Point","coordinates":[74.73686,31.23498]},"properties":{"udise":"03190602210","name":"SACRED HEART CONVENT SCHOOL, GHARYALA","state":"PUNJAB","district":"TARAN TARAN","block":"PATTI","indicator":"girls_toilet_nonfunctional"}},{"type":"Feature","geometry":{"type":"Point","coordinates":[74.63392,31.20881]},"properties":{"udise":"03190805704","name":"GSSS VALTOHA B","state":"PUNJAB","district":"TARAN TARAN","block":"VALTOHA","indicator":"girls_toilet_nonfunctional"}},{"type":"Feature","geometry":{"type":"Point","coordinates":[74.61819,31.39958]},"properties":{"udise":"03190103606","name":"ROSE GARDEN PUBLIC SCHOOL KHALRA","state":"PUNJAB","district":"TARAN TARAN","block":"BHIKHIWIND","indicator":"girls_toilet_nonfunctional"}},{"type":"Feature","geometry":{"type":"Point","coordinates":[75.17712,31.49463]},"properties":{"udise":"03190407301","name":"GES UPPAL","state":"PUNJAB","district":"TARAN TARAN","block":"KHADUR SAHIB","indicator":"girls_toilet_nonfunctional"}}]}