{"type":"FeatureCollection","features":[{"type":"Feature","geometry":{"type":"Point","coordinates":[76.6498,9.18387]},"properties":{"udise":"32110700807","name":"GWLPS ULAVUKAD","state":"KERALA","district":"ALAPPUZHA","block":"MAVELIKKARA","indicator":"no_girls_toilet"}},{"type":"Feature","geometry":{"type":"Point","coordinates":[76.6132,9.31854]},"properties":{"udise":"32110300110","name":"GOVT. JBS KEEZHCHERIMEL","state":"KERALA","district":"ALAPPUZHA","block":"CHENGANNUR","indicator":"no_girls_toilet"}},{"type":"Feature","geometry":{"type":"Point","coordinates":[76.45655,9.28367]},"properties":{"udise":"32110500704","name":"GLPS HARIPAD","state":"KERALA","district":"ALAPPUZHA","block":"HARIPPAD","indicator":"no_girls_toilet"}},{"type":"Feature","geometry":{"type":"Point","coordinates":[76.41008,9.30841]},"properties":{"udise":"32110200607","name":"SNDP LPS KARUVATTA","state":"KERALA","district":"ALAPPUZHA","block":"AMBALAPPUZHA","indicator":"no_girls_toilet"}},{"type":"Feature","geometry":{"type":"Point","coordinates":[76.482,9.27865]},"properties":{"udise":"32110500905","name":"NADUVATTOM LPS","state":"KERALA","district":"ALAPPUZHA","block":"HARIPPAD","indicator":"no_girls_toilet"}},{"type":"Feature","geometry":{"type":"Point","coordinates":[76.6132,9.31854]},"properties":{"udise":"32110300109","name":"CHENGANOOR GOVT. RELIEF LPS","state":"KERALA","district":"ALAPPUZHA","block":"CHENGANNUR","indicator":"no_girls_toilet"}},{"type":"Feature","geometry":{"type":"Point","coordinates":[76.63588,9.22721]},"properties":{"udise":"32110700615","name":"BAPPUJI ENGLISH MEDIUM SCHOOL","state":"KERALA","district":"ALAPPUZHA","block":"MAVELIKKARA","indicator":"girls_toilet_nonfunctional"}},{"type":"Feature","geometry":{"type":"Point","coordinates":[76.23103,10.02843]},"properties":{"udise":"32081400106","name":"GNLPS ELANKUNNAPUZHA","state":"KERALA","district":"ERNAKULAM","block":"VYPEEN","indicator":"no_girls_toilet"}},{"type":"Feature","geometry":{"type":"Point","coordinates":[76.51461,10.12301]},"properties":{"udise":"32081100806","name":"MTLPS AIMURY","state":"KERALA","district":"ERNAKULAM","block":"PERUMBAVOOR","indicator":"no_girls_toilet"}},{"type":"Feature","geometry":{"type":"Point","coordinates":[76.42757,10.14521]},"properties":{"udise":"32080102308","name":"ST.SEBASTIAN'S HS KANJOOR","state":"KERALA","district":"ERNAKULAM","block":"ALUVA","indicator":"no_girls_toilet"}},{"type":"Feature","geometry":{"type":"Point","coordinates":[76.28665,9.9708]},"properties":{"udise":"32080303317","name":"SRV(D)UPS ERNAKULAM","state":"KERALA","district":"ERNAKULAM","block":"ERNAKULAM","indicator":"no_girls_toilet"}},{"type":"Feature","geometry":{"type":"Point","coordinates":[76.71302,10.20348]},"properties":{"udise":"32080700309","name":"GUPS EDAMALAYAR","state":"KERALA","district":"ERNAKULAM","block":"KOTHAMANGALAM","indicator":"no_girls_toilet"}},{"type":"Feature","geometry":{"type":"Point","coordinates":[76.9919,9.73451]},"properties":{"udise":"32090600913","name":"ITDP STS MEMERY","state":"KERALA","district":"IDUKKI","block":"PEERMADU","indicator":"no_girls_toilet"}},{"type":"Feature","geometry":{"type":"Point","coordinates":[75.36236,11.8668]},"properties":{"udise":"32020100721","name":"ST MICHAEL'S ANGLO INDIAN HSS","state":"KERALA","district":"KANNUR","block":"KANNUR NORTH","indicator":"no_girls_toilet"}},{"type":"Feature","geometry":{"type":"Point","coordinates":[75.31072,12.02139]},"properties":{"udise":"32021000105","name":"GHWLPS PATTUVAM","state":"KERALA","district":"KANNUR","block":"TALIPARAMBA NORTH","indicator":"no_girls_toilet"}},{"type":"Feature","geometry":{"type":"Point","coordinates":[75.34367,11.92281]},"properties":{"udise":"32021300816","name":"RK UPS PALOTTUVAYAL","state":"KERALA","district":"KANNUR","block":"PAPPINISSERI","indicator":"no_girls_toilet"}},{"type":"Feature","geometry":{"type":"Point","coordinates":[75.3763,11.90721]},"properties":{"udise":"32021300813","name":"PUDUCHERY LPS","state":"KERALA","district":"KANNUR","block":"PAPPINISSERI","indicator":"girls_toilet_nonfunctional"}},{"type":"Feature","geometry":{"type":"Point","coordinates":[75.4945,11.82851]},"properties":{"udise":"32020200903","name":"KOTTAM EAST LPS","state":"KERALA","district":"KANNUR","block":"KANNUR SOUTH","indicator":"girls_toilet_nonfunctional"}},{"type":"Feature","geometry":{"type":"Point","coordinates":[75.32628,11.9981]},"properties":{"udise":"32021400605","name":"KANNAPURAM NORTH LPS","state":"KERALA","district":"KANNUR","block":"MADAYI","indicator":"girls_toilet_nonfunctional"}},{"type":"Feature","geometry":{"type":"Point","coordinates":[76.71463,9.03884]},"properties":{"udise":"32130700607","name":"GLPS THEKKUMPURAM","state":"KERALA","district":"KOLLAM","block":"KOTTARAKARA","indicator":"no_girls_toilet"}},{"type":"Feature","geometry":{"type":"Point","coordinates":[76.50847,9.59766]},"properties":{"udise":"32100700312","name":"SH LPS KUMARAKOM","state":"KERALA","district":"KOTTAYAM","block":"KOTTAYAM(WEST)","indicator":"no_girls_toilet"}},{"type":"Feature","geometry":{"type":"Point","coordinates":[76.53295,9.6679]},"properties":{"udise":"32100300108","name":"ST. JOSEPH'S L.P.S PADINJATTUMBHAGAM","state":"KERALA","district":"KOTTAYAM","block":"ETTUMANOOR","indicator":"no_girls_toilet"}},{"type":"Feature","geometry":{"type":"Point","coordinates":[76.54096,9.44589]},"properties":{"udise":"32100100306","name":"SBHSS CHANGANASSERY","state":"KERALA","district":"KOTTAYAM","block":"CHANGANASSERY","indicator":"no_girls_toilet"}},{"type":"Feature","geometry":{"type":"Point","coordinates":[76.62577,9.82897]},"properties":{"udise":"32101200307","name":"ST. JOSEPH'S LPS AMANAKARA","state":"KERALA","district":"KOTTAYAM","block":"RAMAPURAM","indicator":"no_girls_toilet"}},{"type":"Feature","geometry":{"type":"Point","coordinates":[76.79178,9.68874]},"properties":{"udise":"32100200704","name":"GUIDANCE PUBLIC SCHOOL","state":"KERALA","district":"KOTTAYAM","block":"ERATTUPETTA","indicator":"girls_toilet_nonfunctional"}},{"type":"Feature","geometry":{"type":"Point","coordinates":[75.73987,11.34973]},"properties":{"udise":"32040501305","name":"SETHU SITARAM ALPS ELATHUR","state":"KERALA","district":"KOZHIKODE","block":"KOZHIKODE URC","indicator":"no_girls_toilet"}},{"type":"Feature","geometry":{"type":"Point","coordinates":[76.05475,11.23985]},"properties":{"udise":"32040400606","name":"ALPS MOORKANAD","state":"KERALA","district":"KOZHIKODE","block":"KOZHIKODE","indicator":"no_girls_toilet"}},{"type":"Feature","geometry":{"type":"Point","coordinates":[76.01319,11.48808]},"properties":{"udise":"32040300536","name":"ALPS ADIVARAM","state":"KERALA","district":"KOZHIKODE","block":"KODUVALLY","indicator":"no_girls_toilet"}},{"type":"Feature","geometry":{"type":"Point","coordinates":[75.65573,11.68492]},"properties":{"udise":"32041200925","name":"NADAPURAM PANCHAYATH SPECIAL SCHOOL","state":"KERALA","district":"KOZHIKODE","block":"THUNERI","indicator":"no_girls_toilet"}},{"type":"Feature","geometry":{"type":"Point","coordinates":[75.92968,10.75033]},"properties":{"udise":"32050900513","name":"MIHSS FOR GIRLS PUDUPONNANI","state":"KERALA","district":"MALAPPURAM","block":"PONNANI","indicator":"girls_toilet_nonfunctional"}},{"type":"Feature","geometry":{"type":"Point","coordinates":[75.85522,11.09099]},"properties":{"udise":"32051200303","name":"AMLPS ARIYALLUR","state":"KERALA","district":"MALAPPURAM","block":"PARAPPANANGADI","indicator":"girls_toilet_nonfunctional"}},{"type":"Feature","geometry":{"type":"Point","coordinates":[76.06399,10.827]},"properties":{"udise":"32061300105","name":"GLPS MELAZHIYAM","state":"KERALA","district":"PALAKKAD","block":"THRITHALA","indicator":"no_girls_toilet"}},{"type":"Feature","geometry":{"type":"Point","coordinates":[76.22934,11.16248]},"properties":{"udise":"32061200712","name":"GLPS CHERUKODE","state":"KERALA","district":"PALAKKAD","block":"SHORANUR","indicator":"no_girls_toilet"}},{"type":"Feature","geometry":{"type":"Point","coordinates":[76.56762,10.63709]},"properties":{"udise":"32060200404","name":"GLPS PULLODE","state":"KERALA","district":"PALAKKAD","block":"ALATHUR","indicator":"no_girls_toilet"}},{"type":"Feature","geometry":{"type":"Point","coordinates":[76.6837,10.6829]},"properties":{"udise":"32060500903","name":"GLPS PUTHUNAGARAM (E)","state":"KERALA","district":"PALAKKAD","block":"KOLLENGODE","indicator":"no_girls_toilet"}},{"type":"Feature","geometry":{"type":"Point","coordinates":[76.5921,10.592]},"properties":{"udise":"32060500501","name":"GBHSS NEMMARA","state":"KERALA","district":"PALAKKAD","block":"KOLLENGODE","indicator":"no_girls_toilet"}},{"type":"Feature","geometry":{"type":"Point","coordinates":[76.3484,10.76748]},"properties":{"udise":"32060800601","name":"VVLPS CHUROTOOR","state":"KERALA","district":"PALAKKAD","block":"OTTAPALAM","indicator":"no_girls_toilet"}},{"type":"Feature","geometry":{"type":"Point","coordinates":[76.6547,10.786]},"properties":{"udise":"32060300603","name":"JBS KATAMPAZHIPURAM","state":"KERALA","district":"PALAKKAD","block":"CHERPULASSERY","indicator":"no_girls_toilet"}},{"type":"Feature","geometry":{"type":"Point","coordinates":[76.62065,10.97625]},"properties":{"udise":"32060100322","name":"AIS SINGAPARA","state":"KERALA","district":"PALAKKAD","block":"AGALI","indicator":"no_girls_toilet"}},{"type":"Feature","geometry":{"type":"Point","coordinates":[76.655,10.6388]},"properties":{"udise":"32060500714","name":"ALPS KUDALLOOR","state":"KERALA","district":"PALAKKAD","block":"KOLLENGODE","indicator":"girls_toilet_nonfunctional"}},{"type":"Feature","geometry":{"type":"Point","coordinates":[76.7,10.6166]},"properties":{"udise":"32060500811","name":"GTWLPS THEKKADY","state":"KERALA","district":"PALAKKAD","block":"KOLLENGODE","indicator":"girls_toilet_nonfunctional"}},{"type":"Feature","geometry":{"type":"Point","coordinates":[76.6643,9.34946]},"properties":{"udise":"32120600501","name":"MTLPS Kadapra","state":"KERALA","district":"PATHANAMTHITTA","block":"PULLAD","indicator":"no_girls_toilet"}},{"type":"Feature","geometry":{"type":"Point","coordinates":[76.69501,9.29289]},"properties":{"udise":"32120200105","name":"GOVT.MODEL.LPS MEZHUVELI","state":"KERALA","district":"PATHANAMTHITTA","block":"ARANMULA","indicator":"no_girls_toilet"}},{"type":"Feature","geometry":{"type":"Point","coordinates":[76.71024,9.41194]},"properties":{"udise":"32120601613","name":"CENTRAL MSC LPS THELLIYOOR","state":"KERALA","district":"PATHANAMTHITTA","block":"VENNIKULAM","indicator":"no_girls_toilet"}},{"type":"Feature","geometry":{"type":"Point","coordinates":[76.64682,9.23202]},"properties":{"udise":"32120500423","name":"MTLPS MUDIYOORKONAM","state":"KERALA","district":"PATHANAMTHITTA","block":"PANDALAM","indicator":"no_girls_toilet"}},{"type":"Feature","geometry":{"type":"Point","coordinates":[76.97574,9.26674]},"properties":{"udise":"32120300408","name":"SREE NARAYANA PUBLIC SCHOOL THANNITHODE","state":"KERALA","district":"PATHANAMTHITTA","block":"KONNI","indicator":"no_girls_toilet"}},{"type":"Feature","geometry":{"type":"Point","coordinates":[76.85756,9.43895]},"properties":{"udise":"32120805305","name":"GLPS  VATTUKUNNU","state":"KERALA","district":"PATHANAMTHITTA","block":"RANNI","indicator":"girls_toilet_nonfunctional"}},{"type":"Feature","geometry":{"type":"Point","coordinates":[77.03787,8.49034]},"properties":{"udise":"32140400303","name":"GLPBS MALAYINKEEZHU","state":"KERALA","district":"THIRUVANANTHAPURAM","block":"KATTAKKADA","indicator":"no_girls_toilet"}},{"type":"Feature","geometry":{"type":"Point","coordinates":[77.0873,8.3276]},"properties":{"udise":"32140300104","name":"GOVT. HWLPS KULATHOOR","state":"KERALA","district":"THIRUVANANTHAPURAM","block":"KANIYAPURAM","indicator":"girls_toilet_nonfunctional"}},{"type":"Feature","geometry":{"type":"Point","coordinates":[76.8105,8.79563]},"properties":{"udise":"32140500107","name":"M.L.P.S NJARAYILKONAM","state":"KERALA","district":"THIRUVANANTHAPURAM","block":"KILIMANOOR","indicator":"girls_toilet_nonfunctional"}},{"type":"Feature","geometry":{"type":"Point","coordinates":[76.04588,10.56397]},"properties":{"udise":"32071101604","name":"LFLPS PAVARATTY","state":"KERALA","district":"THRISSUR","block":"MULLASSERY","indicator":"no_girls_toilet"}},{"type":"Feature","geometry":{"type":"Point","coordinates":[76.03735,10.67416]},"properties":{"udise":"32070503101","name":"GLPS PENGAMUCK","state":"KERALA","district":"THRISSUR","block":"CHOWANNUR","indicator":"no_girls_toilet"}},{"type":"Feature","geometry":{"type":"Point","coordinates":[76.29069,10.24913]},"properties":{"udise":"32070901101","name":"ST ANTONYS LPS ALATHUR","state":"KERALA","district":"THRISSUR","block":"MALA","indicator":"girls_toilet_nonfunctional"}},{"type":"Feature","geometry":{"type":"Point","coordinates":[76.18987,10.45805]},"properties":{"udise":"32070401801","name":"GLPS AMMADAM","state":"KERALA","district":"THRISSUR","block":"CHERPU","indicator":"girls_toilet_nonfunctional"}},{"type":"Feature","geometry":{"type":"Point","coordinates":[76.17749,11.78829]},"properties":{"udise":"32030200715","name":"ST. MARY'S ENG. SCHOOL PULPALLY","state":"KERALA","district":"WAYANAD","block":"SULTHAN BATHERY","indicator":"girls_toilet_nonfunctional"}},{"type":"Feature","geometry":{"type":"Point","coordinates":[76.13015,11.55444]},"properties":{"udise":"32030300413","name":"GLPS MEPPADI","state":"KERALA","district":"WAYANAD","block":"VYTHIRI","indicator":"girls_toilet_nonfunctional"}}]}