{"type":"FeatureCollection","features":[{"type":"Feature","geometry":{"type":"Point","coordinates":[76.1017,34.4885]},"properties":{"udise":"37080100507","name":"PS THANG MINJI","state":"LADAKH","district":"KARGIL","block":"KARGIL","indicator":"no_girls_toilet"}},{"type":"Feature","geometry":{"type":"Point","coordinates":[76.8831,33.47]},"properties":{"udise":"37080202205","name":"PS KISHARAK","state":"LADAKH","district":"KARGIL","block":"ZANSKAR","indicator":"no_girls_toilet"}},{"type":"Feature","geometry":{"type":"Point","coordinates":[76.625,33.671]},"properties":{"udise":"37080201101","name":"MS HIMILING","state":"LADAKH","district":"KARGIL","block":"ZANSKAR","indicator":"no_girls_toilet"}},{"type":"Feature","geometry":{"type":"Point","coordinates":[75.8231,34.4271]},"properties":{"udise":"37080300703","name":"PS GONIYAL","state":"LADAKH","district":"KARGIL","block":"DRASS","indicator":"no_girls_toilet"}},{"type":"Feature","geometry":{"type":"Point","coordinates":[75.9715,34.3643]},"properties":{"udise":"37080602002","name":"PS BARDUM","state":"LADAKH","district":"KARGIL","block":"SANKOO","indicator":"no_girls_toilet"}},{"type":"Feature","geometry":{"type":"Point","coordinates":[76.397,34.3795]},"properties":{"udise":"37080700709","name":"GMS WAKHA","state":"LADAKH","district":"KARGIL","block":"SHARGOLE","indicator":"no_girls_toilet"}},{"type":"Feature","geometry":{"type":"Point","coordinates":[75.9606,34.1509]},"properties":{"udise":"37080401401","name":"PS GOUND KHOWS","state":"LADAKH","district":"KARGIL","block":"TAISURU","indicator":"no_girls_toilet"}},{"type":"Feature","geometry":{"type":"Point","coordinates":[75.9627,34.2953]},"properties":{"udise":"37080600304","name":"MS NAKPOCHOO","state":"LADAKH","district":"KARGIL","block":"SANKOO","indicator":"no_girls_toilet"}},{"type":"Feature","geometry":{"type":"Point","coordinates":[75.9592,34.3253]},"properties":{"udise":"37080601312","name":"PS GONGMATOO LANKARCHAY","state":"LADAKH","district":"KARGIL","block":"SANKOO","indicator":"no_girls_toilet"}},{"type":"Feature","geometry":{"type":"Point","coordinates":[76.1024,34.2223]},"properties":{"udise":"37080601007","name":"PS THELA BROK","state":"LADAKH","district":"KARGIL","block":"SANKOO","indicator":"no_girls_toilet"}},{"type":"Feature","geometry":{"type":"Point","coordinates":[76.0498,34.4111]},"properties":{"udise":"37080601402","name":"MS CHIKGRONG","state":"LADAKH","district":"KARGIL","block":"SANKOO","indicator":"no_girls_toilet"}},{"type":"Feature","geometry":{"type":"Point","coordinates":[76.1653,34.5539]},"properties":{"udise":"37080101608","name":"PS FARMA","state":"LADAKH","district":"KARGIL","block":"KARGIL","indicator":"no_girls_toilet"}},{"type":"Feature","geometry":{"type":"Point","coordinates":[76.1282,34.4456]},"properties":{"udise":"37080100602","name":"PS CHAPRING","state":"LADAKH","district":"KARGIL","block":"KARGIL","indicator":"no_girls_toilet"}},{"type":"Feature","geometry":{"type":"Point","coordinates":[75.9555,34.2868]},"properties":{"udise":"37080600104","name":"PS BANALSA","state":"LADAKH","district":"KARGIL","block":"SANKOO","indicator":"no_girls_toilet"}},{"type":"Feature","geometry":{"type":"Point","coordinates":[75.7374,34.4372]},"properties":{"udise":"37080301202","name":"MS GOSHAN","state":"LADAKH","district":"KARGIL","block":"DRASS","indicator":"no_girls_toilet"}},{"type":"Feature","geometry":{"type":"Point","coordinates":[75.8066,34.426]},"properties":{"udise":"37080301704","name":"PS KRUTIYAL","state":"LADAKH","district":"KARGIL","block":"DRASS","indicator":"no_girls_toilet"}},{"type":"Feature","geometry":{"type":"Point","coordinates":[75.8702,34.4158]},"properties":{"udise":"37080300602","name":"PS DANDAL THANG","state":"LADAKH","district":"KARGIL","block":"DRASS","indicator":"no_girls_toilet"}},{"type":"Feature","geometry":{"type":"Point","coordinates":[75.9567,34.293]},"properties":{"udise":"37080600113","name":"PS KHATOD CHUMIKCHAN","state":"LADAKH","district":"KARGIL","block":"SANKOO","indicator":"no_girls_toilet"}},{"type":"Feature","geometry":{"type":"Point","coordinates":[75.9576,34.1328]},"properties":{"udise":"37080600202","name":"MS GOMA SANGRAH","state":"LADAKH","district":"KARGIL","block":"SANKOO","indicator":"no_girls_toilet"}},{"type":"Feature","geometry":{"type":"Point","coordinates":[75.995,34.5409]},"properties":{"udise":"37080300102","name":"PS MASKIYAL","state":"LADAKH","district":"KARGIL","block":"DRASS","indicator":"no_girls_toilet"}},{"type":"Feature","geometry":{"type":"Point","coordinates":[76.3783,34.3755]},"properties":{"udise":"37080700605","name":"PS PACHIKHAR","state":"LADAKH","district":"KARGIL","block":"SHARGOLE","indicator":"no_girls_toilet"}},{"type":"Feature","geometry":{"type":"Point","coordinates":[75.7338,34.4401]},"properties":{"udise":"37080301208","name":"PS JOLOLO","state":"LADAKH","district":"KARGIL","block":"DRASS","indicator":"no_girls_toilet"}},{"type":"Feature","geometry":{"type":"Point","coordinates":[76.0478,34.4084]},"properties":{"udise":"37080601409","name":"PS GROUNG TAMBIS","state":"LADAKH","district":"KARGIL","block":"SANKOO","indicator":"no_girls_toilet"}},{"type":"Feature","geometry":{"type":"Point","coordinates":[75.9866,34.539]},"properties":{"udise":"37080300106","name":"PS KOTHI BAGH","state":"LADAKH","district":"KARGIL","block":"DRASS","indicator":"no_girls_toilet"}},{"type":"Feature","geometry":{"type":"Point","coordinates":[76.051,34.41]},"properties":{"udise":"37080601501","name":"PS KUKSHOW","state":"LADAKH","district":"KARGIL","block":"SANKOO","indicator":"no_girls_toilet"}},{"type":"Feature","geometry":{"type":"Point","coordinates":[75.9576,34.1328]},"properties":{"udise":"37080600206","name":"PS CHULUNG SANGRAH","state":"LADAKH","district":"KARGIL","block":"SANKOO","indicator":"no_girls_toilet"}},{"type":"Feature","geometry":{"type":"Point","coordinates":[76.4234,34.5007]},"properties":{"udise":"37080500401","name":"MS  SAPI","state":"LADAKH","district":"KARGIL","block":"CHIKTAN","indicator":"no_girls_toilet"}},{"type":"Feature","geometry":{"type":"Point","coordinates":[76.0278,34.4232]},"properties":{"udise":"37080601802","name":"MS RAHIM THANG","state":"LADAKH","district":"KARGIL","block":"SANKOO","indicator":"no_girls_toilet"}},{"type":"Feature","geometry":{"type":"Point","coordinates":[75.9623,34.2869]},"properties":{"udise":"37080600402","name":"MS MADH","state":"LADAKH","district":"KARGIL","block":"SANKOO","indicator":"no_girls_toilet"}},{"type":"Feature","geometry":{"type":"Point","coordinates":[75.9637,34.1465]},"properties":{"udise":"37080401403","name":"PS SALDAKS","state":"LADAKH","district":"KARGIL","block":"TAISURU","indicator":"no_girls_toilet"}},{"type":"Feature","geometry":{"type":"Point","coordinates":[76.1356,34.5467]},"properties":{"udise":"37080100309","name":"PS BIAMATHANG","state":"LADAKH","district":"KARGIL","block":"KARGIL","indicator":"no_girls_toilet"}},{"type":"Feature","geometry":{"type":"Point","coordinates":[76.8783,33.4667]},"properties":{"udise":"37080202105","name":"PS STAKAR","state":"LADAKH","district":"KARGIL","block":"ZANSKAR","indicator":"no_girls_toilet"}},{"type":"Feature","geometry":{"type":"Point","coordinates":[75.9655,34.1355]},"properties":{"udise":"37080401003","name":"MS RANTHAK","state":"LADAKH","district":"KARGIL","block":"TAISURU","indicator":"no_girls_toilet"}},{"type":"Feature","geometry":{"type":"Point","coordinates":[76.2142,34.1993]},"properties":{"udise":"37080601201","name":"MS ITCHOO","state":"LADAKH","district":"KARGIL","block":"SANKOO","indicator":"no_girls_toilet"}},{"type":"Feature","geometry":{"type":"Point","coordinates":[75.9532,34.2817]},"properties":{"udise":"37080600103","name":"MS KHALAMARPO","state":"LADAKH","district":"KARGIL","block":"SANKOO","indicator":"no_girls_toilet"}},{"type":"Feature","geometry":{"type":"Point","coordinates":[76.0827,34.4764]},"properties":{"udise":"37080100503","name":"MS GRAMTHANG","state":"LADAKH","district":"KARGIL","block":"KARGIL","indicator":"no_girls_toilet"}},{"type":"Feature","geometry":{"type":"Point","coordinates":[76.0636,34.2417]},"properties":{"udise":"37080600906","name":"PS GAMATING KHANDI","state":"LADAKH","district":"KARGIL","block":"SANKOO","indicator":"no_girls_toilet"}},{"type":"Feature","geometry":{"type":"Point","coordinates":[76.0411,34.629]},"properties":{"udise":"37080101110","name":"PS KARKIT BUDGAM","state":"LADAKH","district":"KARGIL","block":"KARGIL","indicator":"no_girls_toilet"}},{"type":"Feature","geometry":{"type":"Point","coordinates":[75.9827,34.2751]},"properties":{"udise":"37080600605","name":"PS STAQBURIK","state":"LADAKH","district":"KARGIL","block":"SANKOO","indicator":"no_girls_toilet"}},{"type":"Feature","geometry":{"type":"Point","coordinates":[76.1841,34.5266]},"properties":{"udise":"37080700115","name":"PS BAWAGRONG","state":"LADAKH","district":"KARGIL","block":"SHARGOLE","indicator":"no_girls_toilet"}},{"type":"Feature","geometry":{"type":"Point","coordinates":[75.7458,34.435]},"properties":{"udise":"37080301205","name":"PS  GATO Goshan","state":"LADAKH","district":"KARGIL","block":"DRASS","indicator":"no_girls_toilet"}},{"type":"Feature","geometry":{"type":"Point","coordinates":[76.0463,34.4217]},"properties":{"udise":"37080601612","name":"PS ZAMBAKHA","state":"LADAKH","district":"KARGIL","block":"SANKOO","indicator":"no_girls_toilet"}},{"type":"Feature","geometry":{"type":"Point","coordinates":[76.0398,34.6318]},"properties":{"udise":"37080101203","name":"PS HARAL","state":"LADAKH","district":"KARGIL","block":"KARGIL","indicator":"no_girls_toilet"}},{"type":"Feature","geometry":{"type":"Point","coordinates":[76.3051,34.6213]},"properties":{"udise":"37080101802","name":"MS  SILMO","state":"LADAKH","district":"KARGIL","block":"KARGIL","indicator":"no_girls_toilet"}},{"type":"Feature","geometry":{"type":"Point","coordinates":[76.0247,34.4029]},"properties":{"udise":"37080601803","name":"MS GOUND YOKMA G M PORE","state":"LADAKH","district":"KARGIL","block":"SANKOO","indicator":"no_girls_toilet"}},{"type":"Feature","geometry":{"type":"Point","coordinates":[76.1536,34.2494]},"properties":{"udise":"37080601003","name":"PS YARKASHING","state":"LADAKH","district":"KARGIL","block":"SANKOO","indicator":"no_girls_toilet"}},{"type":"Feature","geometry":{"type":"Point","coordinates":[76.1395,34.2431]},"properties":{"udise":"37080601001","name":"MS PANGBAR","state":"LADAKH","district":"KARGIL","block":"SANKOO","indicator":"no_girls_toilet"}},{"type":"Feature","geometry":{"type":"Point","coordinates":[75.9524,34.1394]},"properties":{"udise":"37080400805","name":"PS KHICHORE","state":"LADAKH","district":"KARGIL","block":"TAISURU","indicator":"no_girls_toilet"}},{"type":"Feature","geometry":{"type":"Point","coordinates":[75.9671,34.2925]},"properties":{"udise":"37080602007","name":"GMS HUMBREE","state":"LADAKH","district":"KARGIL","block":"SANKOO","indicator":"no_girls_toilet"}},{"type":"Feature","geometry":{"type":"Point","coordinates":[75.7345,34.4278]},"properties":{"udise":"37080301401","name":"MS THRONGUN","state":"LADAKH","district":"KARGIL","block":"DRASS","indicator":"no_girls_toilet"}},{"type":"Feature","geometry":{"type":"Point","coordinates":[76.1367,34.5457]},"properties":{"udise":"37080100314","name":"PS THANG YUKMA BAROO","state":"LADAKH","district":"KARGIL","block":"KARGIL","indicator":"no_girls_toilet"}},{"type":"Feature","geometry":{"type":"Point","coordinates":[76.0488,34.4202]},"properties":{"udise":"37080601601","name":"PS KHARGOK","state":"LADAKH","district":"KARGIL","block":"SANKOO","indicator":"no_girls_toilet"}},{"type":"Feature","geometry":{"type":"Point","coordinates":[75.9623,34.2869]},"properties":{"udise":"37080600501","name":"PS MALIKBER -K","state":"LADAKH","district":"KARGIL","block":"SANKOO","indicator":"no_girls_toilet"}},{"type":"Feature","geometry":{"type":"Point","coordinates":[76.0744,34.4669]},"properties":{"udise":"37080601507","name":"MS CHEYCHEY THANG","state":"LADAKH","district":"KARGIL","block":"SANKOO","indicator":"no_girls_toilet"}},{"type":"Feature","geometry":{"type":"Point","coordinates":[76.5229,34.4318]},"properties":{"udise":"37080501207","name":"MS CHULICHAN","state":"LADAKH","district":"KARGIL","block":"CHIKTAN","indicator":"no_girls_toilet"}},{"type":"Feature","geometry":{"type":"Point","coordinates":[76.878,33.4667]},"properties":{"udise":"37080202102","name":"BMS PADUM","state":"LADAKH","district":"KARGIL","block":"ZANSKAR","indicator":"no_girls_toilet"}},{"type":"Feature","geometry":{"type":"Point","coordinates":[75.963,34.503]},"properties":{"udise":"37080300205","name":"PS ASH GROOM","state":"LADAKH","district":"KARGIL","block":"DRASS","indicator":"girls_toilet_nonfunctional"}},{"type":"Feature","geometry":{"type":"Point","coordinates":[76.5252,33.7098]},"properties":{"udise":"37080200102","name":"PS AKSHOW YOKMA","state":"LADAKH","district":"KARGIL","block":"ZANSKAR","indicator":"girls_toilet_nonfunctional"}},{"type":"Feature","geometry":{"type":"Point","coordinates":[75.9357,34.2098]},"properties":{"udise":"37080400807","name":"MS THANGBOO","state":"LADAKH","district":"KARGIL","block":"TAISURU","indicator":"girls_toilet_nonfunctional"}},{"type":"Feature","geometry":{"type":"Point","coordinates":[76.011,34.4094]},"properties":{"udise":"37080601707","name":"MS YOUKMA SALISKOTE","state":"LADAKH","district":"KARGIL","block":"SANKOO","indicator":"girls_toilet_nonfunctional"}},{"type":"Feature","geometry":{"type":"Point","coordinates":[75.7507,34.4294]},"properties":{"udise":"37080302103","name":"ARMY GOOD WILL SCH DRASS","state":"LADAKH","district":"KARGIL","block":"DRASS","indicator":"girls_toilet_nonfunctional"}},{"type":"Feature","geometry":{"type":"Point","coordinates":[75.9623,34.2869]},"properties":{"udise":"37080600405","name":"PS GONGSO","state":"LADAKH","district":"KARGIL","block":"SANKOO","indicator":"girls_toilet_nonfunctional"}},{"type":"Feature","geometry":{"type":"Point","coordinates":[75.7943,34.4313]},"properties":{"udise":"37080301803","name":"PS MASJIDGAM","state":"LADAKH","district":"KARGIL","block":"DRASS","indicator":"girls_toilet_nonfunctional"}},{"type":"Feature","geometry":{"type":"Point","coordinates":[77.1848,33.1625]},"properties":{"udise":"37080200206","name":"PS KURU","state":"LADAKH","district":"KARGIL","block":"ZANSKAR","indicator":"girls_toilet_nonfunctional"}},{"type":"Feature","geometry":{"type":"Point","coordinates":[76.0873,34.6085]},"properties":{"udise":"37080101001","name":"MS GOUND HARDAS","state":"LADAKH","district":"KARGIL","block":"KARGIL","indicator":"girls_toilet_nonfunctional"}},{"type":"Feature","geometry":{"type":"Point","coordinates":[75.9695,34.3624]},"properties":{"udise":"37080602003","name":"MS THOVINA","state":"LADAKH","district":"KARGIL","block":"SANKOO","indicator":"girls_toilet_nonfunctional"}},{"type":"Feature","geometry":{"type":"Point","coordinates":[76.8967,33.4318]},"properties":{"udise":"37080202107","name":"MS SHILLA","state":"LADAKH","district":"KARGIL","block":"ZANSKAR","indicator":"girls_toilet_nonfunctional"}},{"type":"Feature","geometry":{"type":"Point","coordinates":[75.9798,34.2779]},"properties":{"udise":"37080602004","name":"HS THASGAM SANKOO","state":"LADAKH","district":"KARGIL","block":"SANKOO","indicator":"girls_toilet_nonfunctional"}},{"type":"Feature","geometry":{"type":"Point","coordinates":[76.1862,34.5576]},"properties":{"udise":"37080101306","name":"MS DOKSCHUTUMAIL","state":"LADAKH","district":"KARGIL","block":"KARGIL","indicator":"girls_toilet_nonfunctional"}},{"type":"Feature","geometry":{"type":"Point","coordinates":[75.9623,34.2869]},"properties":{"udise":"37080600403","name":"PS SHATO","state":"LADAKH","district":"KARGIL","block":"SANKOO","indicator":"girls_toilet_nonfunctional"}},{"type":"Feature","geometry":{"type":"Point","coordinates":[76.0905,34.2365]},"properties":{"udise":"37080600904","name":"High School Taikat","state":"LADAKH","district":"KARGIL","block":"SANKOO","indicator":"girls_toilet_nonfunctional"}},{"type":"Feature","geometry":{"type":"Point","coordinates":[75.9591,34.1383]},"properties":{"udise":"37080401001","name":"MS YOKMA NUMSUSRU","state":"LADAKH","district":"KARGIL","block":"TAISURU","indicator":"girls_toilet_nonfunctional"}},{"type":"Feature","geometry":{"type":"Point","coordinates":[76.1259,34.3546]},"properties":{"udise":"37080100806","name":"PS SPANGLUNG","state":"LADAKH","district":"KARGIL","block":"KARGIL","indicator":"girls_toilet_nonfunctional"}},{"type":"Feature","geometry":{"type":"Point","coordinates":[78.97907,32.78388]},"properties":{"udise":"37070601504","name":"P/S NAGA ANLAY","state":"LADAKH","district":"LEH (LADAKH)","block":"NYOMA","indicator":"no_girls_toilet"}},{"type":"Feature","geometry":{"type":"Point","coordinates":[77.8091,33.9066]},"properties":{"udise":"37070300301","name":"H/S IGOO","state":"LADAKH","district":"LEH (LADAKH)","block":"KHARU","indicator":"no_girls_toilet"}},{"type":"Feature","geometry":{"type":"Point","coordinates":[77.5296,34.1252]},"properties":{"udise":"37070400901","name":"M/S SPITUK","state":"LADAKH","district":"LEH (LADAKH)","block":"LEH","indicator":"no_girls_toilet"}},{"type":"Feature","geometry":{"type":"Point","coordinates":[76.51126,34.6041]},"properties":{"udise":"37070202403","name":"P/S LASTHANG","state":"LADAKH","district":"LEH (LADAKH)","block":"KHALTSE","indicator":"no_girls_toilet"}},{"type":"Feature","geometry":{"type":"Point","coordinates":[77.01064,34.26286]},"properties":{"udise":"37070201801","name":"P/S HIPTI","state":"LADAKH","district":"LEH (LADAKH)","block":"KHALTSE","indicator":"no_girls_toilet"}},{"type":"Feature","geometry":{"type":"Point","coordinates":[77.8208,33.818]},"properties":{"udise":"37070300701","name":"P/S UPSHI","state":"LADAKH","district":"LEH (LADAKH)","block":"KHARU","indicator":"no_girls_toilet"}},{"type":"Feature","geometry":{"type":"Point","coordinates":[76.82627,33.90605]},"properties":{"udise":"37070202101","name":"H/S LINGSHED","state":"LADAKH","district":"LEH (LADAKH)","block":"KHALTSE","indicator":"no_girls_toilet"}},{"type":"Feature","geometry":{"type":"Point","coordinates":[77.52678,34.75954]},"properties":{"udise":"37070500807","name":"P/S MURGI","state":"LADAKH","district":"LEH (LADAKH)","block":"NUBRA","indicator":"no_girls_toilet"}},{"type":"Feature","geometry":{"type":"Point","coordinates":[76.81988,34.43521]},"properties":{"udise":"37070200603","name":"P/S THONGRES","state":"LADAKH","district":"LEH (LADAKH)","block":"KHALTSE","indicator":"no_girls_toilet"}},{"type":"Feature","geometry":{"type":"Point","coordinates":[76.66204,34.30526]},"properties":{"udise":"37070201903","name":"P/S FOTOLALOK","state":"LADAKH","district":"LEH (LADAKH)","block":"KHALTSE","indicator":"no_girls_toilet"}},{"type":"Feature","geometry":{"type":"Point","coordinates":[78.29844,33.22802]},"properties":{"udise":"37070601101","name":"HS KORZOK","state":"LADAKH","district":"LEH (LADAKH)","block":"NYOMA","indicator":"girls_toilet_nonfunctional"}},{"type":"Feature","geometry":{"type":"Point","coordinates":[77.8274,33.9028]},"properties":{"udise":"37070300304","name":"M/S INTSE IGOO","state":"LADAKH","district":"LEH (LADAKH)","block":"KHARU","indicator":"girls_toilet_nonfunctional"}},{"type":"Feature","geometry":{"type":"Point","coordinates":[77.8933,33.7797]},"properties":{"udise":"37070300401","name":"H/S SHARA","state":"LADAKH","district":"LEH (LADAKH)","block":"KHARU","indicator":"girls_toilet_nonfunctional"}},{"type":"Feature","geometry":{"type":"Point","coordinates":[77.59762,34.66085]},"properties":{"udise":"37070502105","name":"M/S PINCHIMIK","state":"LADAKH","district":"LEH (LADAKH)","block":"NUBRA","indicator":"girls_toilet_nonfunctional"}},{"type":"Feature","geometry":{"type":"Point","coordinates":[77.61783,34.05611]},"properties":{"udise":"37070402102","name":"HR/SEC/SCHOOL CHUCHOT","state":"LADAKH","district":"LEH (LADAKH)","block":"LEH","indicator":"girls_toilet_nonfunctional"}}]}