{"type":"FeatureCollection","features":[{"type":"Feature","geometry":{"type":"Point","coordinates":[78.77546,19.86344]},"properties":{"udise":"27141607301","name":"Z. P. PRI. SCHOOL,  MARKI (KH)","state":"MAHARASHTRA","district":"YAVATMAL","block":"ZARI","indicator":"no_girls_toilet"}},{"type":"Feature","geometry":{"type":"Point","coordinates":[77.54285,19.87756]},"properties":{"udise":"27141107902","name":"Z. P.UPP PRI  URDU SCHOOL, KOPARA (BK)","state":"MAHARASHTRA","district":"YAVATMAL","block":"PUSAD","indicator":"no_girls_toilet"}},{"type":"Feature","geometry":{"type":"Point","coordinates":[78.80711,19.78555]},"properties":{"udise":"27141609801","name":"Z. P. UPP  PRI. SCHOOL, RAJUR","state":"MAHARASHTRA","district":"YAVATMAL","block":"ZARI","indicator":"no_girls_toilet"}},{"type":"Feature","geometry":{"type":"Point","coordinates":[78.61791,19.91894]},"properties":{"udise":"27141608201","name":"Z. P. PRI. SCHOOL, NIMBADEVI","state":"MAHARASHTRA","district":"YAVATMAL","block":"ZARI","indicator":"no_girls_toilet"}},{"type":"Feature","geometry":{"type":"Point","coordinates":[78.77182,20.097]},"properties":{"udise":"27140805401","name":"Z. P.UPP. PRI. SCHOOL, KARANWADI","state":"MAHARASHTRA","district":"YAVATMAL","block":"MAREGAON","indicator":"no_girls_toilet"}},{"type":"Feature","geometry":{"type":"Point","coordinates":[78.24916,20.00955]},"properties":{"udise":"27140508701","name":"Z. P.  PRI   SCHOOL, RAHATI","state":"MAHARASHTRA","district":"YAVATMAL","block":"GHATANJI","indicator":"no_girls_toilet"}},{"type":"Feature","geometry":{"type":"Point","coordinates":[78.76971,19.9551]},"properties":{"udise":"27141602801","name":"Z. P. PRI. SCHOOL, DARARA","state":"MAHARASHTRA","district":"YAVATMAL","block":"ZARI","indicator":"no_girls_toilet"}},{"type":"Feature","geometry":{"type":"Point","coordinates":[78.2509,20.61119]},"properties":{"udise":"27140208101","name":"Z. P. PRIMARY SCHOOL, WADGAON","state":"MAHARASHTRA","district":"YAVATMAL","block":"BABHULGAON","indicator":"no_girls_toilet"}},{"type":"Feature","geometry":{"type":"Point","coordinates":[78.0071,19.66193]},"properties":{"udise":"27141305601","name":"Z. P. PRI. SCHOOL, KHEDI","state":"MAHARASHTRA","district":"YAVATMAL","block":"UMARKHED","indicator":"no_girls_toilet"}},{"type":"Feature","geometry":{"type":"Point","coordinates":[77.96245,20.36166]},"properties":{"udise":"27140905601","name":"Z P PRIMARY SCHOOL, LINGA","state":"MAHARASHTRA","district":"YAVATMAL","block":"NER","indicator":"no_girls_toilet"}},{"type":"Feature","geometry":{"type":"Point","coordinates":[77.40982,20.02645]},"properties":{"udise":"27141102002","name":"Z. P.PRI  SCH SHAMPUR","state":"MAHARASHTRA","district":"YAVATMAL","block":"PUSAD","indicator":"no_girls_toilet"}},{"type":"Feature","geometry":{"type":"Point","coordinates":[78.80517,19.87186]},"properties":{"udise":"27141609201","name":"Z. P. PRI. SCHOOL, PAVNAR","state":"MAHARASHTRA","district":"YAVATMAL","block":"ZARI","indicator":"no_girls_toilet"}},{"type":"Feature","geometry":{"type":"Point","coordinates":[78.79439,20.23577]},"properties":{"udise":"27140802401","name":"Z. P. PRI. SCHOOL, DAPORA","state":"MAHARASHTRA","district":"YAVATMAL","block":"MAREGAON","indicator":"no_girls_toilet"}},{"type":"Feature","geometry":{"type":"Point","coordinates":[78.62341,19.94686]},"properties":{"udise":"27141600701","name":"Z. P. PRI. SCHOOL, AMBEZARI (KH)","state":"MAHARASHTRA","district":"YAVATMAL","block":"ZARI","indicator":"no_girls_toilet"}},{"type":"Feature","geometry":{"type":"Point","coordinates":[77.78261,20.07784]},"properties":{"udise":"27140406602","name":"Z. P. . PRI. SCHOOL, TUPTAKLI","state":"MAHARASHTRA","district":"YAVATMAL","block":"DIGRAS","indicator":"no_girls_toilet"}},{"type":"Feature","geometry":{"type":"Point","coordinates":[78.68911,20.32213]},"properties":{"udise":"27141205701","name":"Z.P.   PRI. SCHOOL, PARSODA","state":"MAHARASHTRA","district":"YAVATMAL","block":"RALEGAON","indicator":"no_girls_toilet"}},{"type":"Feature","geometry":{"type":"Point","coordinates":[77.59726,19.94755]},"properties":{"udise":"27141108502","name":"Z.P.PRI SCH DATTA WADI","state":"MAHARASHTRA","district":"YAVATMAL","block":"PUSAD","indicator":"no_girls_toilet"}},{"type":"Feature","geometry":{"type":"Point","coordinates":[78.38123,20.16539]},"properties":{"udise":"27140506005","name":"Z. P.  PRI   SCHOOL MAJARA, MOWADA","state":"MAHARASHTRA","district":"YAVATMAL","block":"GHATANJI","indicator":"no_girls_toilet"}},{"type":"Feature","geometry":{"type":"Point","coordinates":[78.07587,20.55175]},"properties":{"udise":"27140205201","name":"Z. P. PRIMARY SCHOOL, NAGARGAON","state":"MAHARASHTRA","district":"YAVATMAL","block":"BABHULGAON","indicator":"no_girls_toilet"}},{"type":"Feature","geometry":{"type":"Point","coordinates":[78.4641,20.46878]},"properties":{"udise":"27140601901","name":"Z. P. PRI. SCHOOL, DAHEGAON","state":"MAHARASHTRA","district":"YAVATMAL","block":"KALAMB","indicator":"no_girls_toilet"}},{"type":"Feature","geometry":{"type":"Point","coordinates":[78.45469,20.18704]},"properties":{"udise":"27140503501","name":"Z. P. PRI  SCHOOL, KOCHI","state":"MAHARASHTRA","district":"YAVATMAL","block":"GHATANJI","indicator":"no_girls_toilet"}},{"type":"Feature","geometry":{"type":"Point","coordinates":[78.77812,20.17578]},"properties":{"udise":"27140807301","name":"Z. P. PRI. SCHOOL, MAHAGAON","state":"MAHARASHTRA","district":"YAVATMAL","block":"MAREGAON","indicator":"no_girls_toilet"}},{"type":"Feature","geometry":{"type":"Point","coordinates":[78.88729,20.09435]},"properties":{"udise":"27141413501","name":"Z. P. PRI. SCHOOL, SOMNALA","state":"MAHARASHTRA","district":"YAVATMAL","block":"WANI","indicator":"no_girls_toilet"}},{"type":"Feature","geometry":{"type":"Point","coordinates":[77.39375,19.98972]},"properties":{"udise":"27141111204","name":"Z.P. PRI SCH RAMPUR TANDA","state":"MAHARASHTRA","district":"YAVATMAL","block":"PUSAD","indicator":"no_girls_toilet"}},{"type":"Feature","geometry":{"type":"Point","coordinates":[77.88925,20.30232]},"properties":{"udise":"27140300901","name":"Z. P. PRI SCHOOL, BODGAVHAN","state":"MAHARASHTRA","district":"YAVATMAL","block":"DARWHA","indicator":"no_girls_toilet"}},{"type":"Feature","geometry":{"type":"Point","coordinates":[77.66767,20.32635]},"properties":{"udise":"27140302601","name":"Z. P. PRI  SCHOOL, CHORKHOPADI","state":"MAHARASHTRA","district":"YAVATMAL","block":"DARWHA","indicator":"no_girls_toilet"}},{"type":"Feature","geometry":{"type":"Point","coordinates":[77.76321,20.23861]},"properties":{"udise":"27140310001","name":"Z. P. UPP PRI  SCHOOL, PALSI","state":"MAHARASHTRA","district":"YAVATMAL","block":"DARWHA","indicator":"no_girls_toilet"}},{"type":"Feature","geometry":{"type":"Point","coordinates":[78.89839,20.22923]},"properties":{"udise":"27140804701","name":"Z. P. PRI. SCHOOL, KANADA","state":"MAHARASHTRA","district":"YAVATMAL","block":"MAREGAON","indicator":"no_girls_toilet"}},{"type":"Feature","geometry":{"type":"Point","coordinates":[77.93405,20.36535]},"properties":{"udise":"27140306001","name":"Z. P.UPP PRI SCHOOL, JAMBHORA","state":"MAHARASHTRA","district":"YAVATMAL","block":"DARWHA","indicator":"no_girls_toilet"}},{"type":"Feature","geometry":{"type":"Point","coordinates":[77.94617,20.39237]},"properties":{"udise":"27140904201","name":"Z P PRIMARY SCHOOL, KAPSI","state":"MAHARASHTRA","district":"YAVATMAL","block":"NER","indicator":"no_girls_toilet"}},{"type":"Feature","geometry":{"type":"Point","coordinates":[77.69826,20.24179]},"properties":{"udise":"27140305901","name":"Z. P.UPP PRI SCHOOL, JAWALA (B)","state":"MAHARASHTRA","district":"YAVATMAL","block":"DARWHA","indicator":"no_girls_toilet"}},{"type":"Feature","geometry":{"type":"Point","coordinates":[77.53838,20.04103]},"properties":{"udise":"27141104001","name":"Z. P. UPP PRI SCHOOL, GAHULI","state":"MAHARASHTRA","district":"YAVATMAL","block":"PUSAD","indicator":"no_girls_toilet"}},{"type":"Feature","geometry":{"type":"Point","coordinates":[78.9418,19.86061]},"properties":{"udise":"27141403301","name":"Z. P. PRI. SCHOOL, DHUNKI","state":"MAHARASHTRA","district":"YAVATMAL","block":"WANI","indicator":"no_girls_toilet"}},{"type":"Feature","geometry":{"type":"Point","coordinates":[77.88142,20.3637]},"properties":{"udise":"27140306401","name":"Z. P. PRI  SCHOOL, KANZARA (B)","state":"MAHARASHTRA","district":"YAVATMAL","block":"DARWHA","indicator":"no_girls_toilet"}},{"type":"Feature","geometry":{"type":"Point","coordinates":[78.00243,19.52413]},"properties":{"udise":"27141304801","name":"Z. P. UPP PRI. SCHOOL,JEWALI","state":"MAHARASHTRA","district":"YAVATMAL","block":"UMARKHED","indicator":"no_girls_toilet"}},{"type":"Feature","geometry":{"type":"Point","coordinates":[77.72642,19.72461]},"properties":{"udise":"27140700901","name":"Z.P UPP.PRI. SCHOOL,BIJORA","state":"MAHARASHTRA","district":"YAVATMAL","block":"MAHAGAON","indicator":"no_girls_toilet"}},{"type":"Feature","geometry":{"type":"Point","coordinates":[78.003,19.45804]},"properties":{"udise":"27141307701","name":"Z. P. PRI. SCHOOL, MURALI TANDA","state":"MAHARASHTRA","district":"YAVATMAL","block":"UMARKHED","indicator":"no_girls_toilet"}},{"type":"Feature","geometry":{"type":"Point","coordinates":[78.42162,20.24281]},"properties":{"udise":"27140610001","name":"Z. P. PRI. SCHOOL, PILKHANA","state":"MAHARASHTRA","district":"YAVATMAL","block":"KALAMB","indicator":"no_girls_toilet"}},{"type":"Feature","geometry":{"type":"Point","coordinates":[77.3335,19.93583]},"properties":{"udise":"27141111201","name":"Z. P.UPP PRI  SCHOOL, PANDHURNA (BK)","state":"MAHARASHTRA","district":"YAVATMAL","block":"PUSAD","indicator":"no_girls_toilet"}},{"type":"Feature","geometry":{"type":"Point","coordinates":[78.31129,20.17757]},"properties":{"udise":"27140500403","name":"Z.P. PRI SCH KONDJAI, BELORA","state":"MAHARASHTRA","district":"YAVATMAL","block":"GHATANJI","indicator":"no_girls_toilet"}},{"type":"Feature","geometry":{"type":"Point","coordinates":[77.7169,19.4643]},"properties":{"udise":"27141305201","name":"Z. P. PRI SCHOOL, KARKHED","state":"MAHARASHTRA","district":"YAVATMAL","block":"UMARKHED","indicator":"no_girls_toilet"}},{"type":"Feature","geometry":{"type":"Point","coordinates":[78.79534,19.79741]},"properties":{"udise":"27141606901","name":"Z. P. UPP  PRI. SCHOOL, MANGLI","state":"MAHARASHTRA","district":"YAVATMAL","block":"ZARI","indicator":"no_girls_toilet"}},{"type":"Feature","geometry":{"type":"Point","coordinates":[77.46458,19.7015]},"properties":{"udise":"27141103701","name":"Z. P. PRI SCHOOL, DEVGVHAN (NEW)","state":"MAHARASHTRA","district":"YAVATMAL","block":"PUSAD","indicator":"no_girls_toilet"}},{"type":"Feature","geometry":{"type":"Point","coordinates":[77.83473,19.7503]},"properties":{"udise":"27140700701","name":"Z. P UPP.PRI. SCHOOL,BHAMB","state":"MAHARASHTRA","district":"YAVATMAL","block":"MAHAGAON","indicator":"no_girls_toilet"}},{"type":"Feature","geometry":{"type":"Point","coordinates":[78.75027,19.79349]},"properties":{"udise":"27141603004","name":"Z. P. PRI. SCHOOL, DHANORA (NEW)","state":"MAHARASHTRA","district":"YAVATMAL","block":"ZARI","indicator":"no_girls_toilet"}},{"type":"Feature","geometry":{"type":"Point","coordinates":[77.77172,20.31226]},"properties":{"udise":"27140302920","name":"N.P.UPP PRI  URDU SCHOOL NO. 2, DARWHA","state":"MAHARASHTRA","district":"YAVATMAL","block":"DARWHA","indicator":"no_girls_toilet"}},{"type":"Feature","geometry":{"type":"Point","coordinates":[78.72996,19.88548]},"properties":{"udise":"27141607101","name":"Z. P. PRI. SCHOOL, MANGURLA (KH)","state":"MAHARASHTRA","district":"YAVATMAL","block":"ZARI","indicator":"no_girls_toilet"}},{"type":"Feature","geometry":{"type":"Point","coordinates":[78.14827,20.64624]},"properties":{"udise":"27140206501","name":"Z. P. PRIMARY SCHOOL, SARUL","state":"MAHARASHTRA","district":"YAVATMAL","block":"BABHULGAON","indicator":"no_girls_toilet"}},{"type":"Feature","geometry":{"type":"Point","coordinates":[78.8279,20.00086]},"properties":{"udise":"27141401301","name":"Z. P. UPP PRI. SCHOOL, BORDA","state":"MAHARASHTRA","district":"YAVATMAL","block":"WANI","indicator":"no_girls_toilet"}},{"type":"Feature","geometry":{"type":"Point","coordinates":[78.19968,19.94465]},"properties":{"udise":"27140500501","name":"Z. P.  PRI   SCHOOL, BILAYATA","state":"MAHARASHTRA","district":"YAVATMAL","block":"GHATANJI","indicator":"no_girls_toilet"}},{"type":"Feature","geometry":{"type":"Point","coordinates":[78.2992,19.93786]},"properties":{"udise":"27140503901","name":"Z. P. PRI  URDU SCHOOL, KURLI","state":"MAHARASHTRA","district":"YAVATMAL","block":"GHATANJI","indicator":"no_girls_toilet"}},{"type":"Feature","geometry":{"type":"Point","coordinates":[78.85865,20.10095]},"properties":{"udise":"27140803302","name":"Z.P. HINDI PRI. MAR. SCHOOL, GAURALA CAMP","state":"MAHARASHTRA","district":"YAVATMAL","block":"MAREGAON","indicator":"no_girls_toilet"}},{"type":"Feature","geometry":{"type":"Point","coordinates":[77.50941,19.69602]},"properties":{"udise":"27141103801","name":"Z. P. UPP PRISCHOOL, DAGADDHANORA","state":"MAHARASHTRA","district":"YAVATMAL","block":"PUSAD","indicator":"no_girls_toilet"}},{"type":"Feature","geometry":{"type":"Point","coordinates":[78.74111,20.15105]},"properties":{"udise":"27140811601","name":"Z. P. PRI. SCHOOL, BANDAR","state":"MAHARASHTRA","district":"YAVATMAL","block":"MAREGAON","indicator":"no_girls_toilet"}},{"type":"Feature","geometry":{"type":"Point","coordinates":[77.63029,19.91731]},"properties":{"udise":"27141108104","name":"Z. P. PRI SCH KATKHEDA NEW","state":"MAHARASHTRA","district":"YAVATMAL","block":"PUSAD","indicator":"no_girls_toilet"}},{"type":"Feature","geometry":{"type":"Point","coordinates":[77.48948,19.92504]},"properties":{"udise":"27141115201","name":"Z. P. UPP. PRI.SCHOOL, YELDARI","state":"MAHARASHTRA","district":"YAVATMAL","block":"PUSAD","indicator":"no_girls_toilet"}},{"type":"Feature","geometry":{"type":"Point","coordinates":[78.67769,19.79741]},"properties":{"udise":"27141603101","name":"Z. P. PRI. SCHOOL, DIGRAS (OLD)","state":"MAHARASHTRA","district":"YAVATMAL","block":"ZARI","indicator":"no_girls_toilet"}},{"type":"Feature","geometry":{"type":"Point","coordinates":[77.91325,19.68065]},"properties":{"udise":"27141301201","name":"Z. P. PRI. SCHOOL, BHOJUNAGAR-1","state":"MAHARASHTRA","district":"YAVATMAL","block":"UMARKHED","indicator":"no_girls_toilet"}},{"type":"Feature","geometry":{"type":"Point","coordinates":[77.48181,19.68334]},"properties":{"udise":"27141104301","name":"Z. P. UPP PRI SCHOOL, GAUL (BK)","state":"MAHARASHTRA","district":"YAVATMAL","block":"PUSAD","indicator":"no_girls_toilet"}},{"type":"Feature","geometry":{"type":"Point","coordinates":[78.04513,19.64014]},"properties":{"udise":"27141305801","name":"Z. P. UPP PRI. SCHOOL, KORTA","state":"MAHARASHTRA","district":"YAVATMAL","block":"UMARKHED","indicator":"no_girls_toilet"}},{"type":"Feature","geometry":{"type":"Point","coordinates":[77.51404,19.82229]},"properties":{"udise":"27141113203","name":"Z.P. PRI SCH DHANSING NAGAR","state":"MAHARASHTRA","district":"YAVATMAL","block":"PUSAD","indicator":"no_girls_toilet"}},{"type":"Feature","geometry":{"type":"Point","coordinates":[78.20774,20.65766]},"properties":{"udise":"27140201901","name":"Z. P. PRIMARY SCHOOL, GHARPHAL","state":"MAHARASHTRA","district":"YAVATMAL","block":"BABHULGAON","indicator":"no_girls_toilet"}},{"type":"Feature","geometry":{"type":"Point","coordinates":[77.61297,19.8542]},"properties":{"udise":"27141107701","name":"Z. P. UPP PRI SCHOOL, KONDHAI","state":"MAHARASHTRA","district":"YAVATMAL","block":"PUSAD","indicator":"no_girls_toilet"}},{"type":"Feature","geometry":{"type":"Point","coordinates":[77.87558,20.28022]},"properties":{"udise":"27140309401","name":"Z. P. PRI  SCHOOL, NIMBHA (I)","state":"MAHARASHTRA","district":"YAVATMAL","block":"DARWHA","indicator":"no_girls_toilet"}},{"type":"Feature","geometry":{"type":"Point","coordinates":[77.5417,19.80389]},"properties":{"udise":"27141108601","name":"Z. P.PRI  SCHOOL, LONDARI","state":"MAHARASHTRA","district":"YAVATMAL","block":"PUSAD","indicator":"no_girls_toilet"}},{"type":"Feature","geometry":{"type":"Point","coordinates":[78.44572,20.14608]},"properties":{"udise":"27140509306","name":"Z.P.  PRI  SCHOOL, BHUTAI POD, SHIVANI","state":"MAHARASHTRA","district":"YAVATMAL","block":"GHATANJI","indicator":"no_girls_toilet"}},{"type":"Feature","geometry":{"type":"Point","coordinates":[78.36647,20.09922]},"properties":{"udise":"27140511303","name":"Z. P.  PRI   SCHOOL (POD), VASARI","state":"MAHARASHTRA","district":"YAVATMAL","block":"GHATANJI","indicator":"no_girls_toilet"}},{"type":"Feature","geometry":{"type":"Point","coordinates":[78.60067,20.34989]},"properties":{"udise":"27141205501","name":"Z.P.PRI.SCHOOL, NIDHA","state":"MAHARASHTRA","district":"YAVATMAL","block":"RALEGAON","indicator":"no_girls_toilet"}},{"type":"Feature","geometry":{"type":"Point","coordinates":[77.35207,19.93603]},"properties":{"udise":"27141113601","name":"Z. P. PRI SCHOOL, SATTARMAL","state":"MAHARASHTRA","district":"YAVATMAL","block":"PUSAD","indicator":"no_girls_toilet"}},{"type":"Feature","geometry":{"type":"Point","coordinates":[78.76584,19.79364]},"properties":{"udise":"27141612001","name":"Z. P. PRI. SCHOOL, YELDAPUR","state":"MAHARASHTRA","district":"YAVATMAL","block":"ZARI","indicator":"no_girls_toilet"}},{"type":"Feature","geometry":{"type":"Point","coordinates":[78.64181,19.91985]},"properties":{"udise":"27141602201","name":"Z. P. PRI. SCHOOL, CHIKHALDOH","state":"MAHARASHTRA","district":"YAVATMAL","block":"ZARI","indicator":"no_girls_toilet"}},{"type":"Feature","geometry":{"type":"Point","coordinates":[78.16977,20.01161]},"properties":{"udise":"27140504701","name":"Z. P.  PRI   SCHOOL,  KAWATHA (K)","state":"MAHARASHTRA","district":"YAVATMAL","block":"GHATANJI","indicator":"no_girls_toilet"}},{"type":"Feature","geometry":{"type":"Point","coordinates":[77.62905,19.87534]},"properties":{"udise":"27141105301","name":"Z. P.UPP PRI  SCHOOL,HUDI (BK) GAON","state":"MAHARASHTRA","district":"YAVATMAL","block":"PUSAD","indicator":"no_girls_toilet"}},{"type":"Feature","geometry":{"type":"Point","coordinates":[77.59447,20.31673]},"properties":{"udise":"27140304601","name":"Z. P.PRI  SCHOOL, GOREGAON","state":"MAHARASHTRA","district":"YAVATMAL","block":"DARWHA","indicator":"no_girls_toilet"}},{"type":"Feature","geometry":{"type":"Point","coordinates":[78.47451,20.52647]},"properties":{"udise":"27140601501","name":"Z. P. PRI. SCHOOL, CHINCHOLI","state":"MAHARASHTRA","district":"YAVATMAL","block":"KALAMB","indicator":"no_girls_toilet"}},{"type":"Feature","geometry":{"type":"Point","coordinates":[78.32615,20.1181]},"properties":{"udise":"27140507401","name":"Z. P.  PRI  SCHOOL, NUKTI","state":"MAHARASHTRA","district":"YAVATMAL","block":"GHATANJI","indicator":"no_girls_toilet"}},{"type":"Feature","geometry":{"type":"Point","coordinates":[77.38502,19.88174]},"properties":{"udise":"27141111001","name":"Z. P. PRI SCHOOL, PIMPALGAON (I)","state":"MAHARASHTRA","district":"YAVATMAL","block":"PUSAD","indicator":"no_girls_toilet"}},{"type":"Feature","geometry":{"type":"Point","coordinates":[78.87377,19.83496]},"properties":{"udise":"27141603602","name":"Z P PRI GANESHPUR BANDA, GANESHPUR (KHA)","state":"MAHARASHTRA","district":"YAVATMAL","block":"ZARI","indicator":"no_girls_toilet"}},{"type":"Feature","geometry":{"type":"Point","coordinates":[77.58748,19.82911]},"properties":{"udise":"27141114801","name":"Z. P. UPP PRI SCHOOL, WENI (KH)","state":"MAHARASHTRA","district":"YAVATMAL","block":"PUSAD","indicator":"no_girls_toilet"}},{"type":"Feature","geometry":{"type":"Point","coordinates":[77.33715,19.95667]},"properties":{"udise":"27141114001","name":"Z. P. UPP PRI SCHOOL, WAGHJALI","state":"MAHARASHTRA","district":"YAVATMAL","block":"PUSAD","indicator":"no_girls_toilet"}},{"type":"Feature","geometry":{"type":"Point","coordinates":[78.09142,20.24215]},"properties":{"udise":"27141507801","name":"Z. P. PRI. SCHOOL, NAKAPARDI","state":"MAHARASHTRA","district":"YAVATMAL","block":"YAVATMAL","indicator":"no_girls_toilet"}},{"type":"Feature","geometry":{"type":"Point","coordinates":[78.28563,20.12784]},"properties":{"udise":"27140500201","name":"Z. P. UPP PRI    SCHOOL, ANJI(N)","state":"MAHARASHTRA","district":"YAVATMAL","block":"GHATANJI","indicator":"no_girls_toilet"}},{"type":"Feature","geometry":{"type":"Point","coordinates":[78.17724,19.98403]},"properties":{"udise":"27140512801","name":"Z.P. PRI. MAR. SCHOOL, KELAPUR TANDA","state":"MAHARASHTRA","district":"YAVATMAL","block":"GHATANJI","indicator":"no_girls_toilet"}},{"type":"Feature","geometry":{"type":"Point","coordinates":[77.87705,20.27077]},"properties":{"udise":"27140303201","name":"Z. P.PRI  SCHOOL, DARYAPUR","state":"MAHARASHTRA","district":"YAVATMAL","block":"DARWHA","indicator":"no_girls_toilet"}},{"type":"Feature","geometry":{"type":"Point","coordinates":[77.61144,19.75283]},"properties":{"udise":"27141112601","name":"Z. P.UPP PRI  SCHOOL, SHILONA","state":"MAHARASHTRA","district":"YAVATMAL","block":"PUSAD","indicator":"no_girls_toilet"}},{"type":"Feature","geometry":{"type":"Point","coordinates":[78.74077,19.87736]},"properties":{"udise":"27141610701","name":"Z. P. PRI. SCHOOL, SHIROLA","state":"MAHARASHTRA","district":"YAVATMAL","block":"ZARI","indicator":"no_girls_toilet"}},{"type":"Feature","geometry":{"type":"Point","coordinates":[78.12876,20.51772]},"properties":{"udise":"27140201101","name":"Z P UPP PRI SCHOOL, CHIMNAPUR","state":"MAHARASHTRA","district":"YAVATMAL","block":"BABHULGAON","indicator":"no_girls_toilet"}},{"type":"Feature","geometry":{"type":"Point","coordinates":[78.10592,20.32283]},"properties":{"udise":"27141506001","name":"Z. P. PRI. SCHOOL, KHARAD","state":"MAHARASHTRA","district":"YAVATMAL","block":"YAVATMAL","indicator":"no_girls_toilet"}},{"type":"Feature","geometry":{"type":"Point","coordinates":[77.781,19.81823]},"properties":{"udise":"27140700303","name":"Z.P. UPP.PRI. URDU SCHOOL,AMBODA","state":"MAHARASHTRA","district":"YAVATMAL","block":"MAHAGAON","indicator":"no_girls_toilet"}},{"type":"Feature","geometry":{"type":"Point","coordinates":[78.18738,19.96443]},"properties":{"udise":"27140506501","name":"Z. P.   PRI SCHOOL, MANUSDHARI","state":"MAHARASHTRA","district":"YAVATMAL","block":"GHATANJI","indicator":"no_girls_toilet"}},{"type":"Feature","geometry":{"type":"Point","coordinates":[79.01024,19.98057]},"properties":{"udise":"27141412901","name":"Z. P. PRI. SCHOOL, SHELU BK","state":"MAHARASHTRA","district":"YAVATMAL","block":"WANI","indicator":"no_girls_toilet"}},{"type":"Feature","geometry":{"type":"Point","coordinates":[78.90028,19.88632]},"properties":{"udise":"27141412001","name":"Z. P. PRI. SCHOOL, PURAD N","state":"MAHARASHTRA","district":"YAVATMAL","block":"WANI","indicator":"no_girls_toilet"}},{"type":"Feature","geometry":{"type":"Point","coordinates":[78.7978,19.77356]},"properties":{"udise":"27141603002","name":"Z. P. PRI. SCHOOL, GADEGHAT, DHANORA","state":"MAHARASHTRA","district":"YAVATMAL","block":"ZARI","indicator":"no_girls_toilet"}},{"type":"Feature","geometry":{"type":"Point","coordinates":[77.41177,20.02512]},"properties":{"udise":"27141102001","name":"Z. P.UPP PRI SCHOOL, BRAMHANGAON","state":"MAHARASHTRA","district":"YAVATMAL","block":"PUSAD","indicator":"no_girls_toilet"}},{"type":"Feature","geometry":{"type":"Point","coordinates":[77.94184,20.01815]},"properties":{"udise":"27140106301","name":"Z. P. PRI. SCHOOL,KOLWAN(BIG)","state":"MAHARASHTRA","district":"YAVATMAL","block":"ARNI","indicator":"no_girls_toilet"}},{"type":"Feature","geometry":{"type":"Point","coordinates":[77.83817,20.29152]},"properties":{"udise":"27140311402","name":"Z.P. PRI SCHOOL, SAJEGAON JUNE","state":"MAHARASHTRA","district":"YAVATMAL","block":"DARWHA","indicator":"no_girls_toilet"}},{"type":"Feature","geometry":{"type":"Point","coordinates":[78.97577,19.83141]},"properties":{"udise":"27141401701","name":"Z. P. PRI. SCHOOL, BORI","state":"MAHARASHTRA","district":"YAVATMAL","block":"WANI","indicator":"no_girls_toilet"}},{"type":"Feature","geometry":{"type":"Point","coordinates":[77.7507,20.7666]},"properties":{"udise":"27141509001","name":"Z. P. PRI. SCHOOL, ROHTEK","state":"MAHARASHTRA","district":"YAVATMAL","block":"YAVATMAL","indicator":"no_girls_toilet"}},{"type":"Feature","geometry":{"type":"Point","coordinates":[77.73397,20.06676]},"properties":{"udise":"27140404801","name":"Z. P. UPP. PRI. SCHOOL,NIMBHA","state":"MAHARASHTRA","district":"YAVATMAL","block":"DIGRAS","indicator":"no_girls_toilet"}},{"type":"Feature","geometry":{"type":"Point","coordinates":[78.70864,19.89589]},"properties":{"udise":"27141606701","name":"Z. P. PRI. SCHOOL, MANDVA","state":"MAHARASHTRA","district":"YAVATMAL","block":"ZARI","indicator":"no_girls_toilet"}},{"type":"Feature","geometry":{"type":"Point","coordinates":[77.5488,20.03884]},"properties":{"udise":"27141102801","name":"Z. P. PRI SCHOOL, CHICHGHAT","state":"MAHARASHTRA","district":"YAVATMAL","block":"PUSAD","indicator":"no_girls_toilet"}},{"type":"Feature","geometry":{"type":"Point","coordinates":[78.89975,19.87268]},"properties":{"udise":"27141406901","name":"Z. P. PRI. SCHOOL, KUNDRA","state":"MAHARASHTRA","district":"YAVATMAL","block":"WANI","indicator":"no_girls_toilet"}},{"type":"Feature","geometry":{"type":"Point","coordinates":[78.31747,20.17851]},"properties":{"udise":"27140504901","name":"Z. P.  PRI  SCHOOL, KARMANA","state":"MAHARASHTRA","district":"YAVATMAL","block":"GHATANJI","indicator":"no_girls_toilet"}},{"type":"Feature","geometry":{"type":"Point","coordinates":[78.7952,20.29483]},"properties":{"udise":"27140809601","name":"Z. P. PRI. SCHOOL, SAWANGI","state":"MAHARASHTRA","district":"YAVATMAL","block":"MAREGAON","indicator":"no_girls_toilet"}},{"type":"Feature","geometry":{"type":"Point","coordinates":[78.85696,20.12584]},"properties":{"udise":"27140811101","name":"Z. P. UPP. PRI. SCHOOL, WARUD","state":"MAHARASHTRA","district":"YAVATMAL","block":"MAREGAON","indicator":"no_girls_toilet"}},{"type":"Feature","geometry":{"type":"Point","coordinates":[78.90317,20.05994]},"properties":{"udise":"27141408701","name":"Z. P. UPPAR PRI. SCHOOL, MURDHONI","state":"MAHARASHTRA","district":"YAVATMAL","block":"WANI","indicator":"no_girls_toilet"}},{"type":"Feature","geometry":{"type":"Point","coordinates":[78.6348,19.83072]},"properties":{"udise":"27141603001","name":"Z. P. UPP  PRI. SCHOOL, DHANORA","state":"MAHARASHTRA","district":"YAVATMAL","block":"ZARI","indicator":"no_girls_toilet"}},{"type":"Feature","geometry":{"type":"Point","coordinates":[78.04321,20.31]},"properties":{"udise":"27141507501","name":"Z. P.UPP  PRI. SCHOOL, MANPUR","state":"MAHARASHTRA","district":"YAVATMAL","block":"YAVATMAL","indicator":"no_girls_toilet"}},{"type":"Feature","geometry":{"type":"Point","coordinates":[78.68126,19.89819]},"properties":{"udise":"27141607404","name":"Z.P. PRI SCH BIHADI POD, MATHARJUN","state":"MAHARASHTRA","district":"YAVATMAL","block":"ZARI","indicator":"no_girls_toilet"}},{"type":"Feature","geometry":{"type":"Point","coordinates":[77.56324,19.84811]},"properties":{"udise":"27141114401","name":"Z. P.UPP PRI  SCHOOL, WASANTPUR","state":"MAHARASHTRA","district":"YAVATMAL","block":"PUSAD","indicator":"no_girls_toilet"}},{"type":"Feature","geometry":{"type":"Point","coordinates":[78.33473,20.03346]},"properties":{"udise":"27140501101","name":"Z. P. PRI. SCHOOL , CHINCHOLI(KO)","state":"MAHARASHTRA","district":"YAVATMAL","block":"GHATANJI","indicator":"no_girls_toilet"}},{"type":"Feature","geometry":{"type":"Point","coordinates":[77.52418,19.99438]},"properties":{"udise":"27141100903","name":"Z. P PRI . SCHOOL, BANSI TANDA","state":"MAHARASHTRA","district":"YAVATMAL","block":"PUSAD","indicator":"no_girls_toilet"}},{"type":"Feature","geometry":{"type":"Point","coordinates":[77.80902,20.08511]},"properties":{"udise":"27140403802","name":"Z. P.URDU UPP PRI.SCHOOL, LAKH(R)","state":"MAHARASHTRA","district":"YAVATMAL","block":"DIGRAS","indicator":"no_girls_toilet"}},{"type":"Feature","geometry":{"type":"Point","coordinates":[78.10917,20.37438]},"properties":{"udise":"27141504104","name":"Z.P. PRI SCH, SHRAMIK NAGAR, GODHANI","state":"MAHARASHTRA","district":"YAVATMAL","block":"YAVATMAL","indicator":"no_girls_toilet"}},{"type":"Feature","geometry":{"type":"Point","coordinates":[78.13803,20.39473]},"properties":{"udise":"27141512844","name":"N. P. SCHOOL NO. 5, YAVATMAL","state":"MAHARASHTRA","district":"YAVATMAL","block":"YAVATMAL","indicator":"no_girls_toilet"}},{"type":"Feature","geometry":{"type":"Point","coordinates":[78.68739,19.88532]},"properties":{"udise":"27141601301","name":"Z. P. PRI. SCHOOL, BHIMNALA","state":"MAHARASHTRA","district":"YAVATMAL","block":"ZARI","indicator":"no_girls_toilet"}},{"type":"Feature","geometry":{"type":"Point","coordinates":[77.97611,20.14161]},"properties":{"udise":"27140104101","name":"Z. P. PRI. SCHOOL,GAWANA","state":"MAHARASHTRA","district":"YAVATMAL","block":"ARNI","indicator":"no_girls_toilet"}},{"type":"Feature","geometry":{"type":"Point","coordinates":[77.92782,19.96546]},"properties":{"udise":"27140107302","name":"Z. P. HIGH. SCHOOL, LONBEHAL","state":"MAHARASHTRA","district":"YAVATMAL","block":"ARNI","indicator":"no_girls_toilet"}},{"type":"Feature","geometry":{"type":"Point","coordinates":[78.68131,19.89823]},"properties":{"udise":"27141607405","name":"Z.P. PRI SCH DUBLI POD, MATHARJUN","state":"MAHARASHTRA","district":"YAVATMAL","block":"ZARI","indicator":"no_girls_toilet"}},{"type":"Feature","geometry":{"type":"Point","coordinates":[78.86764,19.92857]},"properties":{"udise":"27141416301","name":"Z.P. PRI.SCHOOL, SAIDABAD","state":"MAHARASHTRA","district":"YAVATMAL","block":"WANI","indicator":"no_girls_toilet"}},{"type":"Feature","geometry":{"type":"Point","coordinates":[78.72402,20.02563]},"properties":{"udise":"27140811901","name":"Z.P. PRI. SCHOOL, SAGPOD","state":"MAHARASHTRA","district":"YAVATMAL","block":"MAREGAON","indicator":"no_girls_toilet"}},{"type":"Feature","geometry":{"type":"Point","coordinates":[78.01607,20.40119]},"properties":{"udise":"27141506601","name":"Z. P. PRI. SCHOOL, LASINA HETI","state":"MAHARASHTRA","district":"YAVATMAL","block":"YAVATMAL","indicator":"no_girls_toilet"}},{"type":"Feature","geometry":{"type":"Point","coordinates":[78.21602,20.60399]},"properties":{"udise":"27140203301","name":"Z. P. PRIMARY SCHOOL, KINHI","state":"MAHARASHTRA","district":"YAVATMAL","block":"BABHULGAON","indicator":"no_girls_toilet"}},{"type":"Feature","geometry":{"type":"Point","coordinates":[78.1503,20.3119]},"properties":{"udise":"27141508501","name":"Z. P. UPP PRI. SCHOOL, PANDHARI","state":"MAHARASHTRA","district":"YAVATMAL","block":"YAVATMAL","indicator":"no_girls_toilet"}},{"type":"Feature","geometry":{"type":"Point","coordinates":[79.0269,20.07247]},"properties":{"udise":"27141406201","name":"Z. P. UPPAR PRI. SCHOOL, KOLERA","state":"MAHARASHTRA","district":"YAVATMAL","block":"WANI","indicator":"no_girls_toilet"}},{"type":"Feature","geometry":{"type":"Point","coordinates":[77.92351,19.68771]},"properties":{"udise":"27141300401","name":"Z. P. UPP PRI. SCHOOL, AMDAPUR","state":"MAHARASHTRA","district":"YAVATMAL","block":"UMARKHED","indicator":"no_girls_toilet"}},{"type":"Feature","geometry":{"type":"Point","coordinates":[78.38726,20.12386]},"properties":{"udise":"27140503601","name":"Z. P. PRI   SCHOOL, KOPRA(WAN)","state":"MAHARASHTRA","district":"YAVATMAL","block":"GHATANJI","indicator":"no_girls_toilet"}},{"type":"Feature","geometry":{"type":"Point","coordinates":[77.58145,19.85404]},"properties":{"udise":"27141115701","name":"Z P PRI. MAR. SCHOOL, KRUSHNANAGAR","state":"MAHARASHTRA","district":"YAVATMAL","block":"PUSAD","indicator":"no_girls_toilet"}},{"type":"Feature","geometry":{"type":"Point","coordinates":[77.69611,19.91886]},"properties":{"udise":"27140704601","name":"Z P. UPP.PRI. SCHOOL,KAUDGAON","state":"MAHARASHTRA","district":"YAVATMAL","block":"MAHAGAON","indicator":"no_girls_toilet"}},{"type":"Feature","geometry":{"type":"Point","coordinates":[79.01141,20.06147]},"properties":{"udise":"27141401801","name":"Z. P. UPPAR PRI. SCHOOL, BRAMHNI","state":"MAHARASHTRA","district":"YAVATMAL","block":"WANI","indicator":"no_girls_toilet"}},{"type":"Feature","geometry":{"type":"Point","coordinates":[77.84607,19.67006]},"properties":{"udise":"27141308203","name":"Z. P. URDU PRI. SCHOOL, NINGNOOR","state":"MAHARASHTRA","district":"YAVATMAL","block":"UMARKHED","indicator":"no_girls_toilet"}},{"type":"Feature","geometry":{"type":"Point","coordinates":[77.75457,19.74861]},"properties":{"udise":"27140707501","name":"Z P UPP PRI. SCHOOL, SADHUNAGAR","state":"MAHARASHTRA","district":"YAVATMAL","block":"MAHAGAON","indicator":"no_girls_toilet"}},{"type":"Feature","geometry":{"type":"Point","coordinates":[78.61788,19.91858]},"properties":{"udise":"27141611401","name":"Z. P. PRI. SCHOOL, TEMBHI","state":"MAHARASHTRA","district":"YAVATMAL","block":"ZARI","indicator":"no_girls_toilet"}},{"type":"Feature","geometry":{"type":"Point","coordinates":[77.44698,19.72452]},"properties":{"udise":"27141105802","name":"Z. P. PRI SCH, ISAPUR","state":"MAHARASHTRA","district":"YAVATMAL","block":"PUSAD","indicator":"no_girls_toilet"}},{"type":"Feature","geometry":{"type":"Point","coordinates":[78.68713,19.81491]},"properties":{"udise":"27141603102","name":"Z. P. PRI. SCHOOL, DIGRAS (NEW)","state":"MAHARASHTRA","district":"YAVATMAL","block":"ZARI","indicator":"no_girls_toilet"}},{"type":"Feature","geometry":{"type":"Point","coordinates":[78.40204,19.97726]},"properties":{"udise":"27140503303","name":"Z. P. PRI  SCHOOL JAMB POD, JAMB","state":"MAHARASHTRA","district":"YAVATMAL","block":"GHATANJI","indicator":"no_girls_toilet"}},{"type":"Feature","geometry":{"type":"Point","coordinates":[78.09474,20.39004]},"properties":{"udise":"27141506401","name":"Z. P. UPP PRI. SCHOOL,, LOHARA POD","state":"MAHARASHTRA","district":"YAVATMAL","block":"YAVATMAL","indicator":"no_girls_toilet"}},{"type":"Feature","geometry":{"type":"Point","coordinates":[77.98189,20.32465]},"properties":{"udise":"27141501302","name":"Z. P. PRI SCH NARKUND","state":"MAHARASHTRA","district":"YAVATMAL","block":"YAVATMAL","indicator":"no_girls_toilet"}},{"type":"Feature","geometry":{"type":"Point","coordinates":[78.32922,20.01249]},"properties":{"udise":"27140502101","name":"Z. P. PRI. SCHOOL (POD), DEODHARI","state":"MAHARASHTRA","district":"YAVATMAL","block":"GHATANJI","indicator":"no_girls_toilet"}},{"type":"Feature","geometry":{"type":"Point","coordinates":[77.90631,19.97055]},"properties":{"udise":"27140103801","name":"Z. P. PRI. SCHOOL,IWALESHWAR","state":"MAHARASHTRA","district":"YAVATMAL","block":"ARNI","indicator":"no_girls_toilet"}},{"type":"Feature","geometry":{"type":"Point","coordinates":[77.71911,20.3563]},"properties":{"udise":"27140305801","name":"Z. P.UPP PRI SCHOOL, IRTHAL","state":"MAHARASHTRA","district":"YAVATMAL","block":"DARWHA","indicator":"no_girls_toilet"}},{"type":"Feature","geometry":{"type":"Point","coordinates":[78.64248,19.84171]},"properties":{"udise":"27141602901","name":"Z. P. PRI. SCHOOL, DEMAD (DEVI)","state":"MAHARASHTRA","district":"YAVATMAL","block":"ZARI","indicator":"no_girls_toilet"}},{"type":"Feature","geometry":{"type":"Point","coordinates":[77.73241,19.66159]},"properties":{"udise":"27141303601","name":"Z. P.UPP  PRI. SCHOOL, DINDALA","state":"MAHARASHTRA","district":"YAVATMAL","block":"UMARKHED","indicator":"girls_toilet_nonfunctional"}},{"type":"Feature","geometry":{"type":"Point","coordinates":[78.04586,19.6392]},"properties":{"udise":"27141305802","name":"Z. P. HIGH SCHOOL, KORTA","state":"MAHARASHTRA","district":"YAVATMAL","block":"UMARKHED","indicator":"girls_toilet_nonfunctional"}},{"type":"Feature","geometry":{"type":"Point","coordinates":[78.80737,19.78548]},"properties":{"udise":"27141604201","name":"Z. P. UPP  PRI. SCHOOL, HIRAPUR (NEW)","state":"MAHARASHTRA","district":"YAVATMAL","block":"ZARI","indicator":"girls_toilet_nonfunctional"}},{"type":"Feature","geometry":{"type":"Point","coordinates":[78.14801,19.99839]},"properties":{"udise":"27140511701","name":"Z. P.   PRI   SCHOOL, YEDSHI","state":"MAHARASHTRA","district":"YAVATMAL","block":"GHATANJI","indicator":"girls_toilet_nonfunctional"}},{"type":"Feature","geometry":{"type":"Point","coordinates":[78.14453,20.48436]},"properties":{"udise":"27140207501","name":"Z. P. PRIMARY SCHOOL, TARODA","state":"MAHARASHTRA","district":"YAVATMAL","block":"BABHULGAON","indicator":"girls_toilet_nonfunctional"}},{"type":"Feature","geometry":{"type":"Point","coordinates":[77.68447,19.60803]},"properties":{"udise":"27141311419","name":"Z. P. (EX GOVT) GIRLS HIGH SCHOOL, UMARKHED","state":"MAHARASHTRA","district":"YAVATMAL","block":"UMARKHED","indicator":"girls_toilet_nonfunctional"}},{"type":"Feature","geometry":{"type":"Point","coordinates":[77.63654,19.82145]},"properties":{"udise":"27141111401","name":"Z. P. UPP PRI SCHOOL, PALUWADI","state":"MAHARASHTRA","district":"YAVATMAL","block":"PUSAD","indicator":"girls_toilet_nonfunctional"}},{"type":"Feature","geometry":{"type":"Point","coordinates":[77.51803,19.86555]},"properties":{"udise":"27141107601","name":"Z. P. PRI SCHOOL, KARLA","state":"MAHARASHTRA","district":"YAVATMAL","block":"PUSAD","indicator":"girls_toilet_nonfunctional"}},{"type":"Feature","geometry":{"type":"Point","coordinates":[78.77339,20.29319]},"properties":{"udise":"27141203701","name":"Z.P.   PRI. SCHOOL, KOCCHI","state":"MAHARASHTRA","district":"YAVATMAL","block":"RALEGAON","indicator":"girls_toilet_nonfunctional"}},{"type":"Feature","geometry":{"type":"Point","coordinates":[77.8559,20.34546]},"properties":{"udise":"27140314801","name":"Z P PRI. MAR. SCHOOL, BORI BU.","state":"MAHARASHTRA","district":"YAVATMAL","block":"DARWHA","indicator":"girls_toilet_nonfunctional"}},{"type":"Feature","geometry":{"type":"Point","coordinates":[77.35915,19.86651]},"properties":{"udise":"27141100301","name":"Z. P. UPP PRI.  SCHOOL AMATI","state":"MAHARASHTRA","district":"YAVATMAL","block":"PUSAD","indicator":"girls_toilet_nonfunctional"}},{"type":"Feature","geometry":{"type":"Point","coordinates":[77.6223,19.80188]},"properties":{"udise":"27141100602","name":"Z.P PRI URDU SCH ASOLI","state":"MAHARASHTRA","district":"YAVATMAL","block":"PUSAD","indicator":"girls_toilet_nonfunctional"}},{"type":"Feature","geometry":{"type":"Point","coordinates":[78.83575,20.21735]},"properties":{"udise":"27140800901","name":"Z. P. PRI. SCHOOL, BODAD","state":"MAHARASHTRA","district":"YAVATMAL","block":"MAREGAON","indicator":"girls_toilet_nonfunctional"}},{"type":"Feature","geometry":{"type":"Point","coordinates":[77.60454,20.30024]},"properties":{"udise":"27140314401","name":"Z. P. UPP PRI  SCHOOL, WAGAD (B)","state":"MAHARASHTRA","district":"YAVATMAL","block":"DARWHA","indicator":"girls_toilet_nonfunctional"}},{"type":"Feature","geometry":{"type":"Point","coordinates":[77.8345,19.89813]},"properties":{"udise":"27140705003","name":"Z.P PRI. SCHOOL DARDEOWADI,KONDARI","state":"MAHARASHTRA","district":"YAVATMAL","block":"MAHAGAON","indicator":"girls_toilet_nonfunctional"}},{"type":"Feature","geometry":{"type":"Point","coordinates":[78.96242,19.8859]},"properties":{"udise":"27141408401","name":"Z. P. UPPAR PRI. SCHOOL, MOHDA","state":"MAHARASHTRA","district":"YAVATMAL","block":"WANI","indicator":"girls_toilet_nonfunctional"}},{"type":"Feature","geometry":{"type":"Point","coordinates":[78.37348,19.91394]},"properties":{"udise":"27140510103","name":"GAJANAN MAHARAJ JR COLLEGE, SAWARGAON","state":"MAHARASHTRA","district":"YAVATMAL","block":"GHATANJI","indicator":"girls_toilet_nonfunctional"}},{"type":"Feature","geometry":{"type":"Point","coordinates":[78.36545,20.03027]},"properties":{"udise":"27140503001","name":"Z. P. UPP PRI  SCHOOL, INZALA","state":"MAHARASHTRA","district":"YAVATMAL","block":"GHATANJI","indicator":"girls_toilet_nonfunctional"}},{"type":"Feature","geometry":{"type":"Point","coordinates":[78.18655,20.09561]},"properties":{"udise":"27140507601","name":"Z. P.  PRI   SCHOOL, NIMBARDA","state":"MAHARASHTRA","district":"YAVATMAL","block":"GHATANJI","indicator":"girls_toilet_nonfunctional"}},{"type":"Feature","geometry":{"type":"Point","coordinates":[77.45905,19.70641]},"properties":{"udise":"27141103702","name":"Z. P. PRI.SCHOOL, DEVGAVHAN (OLD)","state":"MAHARASHTRA","district":"YAVATMAL","block":"PUSAD","indicator":"girls_toilet_nonfunctional"}},{"type":"Feature","geometry":{"type":"Point","coordinates":[77.45398,19.85276]},"properties":{"udise":"27141116501","name":"Z.P. PRI RAMPUR NAGAR, RAMPUR TANDA","state":"MAHARASHTRA","district":"YAVATMAL","block":"PUSAD","indicator":"girls_toilet_nonfunctional"}},{"type":"Feature","geometry":{"type":"Point","coordinates":[77.68227,20.06803]},"properties":{"udise":"27140406202","name":"Z.P. PRI SCH MATHURA TANDA,SEVANAGAR","state":"MAHARASHTRA","district":"YAVATMAL","block":"DIGRAS","indicator":"girls_toilet_nonfunctional"}},{"type":"Feature","geometry":{"type":"Point","coordinates":[78.09587,20.38968]},"properties":{"udise":"27141506314","name":"SCH. FOR EXCELLANCE, LOHARA","state":"MAHARASHTRA","district":"YAVATMAL","block":"YAVATMAL","indicator":"girls_toilet_nonfunctional"}},{"type":"Feature","geometry":{"type":"Point","coordinates":[78.7062,20.15042]},"properties":{"udise":"27140803602","name":"Z.P.PRI.SCH, BIHADIPOD","state":"MAHARASHTRA","district":"YAVATMAL","block":"MAREGAON","indicator":"girls_toilet_nonfunctional"}},{"type":"Feature","geometry":{"type":"Point","coordinates":[78.37416,19.91547]},"properties":{"udise":"27140510101","name":"Z. P. UPP  PRI  SCHOOL, SAWARGAON","state":"MAHARASHTRA","district":"YAVATMAL","block":"GHATANJI","indicator":"girls_toilet_nonfunctional"}},{"type":"Feature","geometry":{"type":"Point","coordinates":[77.41243,19.8969]},"properties":{"udise":"27141112302","name":"Z.P. PRI SCH HIWALANI KHURD","state":"MAHARASHTRA","district":"YAVATMAL","block":"PUSAD","indicator":"girls_toilet_nonfunctional"}},{"type":"Feature","geometry":{"type":"Point","coordinates":[78.3104,20.1522]},"properties":{"udise":"27141503301","name":"Z. P. PRI. SCHOOL, DUDHANA","state":"MAHARASHTRA","district":"YAVATMAL","block":"YAVATMAL","indicator":"girls_toilet_nonfunctional"}},{"type":"Feature","geometry":{"type":"Point","coordinates":[77.65964,19.90879]},"properties":{"udise":"27140704402","name":"Z.P. PRI SCH FAKIRBABA WASTI,KASOLA","state":"MAHARASHTRA","district":"YAVATMAL","block":"MAHAGAON","indicator":"girls_toilet_nonfunctional"}},{"type":"Feature","geometry":{"type":"Point","coordinates":[78.92144,20.23156]},"properties":{"udise":"27140807701","name":"Z. P. PRI. SCHOOL, MUKATA","state":"MAHARASHTRA","district":"YAVATMAL","block":"MAREGAON","indicator":"girls_toilet_nonfunctional"}},{"type":"Feature","geometry":{"type":"Point","coordinates":[78.00733,19.67425]},"properties":{"udise":"27141310301","name":"Z. P. PRI. SCHOOL, SOIT (GH.)","state":"MAHARASHTRA","district":"YAVATMAL","block":"UMARKHED","indicator":"girls_toilet_nonfunctional"}},{"type":"Feature","geometry":{"type":"Point","coordinates":[77.77876,20.30673]},"properties":{"udise":"27140302908","name":"SAU.S.Z. CHAVARDOL HIGHSCHOOL, DARWHA","state":"MAHARASHTRA","district":"YAVATMAL","block":"DARWHA","indicator":"girls_toilet_nonfunctional"}},{"type":"Feature","geometry":{"type":"Point","coordinates":[78.10035,20.40104]},"properties":{"udise":"27141506310","name":"Z.P. PRI MARATHI SCH, BODAD","state":"MAHARASHTRA","district":"YAVATMAL","block":"YAVATMAL","indicator":"girls_toilet_nonfunctional"}},{"type":"Feature","geometry":{"type":"Point","coordinates":[77.69061,20.11144]},"properties":{"udise":"27140405301","name":"Z. P. PRI. SCHOOL,RAMNAGAR","state":"MAHARASHTRA","district":"YAVATMAL","block":"DIGRAS","indicator":"girls_toilet_nonfunctional"}},{"type":"Feature","geometry":{"type":"Point","coordinates":[78.31223,20.13664]},"properties":{"udise":"27140510401","name":"Z. P. UPPER  PRIMARY SCHOOL,SHIROLI","state":"MAHARASHTRA","district":"YAVATMAL","block":"GHATANJI","indicator":"girls_toilet_nonfunctional"}},{"type":"Feature","geometry":{"type":"Point","coordinates":[78.11831,19.61978]},"properties":{"udise":"27141302901","name":"Z. P.UPP PRI. SCHOOL, DARATI","state":"MAHARASHTRA","district":"YAVATMAL","block":"UMARKHED","indicator":"girls_toilet_nonfunctional"}},{"type":"Feature","geometry":{"type":"Point","coordinates":[77.56423,19.87936]},"properties":{"udise":"27141101404","name":"Z. P. SCH BORGADI OLD, BORGADI","state":"MAHARASHTRA","district":"YAVATMAL","block":"PUSAD","indicator":"girls_toilet_nonfunctional"}},{"type":"Feature","geometry":{"type":"Point","coordinates":[77.75774,19.81899]},"properties":{"udise":"27140701402","name":"Z.P. PRI SCH KAURWADI (E),CHILGAVAN","state":"MAHARASHTRA","district":"YAVATMAL","block":"MAHAGAON","indicator":"girls_toilet_nonfunctional"}},{"type":"Feature","geometry":{"type":"Point","coordinates":[77.54023,19.89772]},"properties":{"udise":"27141108203","name":"Z.P. PRI SCH MULTANWADI","state":"MAHARASHTRA","district":"YAVATMAL","block":"PUSAD","indicator":"girls_toilet_nonfunctional"}},{"type":"Feature","geometry":{"type":"Point","coordinates":[78.73869,20.05874]},"properties":{"udise":"27140807801","name":"Z. P. UPP. PRI. SCHOOL, MAISDODAKA","state":"MAHARASHTRA","district":"YAVATMAL","block":"MAREGAON","indicator":"girls_toilet_nonfunctional"}},{"type":"Feature","geometry":{"type":"Point","coordinates":[77.30248,19.95163]},"properties":{"udise":"27141108301","name":"Z.P. PRI SCHOOL KANHERWADI","state":"MAHARASHTRA","district":"YAVATMAL","block":"PUSAD","indicator":"girls_toilet_nonfunctional"}},{"type":"Feature","geometry":{"type":"Point","coordinates":[78.35304,20.47907]},"properties":{"udise":"27140604801","name":"Z. P. UPP. PRI. SCHOOL, KAMATHWADA","state":"MAHARASHTRA","district":"YAVATMAL","block":"KALAMB","indicator":"girls_toilet_nonfunctional"}},{"type":"Feature","geometry":{"type":"Point","coordinates":[77.3459,19.9119]},"properties":{"udise":"27141112401","name":"Z. P.UPP PRI  SCHOOL, ROHADA","state":"MAHARASHTRA","district":"YAVATMAL","block":"PUSAD","indicator":"girls_toilet_nonfunctional"}},{"type":"Feature","geometry":{"type":"Point","coordinates":[78.77685,19.84759]},"properties":{"udise":"27141607201","name":"Z. P. UPP  PRI. SCHOOL,  MARKI (BK)","state":"MAHARASHTRA","district":"YAVATMAL","block":"ZARI","indicator":"girls_toilet_nonfunctional"}},{"type":"Feature","geometry":{"type":"Point","coordinates":[77.64259,19.89233]},"properties":{"udise":"27140708701","name":"Z.P. PRI SCH, TARODI","state":"MAHARASHTRA","district":"YAVATMAL","block":"MAHAGAON","indicator":"girls_toilet_nonfunctional"}},{"type":"Feature","geometry":{"type":"Point","coordinates":[78.36784,20.01808]},"properties":{"udise":"27140506201","name":"Z. P.  PRI   SCHOOL, MATHANI","state":"MAHARASHTRA","district":"YAVATMAL","block":"GHATANJI","indicator":"girls_toilet_nonfunctional"}},{"type":"Feature","geometry":{"type":"Point","coordinates":[77.89309,19.96234]},"properties":{"udise":"27140104302","name":"Z.P. PRI URDU SCH GHONSARA","state":"MAHARASHTRA","district":"YAVATMAL","block":"ARNI","indicator":"girls_toilet_nonfunctional"}},{"type":"Feature","geometry":{"type":"Point","coordinates":[77.5767,19.87724]},"properties":{"udise":"27141101401","name":"Z. P.PRI SCHOOL, BORGADI","state":"MAHARASHTRA","district":"YAVATMAL","block":"PUSAD","indicator":"girls_toilet_nonfunctional"}},{"type":"Feature","geometry":{"type":"Point","coordinates":[77.83227,20.01511]},"properties":{"udise":"27140401404","name":"Z. P. UPP PRI URDU SCHOOL, DEHANI","state":"MAHARASHTRA","district":"YAVATMAL","block":"DIGRAS","indicator":"girls_toilet_nonfunctional"}},{"type":"Feature","geometry":{"type":"Point","coordinates":[77.4988,19.75068]},"properties":{"udise":"27141100201","name":"Z. P. PRI. SCHOOL AMDARI","state":"MAHARASHTRA","district":"YAVATMAL","block":"PUSAD","indicator":"girls_toilet_nonfunctional"}},{"type":"Feature","geometry":{"type":"Point","coordinates":[77.68418,19.6872]},"properties":{"udise":"27141301901","name":"Z. P.UPP PRI. SCHOOL, BOTHA (WAN)","state":"MAHARASHTRA","district":"YAVATMAL","block":"UMARKHED","indicator":"girls_toilet_nonfunctional"}},{"type":"Feature","geometry":{"type":"Point","coordinates":[77.65232,19.94211]},"properties":{"udise":"27140701101","name":"Z.P. UPP PRI. SCHOOL,BORI(I)","state":"MAHARASHTRA","district":"YAVATMAL","block":"MAHAGAON","indicator":"girls_toilet_nonfunctional"}},{"type":"Feature","geometry":{"type":"Point","coordinates":[77.8873,20.02698]},"properties":{"udise":"27140402101","name":"Z. P. PRI. SCHOOL,DOLAMBA WADI","state":"MAHARASHTRA","district":"YAVATMAL","block":"DIGRAS","indicator":"girls_toilet_nonfunctional"}},{"type":"Feature","geometry":{"type":"Point","coordinates":[77.7437,19.86636]},"properties":{"udise":"27140703301","name":"Z. P PRI. SCHOOL,HIWARDARI","state":"MAHARASHTRA","district":"YAVATMAL","block":"MAHAGAON","indicator":"girls_toilet_nonfunctional"}},{"type":"Feature","geometry":{"type":"Point","coordinates":[78.3129,20.14168]},"properties":{"udise":"27140502705","name":"N. P. UPP RPI  SCHOOL NO. 5, GHANTANJI","state":"MAHARASHTRA","district":"YAVATMAL","block":"GHATANJI","indicator":"girls_toilet_nonfunctional"}},{"type":"Feature","geometry":{"type":"Point","coordinates":[77.84047,19.57416]},"properties":{"udise":"27141303305","name":"Z. P. HIGH SCHOOL,DHANKI","state":"MAHARASHTRA","district":"YAVATMAL","block":"UMARKHED","indicator":"girls_toilet_nonfunctional"}},{"type":"Feature","geometry":{"type":"Point","coordinates":[78.61236,19.83862]},"properties":{"udise":"27141612501","name":"Z.P. PRIMARY SCHOOL, ZARI","state":"MAHARASHTRA","district":"YAVATMAL","block":"ZARI","indicator":"girls_toilet_nonfunctional"}},{"type":"Feature","geometry":{"type":"Point","coordinates":[78.35647,19.9403]},"properties":{"udise":"27140512601","name":"Z. P. PRI. MARATHI SCHOOL, RAMNAGAR","state":"MAHARASHTRA","district":"YAVATMAL","block":"GHATANJI","indicator":"girls_toilet_nonfunctional"}},{"type":"Feature","geometry":{"type":"Point","coordinates":[78.33225,20.03624]},"properties":{"udise":"27140502201","name":"Z. P. . PRI  SCHOOL, DORLI","state":"MAHARASHTRA","district":"YAVATMAL","block":"GHATANJI","indicator":"girls_toilet_nonfunctional"}},{"type":"Feature","geometry":{"type":"Point","coordinates":[77.45835,19.82608]},"properties":{"udise":"27141118001","name":"Z P UPP. PRI. SCHOOL, DEVTHANA TANDA","state":"MAHARASHTRA","district":"YAVATMAL","block":"PUSAD","indicator":"girls_toilet_nonfunctional"}},{"type":"Feature","geometry":{"type":"Point","coordinates":[78.88385,19.77449]},"properties":{"udise":"27141604101","name":"Z. P. PRI. SCHOOL, HIRAPUR (OLD)","state":"MAHARASHTRA","district":"YAVATMAL","block":"ZARI","indicator":"girls_toilet_nonfunctional"}},{"type":"Feature","geometry":{"type":"Point","coordinates":[78.53799,20.21496]},"properties":{"udise":"27141204601","name":"Z.P. PRI. SCHOOL, KHAIRGAON (KASAR)","state":"MAHARASHTRA","district":"YAVATMAL","block":"RALEGAON","indicator":"girls_toilet_nonfunctional"}},{"type":"Feature","geometry":{"type":"Point","coordinates":[77.81378,20.16223]},"properties":{"udise":"27140407201","name":"Z. P. PRI. SCHOOL,WADGAON(A)","state":"MAHARASHTRA","district":"YAVATMAL","block":"DIGRAS","indicator":"girls_toilet_nonfunctional"}},{"type":"Feature","geometry":{"type":"Point","coordinates":[77.54704,19.85339]},"properties":{"udise":"27141113405","name":"Z P PRI SCH BAJARANG NAGAR SAWARGAON BK","state":"MAHARASHTRA","district":"YAVATMAL","block":"PUSAD","indicator":"girls_toilet_nonfunctional"}},{"type":"Feature","geometry":{"type":"Point","coordinates":[78.21718,20.08785]},"properties":{"udise":"27140504203","name":"Z. P. PRI.SCH. KINARA TANDA, KINHI KINARA","state":"MAHARASHTRA","district":"YAVATMAL","block":"GHATANJI","indicator":"girls_toilet_nonfunctional"}},{"type":"Feature","geometry":{"type":"Point","coordinates":[77.68565,19.59466]},"properties":{"udise":"27141311421","name":"N.P. UPP PRI URDU SCHOOL RAMNAGAR, UMARKHED","state":"MAHARASHTRA","district":"YAVATMAL","block":"UMARKHED","indicator":"girls_toilet_nonfunctional"}},{"type":"Feature","geometry":{"type":"Point","coordinates":[77.54389,19.81988]},"properties":{"udise":"27141107403","name":"Z.P. PRI SCH PIMPALDARA","state":"MAHARASHTRA","district":"YAVATMAL","block":"PUSAD","indicator":"girls_toilet_nonfunctional"}},{"type":"Feature","geometry":{"type":"Point","coordinates":[77.52893,19.71515]},"properties":{"udise":"27141308801","name":"Z. P.UPP  PRI. SCHOOL, PIMPALDARI","state":"MAHARASHTRA","district":"YAVATMAL","block":"UMARKHED","indicator":"girls_toilet_nonfunctional"}},{"type":"Feature","geometry":{"type":"Point","coordinates":[77.83167,19.64807]},"properties":{"udise":"27141308205","name":"Z.P. PRI SCH CHINCHWADI","state":"MAHARASHTRA","district":"YAVATMAL","block":"UMARKHED","indicator":"girls_toilet_nonfunctional"}},{"type":"Feature","geometry":{"type":"Point","coordinates":[78.34557,20.01737]},"properties":{"udise":"27140509701","name":"Z. P.  PRI   SCHOOL, SONKHAS","state":"MAHARASHTRA","district":"YAVATMAL","block":"GHATANJI","indicator":"girls_toilet_nonfunctional"}},{"type":"Feature","geometry":{"type":"Point","coordinates":[77.41851,19.81993]},"properties":{"udise":"27141106801","name":"Z. P. UPP PRI SCHOOL, JAWALA","state":"MAHARASHTRA","district":"YAVATMAL","block":"PUSAD","indicator":"girls_toilet_nonfunctional"}},{"type":"Feature","geometry":{"type":"Point","coordinates":[78.33679,19.88941]},"properties":{"udise":"27140510002","name":"Z. P.  PRI  SCHOOL DHAMANDARI, SAWANGI","state":"MAHARASHTRA","district":"YAVATMAL","block":"GHATANJI","indicator":"girls_toilet_nonfunctional"}},{"type":"Feature","geometry":{"type":"Point","coordinates":[78.54511,20.16979]},"properties":{"udise":"27141003901","name":"Z. P. PRI SCHOOL JIRA, JIRA","state":"MAHARASHTRA","district":"YAVATMAL","block":"PANDHARKAWADA","indicator":"girls_toilet_nonfunctional"}},{"type":"Feature","geometry":{"type":"Point","coordinates":[78.65036,19.96801]},"properties":{"udise":"27141608401","name":"Z. P. PRI. SCHOOL, PALGAON","state":"MAHARASHTRA","district":"YAVATMAL","block":"ZARI","indicator":"girls_toilet_nonfunctional"}},{"type":"Feature","geometry":{"type":"Point","coordinates":[77.41157,19.80504]},"properties":{"udise":"27141106501","name":"Z. P. PRI SCHOOL, JAMBNAIK - 2","state":"MAHARASHTRA","district":"YAVATMAL","block":"PUSAD","indicator":"girls_toilet_nonfunctional"}},{"type":"Feature","geometry":{"type":"Point","coordinates":[78.20657,20.11733]},"properties":{"udise":"27140511001","name":"Z. P. UPP  PRI   SCHOOL, TIVASALA","state":"MAHARASHTRA","district":"YAVATMAL","block":"GHATANJI","indicator":"girls_toilet_nonfunctional"}},{"type":"Feature","geometry":{"type":"Point","coordinates":[78.65852,19.8568]},"properties":{"udise":"27141607601","name":"Z. P. PRI. SCHOOL, MUDHATI","state":"MAHARASHTRA","district":"YAVATMAL","block":"ZARI","indicator":"girls_toilet_nonfunctional"}},{"type":"Feature","geometry":{"type":"Point","coordinates":[77.57568,19.87554]},"properties":{"udise":"27141101402","name":"Z.P SCH RAJANNAGAR,, BORGADI","state":"MAHARASHTRA","district":"YAVATMAL","block":"PUSAD","indicator":"girls_toilet_nonfunctional"}},{"type":"Feature","geometry":{"type":"Point","coordinates":[77.31609,19.89445]},"properties":{"udise":"27141101601","name":"Z. P.PRI SCHOOL, BELORA (KH)","state":"MAHARASHTRA","district":"YAVATMAL","block":"PUSAD","indicator":"girls_toilet_nonfunctional"}},{"type":"Feature","geometry":{"type":"Point","coordinates":[77.55723,19.91209]},"properties":{"udise":"27141112806","name":"Z.P. URDU PRI SCH RAMRAHIM NAGAR","state":"MAHARASHTRA","district":"YAVATMAL","block":"PUSAD","indicator":"girls_toilet_nonfunctional"}},{"type":"Feature","geometry":{"type":"Point","coordinates":[77.67956,20.19376]},"properties":{"udise":"27140402401","name":"Z. P. PRI. SCHOOL,GANDHINAGAR","state":"MAHARASHTRA","district":"YAVATMAL","block":"DIGRAS","indicator":"girls_toilet_nonfunctional"}},{"type":"Feature","geometry":{"type":"Point","coordinates":[77.88182,19.6744]},"properties":{"udise":"27141308101","name":"Z. P. PRI. SCHOOL, NARALI TANDA","state":"MAHARASHTRA","district":"YAVATMAL","block":"UMARKHED","indicator":"girls_toilet_nonfunctional"}},{"type":"Feature","geometry":{"type":"Point","coordinates":[78.96354,20.13472]},"properties":{"udise":"27141415001","name":"Z. P. PRI. SCHOOL, WADGAON TIP","state":"MAHARASHTRA","district":"YAVATMAL","block":"WANI","indicator":"girls_toilet_nonfunctional"}},{"type":"Feature","geometry":{"type":"Point","coordinates":[77.41408,19.84598]},"properties":{"udise":"27141107501","name":"Z. P.UPP PRI  SCHOOL,KHAIRKHEDA","state":"MAHARASHTRA","district":"YAVATMAL","block":"PUSAD","indicator":"girls_toilet_nonfunctional"}},{"type":"Feature","geometry":{"type":"Point","coordinates":[77.9563,20.14821]},"properties":{"udise":"27140104602","name":"Z. P. PRI. SCHOOL (GIRLS),JAWALA","state":"MAHARASHTRA","district":"YAVATMAL","block":"ARNI","indicator":"girls_toilet_nonfunctional"}},{"type":"Feature","geometry":{"type":"Point","coordinates":[77.55717,19.91211]},"properties":{"udise":"27141112805","name":"Z.P. PRI SCH RAMRAHIM NAGAR","state":"MAHARASHTRA","district":"YAVATMAL","block":"PUSAD","indicator":"girls_toilet_nonfunctional"}},{"type":"Feature","geometry":{"type":"Point","coordinates":[77.66987,20.21493]},"properties":{"udise":"27140400301","name":"Z. P.  PRI. SCHOOL,ANANDWADI","state":"MAHARASHTRA","district":"YAVATMAL","block":"DIGRAS","indicator":"girls_toilet_nonfunctional"}},{"type":"Feature","geometry":{"type":"Point","coordinates":[77.69902,19.95422]},"properties":{"udise":"27140709701","name":"Z P PRI. SCHOOL, WAKAD","state":"MAHARASHTRA","district":"YAVATMAL","block":"MAHAGAON","indicator":"girls_toilet_nonfunctional"}},{"type":"Feature","geometry":{"type":"Point","coordinates":[77.56421,19.87935]},"properties":{"udise":"27141101101","name":"Z. P.PRI  SCHOOL, BORI (M)","state":"MAHARASHTRA","district":"YAVATMAL","block":"PUSAD","indicator":"girls_toilet_nonfunctional"}},{"type":"Feature","geometry":{"type":"Point","coordinates":[78.76719,19.92308]},"properties":{"udise":"27141611701","name":"Z. P. UPP  PRI. SCHOOL, WADHONA BANDI","state":"MAHARASHTRA","district":"YAVATMAL","block":"ZARI","indicator":"girls_toilet_nonfunctional"}},{"type":"Feature","geometry":{"type":"Point","coordinates":[78.49121,19.99865]},"properties":{"udise":"27141008701","name":"Z  P PRI SCHOOL , PAHAPAL","state":"MAHARASHTRA","district":"YAVATMAL","block":"PANDHARKAWADA","indicator":"girls_toilet_nonfunctional"}},{"type":"Feature","geometry":{"type":"Point","coordinates":[78.80252,20.20022]},"properties":{"udise":"27140809101","name":"Z.P. PRI.SCHOOL, RAMESHWAR","state":"MAHARASHTRA","district":"YAVATMAL","block":"MAREGAON","indicator":"girls_toilet_nonfunctional"}},{"type":"Feature","geometry":{"type":"Point","coordinates":[77.92148,20.24981]},"properties":{"udise":"27140314101","name":"Z. P. UPP PRI  SCHOOL, WAGAD (K)","state":"MAHARASHTRA","district":"YAVATMAL","block":"DARWHA","indicator":"girls_toilet_nonfunctional"}},{"type":"Feature","geometry":{"type":"Point","coordinates":[78.61224,19.84154]},"properties":{"udise":"27141611301","name":"Z. P. UPP  PRI. SCHOOL, TAKLI","state":"MAHARASHTRA","district":"YAVATMAL","block":"ZARI","indicator":"girls_toilet_nonfunctional"}},{"type":"Feature","geometry":{"type":"Point","coordinates":[78.00545,19.52946]},"properties":{"udise":"27141307201","name":"Z. P. PRI. SCHOOL, MATHURANAGAR","state":"MAHARASHTRA","district":"YAVATMAL","block":"UMARKHED","indicator":"girls_toilet_nonfunctional"}},{"type":"Feature","geometry":{"type":"Point","coordinates":[78.58324,19.87336]},"properties":{"udise":"27141606801","name":"Z.P. UPP. PRIMARY SCHOOL, MANDAVI","state":"MAHARASHTRA","district":"YAVATMAL","block":"ZARI","indicator":"girls_toilet_nonfunctional"}},{"type":"Feature","geometry":{"type":"Point","coordinates":[78.61245,19.84148]},"properties":{"udise":"27141602501","name":"Z. P. UPP  PRI. SCHOOL, DABHA","state":"MAHARASHTRA","district":"YAVATMAL","block":"ZARI","indicator":"girls_toilet_nonfunctional"}},{"type":"Feature","geometry":{"type":"Point","coordinates":[77.64372,20.33123]},"properties":{"udise":"27140313101","name":"Z. P. PRI  SCHOOL, TELGAVAN","state":"MAHARASHTRA","district":"YAVATMAL","block":"DARWHA","indicator":"girls_toilet_nonfunctional"}},{"type":"Feature","geometry":{"type":"Point","coordinates":[77.4696,19.80599]},"properties":{"udise":"27141112101","name":"Z. P. PRI  SCHOOL, PHULWADI","state":"MAHARASHTRA","district":"YAVATMAL","block":"PUSAD","indicator":"girls_toilet_nonfunctional"}},{"type":"Feature","geometry":{"type":"Point","coordinates":[77.58937,19.87455]},"properties":{"udise":"27141107901","name":"Z. P.UPP PRI SCHOOL, KOPARA (BK)","state":"MAHARASHTRA","district":"YAVATMAL","block":"PUSAD","indicator":"girls_toilet_nonfunctional"}},{"type":"Feature","geometry":{"type":"Point","coordinates":[77.76626,19.94707]},"properties":{"udise":"27140702802","name":"Z.P. PRI SCH BARGEWADI,GHONSARA","state":"MAHARASHTRA","district":"YAVATMAL","block":"MAHAGAON","indicator":"girls_toilet_nonfunctional"}},{"type":"Feature","geometry":{"type":"Point","coordinates":[77.88085,20.06379]},"properties":{"udise":"27140107501","name":"Z. P. PRI. SCHOOL,LINGEE","state":"MAHARASHTRA","district":"YAVATMAL","block":"ARNI","indicator":"girls_toilet_nonfunctional"}},{"type":"Feature","geometry":{"type":"Point","coordinates":[77.65878,20.43835]},"properties":{"udise":"27140307804","name":"Z. P. HIGH SCHOOL, LOHI","state":"MAHARASHTRA","district":"YAVATMAL","block":"DARWHA","indicator":"girls_toilet_nonfunctional"}},{"type":"Feature","geometry":{"type":"Point","coordinates":[77.54483,19.781]},"properties":{"udise":"27141108602","name":"Z.P.PRI  SCH LONWADI","state":"MAHARASHTRA","district":"YAVATMAL","block":"PUSAD","indicator":"girls_toilet_nonfunctional"}},{"type":"Feature","geometry":{"type":"Point","coordinates":[78.72356,20.01446]},"properties":{"udise":"27141600601","name":"Z. P. PRI. SCHOOL, AMBEZARI (I)","state":"MAHARASHTRA","district":"YAVATMAL","block":"ZARI","indicator":"girls_toilet_nonfunctional"}},{"type":"Feature","geometry":{"type":"Point","coordinates":[78.75717,19.80051]},"properties":{"udise":"27141606301","name":"Z. P. UPP PRI. SCHOOL, LINGTI","state":"MAHARASHTRA","district":"YAVATMAL","block":"ZARI","indicator":"girls_toilet_nonfunctional"}},{"type":"Feature","geometry":{"type":"Point","coordinates":[78.95233,20.05702]},"properties":{"udise":"27141403501","name":"Z. P. PRI. SCHOOL, DORLI","state":"MAHARASHTRA","district":"YAVATMAL","block":"WANI","indicator":"girls_toilet_nonfunctional"}},{"type":"Feature","geometry":{"type":"Point","coordinates":[77.32122,19.94413]},"properties":{"udise":"27141101704","name":"Z.P. PRI SCH ASOLA","state":"MAHARASHTRA","district":"YAVATMAL","block":"PUSAD","indicator":"girls_toilet_nonfunctional"}},{"type":"Feature","geometry":{"type":"Point","coordinates":[77.6243,19.63033]},"properties":{"udise":"27141300801","name":"Z. P UPP PRI. SCHOOL, BARA","state":"MAHARASHTRA","district":"YAVATMAL","block":"UMARKHED","indicator":"girls_toilet_nonfunctional"}},{"type":"Feature","geometry":{"type":"Point","coordinates":[78.7952,20.15006]},"properties":{"udise":"27140801001","name":"Z. P. PRI. SCHOOL, BORI (KH)","state":"MAHARASHTRA","district":"YAVATMAL","block":"MAREGAON","indicator":"girls_toilet_nonfunctional"}},{"type":"Feature","geometry":{"type":"Point","coordinates":[77.53393,19.91817]},"properties":{"udise":"27141108201","name":"Z. P. UPP PRI  SCHOOL, KAWADIPUR","state":"MAHARASHTRA","district":"YAVATMAL","block":"PUSAD","indicator":"girls_toilet_nonfunctional"}},{"type":"Feature","geometry":{"type":"Point","coordinates":[78.46548,20.31224]},"properties":{"udise":"27140610201","name":"Z. P. UPP. PRI. SCHOOL, PIMPALSHENDA","state":"MAHARASHTRA","district":"YAVATMAL","block":"KALAMB","indicator":"girls_toilet_nonfunctional"}},{"type":"Feature","geometry":{"type":"Point","coordinates":[77.48063,19.72552]},"properties":{"udise":"27141112908","name":"Z. P. PRI SCH HIWALANI PAL NEW","state":"MAHARASHTRA","district":"YAVATMAL","block":"PUSAD","indicator":"girls_toilet_nonfunctional"}},{"type":"Feature","geometry":{"type":"Point","coordinates":[77.75139,19.56673]},"properties":{"udise":"27141311602","name":"Z. P. URDU PRI. SCHOOL, VIDUL","state":"MAHARASHTRA","district":"YAVATMAL","block":"UMARKHED","indicator":"girls_toilet_nonfunctional"}},{"type":"Feature","geometry":{"type":"Point","coordinates":[78.19642,20.17417]},"properties":{"udise":"27141511301","name":"Z. P. UPP PRI. SCHOOL, WARZADI","state":"MAHARASHTRA","district":"YAVATMAL","block":"YAVATMAL","indicator":"girls_toilet_nonfunctional"}},{"type":"Feature","geometry":{"type":"Point","coordinates":[78.79067,19.93177]},"properties":{"udise":"27141612201","name":"Z. P. PRI. SCHOOL, YESAPUR","state":"MAHARASHTRA","district":"YAVATMAL","block":"ZARI","indicator":"girls_toilet_nonfunctional"}},{"type":"Feature","geometry":{"type":"Point","coordinates":[78.41383,20.1021]},"properties":{"udise":"27140512901","name":"Z.P. PRI. MAR. SCHOOL, KOTHA","state":"MAHARASHTRA","district":"YAVATMAL","block":"GHATANJI","indicator":"girls_toilet_nonfunctional"}},{"type":"Feature","geometry":{"type":"Point","coordinates":[77.58959,19.81527]},"properties":{"udise":"27141104901","name":"Z. P. UPP PRI SCHOOL, HARSHI","state":"MAHARASHTRA","district":"YAVATMAL","block":"PUSAD","indicator":"girls_toilet_nonfunctional"}},{"type":"Feature","geometry":{"type":"Point","coordinates":[78.34156,19.90915]},"properties":{"udise":"27140510001","name":"Z. P. UPP  PRI   SCHOOL, SAWANGI","state":"MAHARASHTRA","district":"YAVATMAL","block":"GHATANJI","indicator":"girls_toilet_nonfunctional"}},{"type":"Feature","geometry":{"type":"Point","coordinates":[77.83179,20.01724]},"properties":{"udise":"27140401401","name":"BABNAJI MAH. PRI. SCHOOL,DEHANI","state":"MAHARASHTRA","district":"YAVATMAL","block":"DIGRAS","indicator":"girls_toilet_nonfunctional"}},{"type":"Feature","geometry":{"type":"Point","coordinates":[77.42246,19.84154]},"properties":{"udise":"27141110501","name":"Z. P.UPP PRI  SCHOOL, NANAND (I)","state":"MAHARASHTRA","district":"YAVATMAL","block":"PUSAD","indicator":"girls_toilet_nonfunctional"}},{"type":"Feature","geometry":{"type":"Point","coordinates":[78.64411,20.08359]},"properties":{"udise":"27140804801","name":"Z. P. PRI. SCHOOL, KANHALGAON WAI","state":"MAHARASHTRA","district":"YAVATMAL","block":"MAREGAON","indicator":"girls_toilet_nonfunctional"}},{"type":"Feature","geometry":{"type":"Point","coordinates":[77.89042,19.6214]},"properties":{"udise":"27141311001","name":"Z. P. UPP. PRI. SCHOOL, TEMBHURDARA","state":"MAHARASHTRA","district":"YAVATMAL","block":"UMARKHED","indicator":"girls_toilet_nonfunctional"}},{"type":"Feature","geometry":{"type":"Point","coordinates":[77.50287,19.85038]},"properties":{"udise":"27141109301","name":"Z. P.UPP PRI  SCHOOL,MANIKDOH","state":"MAHARASHTRA","district":"YAVATMAL","block":"PUSAD","indicator":"girls_toilet_nonfunctional"}},{"type":"Feature","geometry":{"type":"Point","coordinates":[79.03591,20.06924]},"properties":{"udise":"27141411501","name":"Z. P. PRI. SCHOOL, PIMPRI (A)","state":"MAHARASHTRA","district":"YAVATMAL","block":"WANI","indicator":"girls_toilet_nonfunctional"}},{"type":"Feature","geometry":{"type":"Point","coordinates":[77.54424,19.88634]},"properties":{"udise":"27141115302","name":"Z.P PRI SCH BHIMNAGAR, KAKADDATI","state":"MAHARASHTRA","district":"YAVATMAL","block":"PUSAD","indicator":"girls_toilet_nonfunctional"}},{"type":"Feature","geometry":{"type":"Point","coordinates":[78.2363,20.174]},"properties":{"udise":"27141512902","name":"Z.P. PRI SCH CHOWKI (ZULI)","state":"MAHARASHTRA","district":"YAVATMAL","block":"YAVATMAL","indicator":"girls_toilet_nonfunctional"}},{"type":"Feature","geometry":{"type":"Point","coordinates":[77.79039,19.92947]},"properties":{"udise":"27140707802","name":"Z. P.PRI SCH SATGHRI TANDA","state":"MAHARASHTRA","district":"YAVATMAL","block":"MAHAGAON","indicator":"girls_toilet_nonfunctional"}},{"type":"Feature","geometry":{"type":"Point","coordinates":[77.95058,19.65858]},"properties":{"udise":"27141304301","name":"Z. P. PRI. SCHOOL, GHAMAPUR","state":"MAHARASHTRA","district":"YAVATMAL","block":"UMARKHED","indicator":"girls_toilet_nonfunctional"}},{"type":"Feature","geometry":{"type":"Point","coordinates":[77.51808,19.86556]},"properties":{"udise":"27141107603","name":"Z.P PRI SCH KARLA OLD","state":"MAHARASHTRA","district":"YAVATMAL","block":"PUSAD","indicator":"girls_toilet_nonfunctional"}},{"type":"Feature","geometry":{"type":"Point","coordinates":[78.16612,19.65143]},"properties":{"udise":"27141310601","name":"Z. P. PRI. SCHOOL, TAKALI (WAN)","state":"MAHARASHTRA","district":"YAVATMAL","block":"UMARKHED","indicator":"girls_toilet_nonfunctional"}},{"type":"Feature","geometry":{"type":"Point","coordinates":[78.01676,20.5949]},"properties":{"udise":"27140201401","name":"Z P UPP PRI SCHOOL, DABHA","state":"MAHARASHTRA","district":"YAVATMAL","block":"BABHULGAON","indicator":"girls_toilet_nonfunctional"}},{"type":"Feature","geometry":{"type":"Point","coordinates":[77.72536,19.72914]},"properties":{"udise":"27140706203","name":"Z.P. PRI SCH TELATWADI,MUDANA","state":"MAHARASHTRA","district":"YAVATMAL","block":"MAHAGAON","indicator":"girls_toilet_nonfunctional"}},{"type":"Feature","geometry":{"type":"Point","coordinates":[77.4678,20.05302]},"properties":{"udise":"27141111502","name":"Z. P. PRI SCHOOL, PARADH (TANDA)","state":"MAHARASHTRA","district":"YAVATMAL","block":"PUSAD","indicator":"girls_toilet_nonfunctional"}},{"type":"Feature","geometry":{"type":"Point","coordinates":[77.80851,20.36856]},"properties":{"udise":"27140310101","name":"Z. P. PRI  SCHOOL, PEKARDA","state":"MAHARASHTRA","district":"YAVATMAL","block":"DARWHA","indicator":"girls_toilet_nonfunctional"}},{"type":"Feature","geometry":{"type":"Point","coordinates":[77.71929,20.06071]},"properties":{"udise":"27140403501","name":"Z. P. PRI. SCHOOL,KOLURA","state":"MAHARASHTRA","district":"YAVATMAL","block":"DIGRAS","indicator":"girls_toilet_nonfunctional"}},{"type":"Feature","geometry":{"type":"Point","coordinates":[78.71046,20.0431]},"properties":{"udise":"27140805901","name":"Z. P. UPP. PRI. SCHOOL, KHANDANI","state":"MAHARASHTRA","district":"YAVATMAL","block":"MAREGAON","indicator":"girls_toilet_nonfunctional"}},{"type":"Feature","geometry":{"type":"Point","coordinates":[77.50408,19.86926]},"properties":{"udise":"27141113701","name":"Z. P. PRI SCHOOL, UPWANWADI","state":"MAHARASHTRA","district":"YAVATMAL","block":"PUSAD","indicator":"girls_toilet_nonfunctional"}},{"type":"Feature","geometry":{"type":"Point","coordinates":[78.12564,20.19264]},"properties":{"udise":"27141509601","name":"Z. P. PRI. SCHOOL, KRISHNAPUR","state":"MAHARASHTRA","district":"YAVATMAL","block":"YAVATMAL","indicator":"girls_toilet_nonfunctional"}},{"type":"Feature","geometry":{"type":"Point","coordinates":[77.73063,20.18698]},"properties":{"udise":"27140405201","name":"Z. P. PRI. SCHOOL,RAMGAON","state":"MAHARASHTRA","district":"YAVATMAL","block":"DIGRAS","indicator":"girls_toilet_nonfunctional"}},{"type":"Feature","geometry":{"type":"Point","coordinates":[78.12358,20.49674]},"properties":{"udise":"27140200701","name":"Z. P. PRIMARY SCHOOL, BHATMARG","state":"MAHARASHTRA","district":"YAVATMAL","block":"BABHULGAON","indicator":"girls_toilet_nonfunctional"}},{"type":"Feature","geometry":{"type":"Point","coordinates":[78.76305,20.26993]},"properties":{"udise":"27141204201","name":"Z.P.UPP.PRI.SCHOOL, KHAIRI","state":"MAHARASHTRA","district":"YAVATMAL","block":"RALEGAON","indicator":"girls_toilet_nonfunctional"}},{"type":"Feature","geometry":{"type":"Point","coordinates":[77.96854,19.66661]},"properties":{"udise":"27141301602","name":"Z. P. PRI SCHOOL BORGAON TANDA","state":"MAHARASHTRA","district":"YAVATMAL","block":"UMARKHED","indicator":"girls_toilet_nonfunctional"}},{"type":"Feature","geometry":{"type":"Point","coordinates":[78.42117,20.13077]},"properties":{"udise":"27140506002","name":"Z. P.  PRI   SCHOOL, MOWADA","state":"MAHARASHTRA","district":"YAVATMAL","block":"GHATANJI","indicator":"girls_toilet_nonfunctional"}},{"type":"Feature","geometry":{"type":"Point","coordinates":[77.67041,20.06516]},"properties":{"udise":"27140406201","name":"Z. P. PRI. SCHOOL,SEVANAGAR","state":"MAHARASHTRA","district":"YAVATMAL","block":"DIGRAS","indicator":"girls_toilet_nonfunctional"}},{"type":"Feature","geometry":{"type":"Point","coordinates":[78.21068,20.14189]},"properties":{"udise":"27140508101","name":"Z. P. UPP  PRI  SCHOOL, PANDHURNA BK","state":"MAHARASHTRA","district":"YAVATMAL","block":"GHATANJI","indicator":"girls_toilet_nonfunctional"}},{"type":"Feature","geometry":{"type":"Point","coordinates":[78.2638,19.93725]},"properties":{"udise":"27140500901","name":"Z. P.  UPP  PRI  SCHOOL, CHIKHALWARDHA","state":"MAHARASHTRA","district":"YAVATMAL","block":"GHATANJI","indicator":"girls_toilet_nonfunctional"}},{"type":"Feature","geometry":{"type":"Point","coordinates":[78.33903,19.99686]},"properties":{"udise":"27140507706","name":"Z. P.  PRI  SCHOOL INDIRA NAGAR, PARWA","state":"MAHARASHTRA","district":"YAVATMAL","block":"GHATANJI","indicator":"girls_toilet_nonfunctional"}},{"type":"Feature","geometry":{"type":"Point","coordinates":[77.94092,20.49099]},"properties":{"udise":"27140910101","name":"Z. P. HIGHER PRIMARY  SCHOOL, SINDKHED","state":"MAHARASHTRA","district":"YAVATMAL","block":"NER","indicator":"girls_toilet_nonfunctional"}},{"type":"Feature","geometry":{"type":"Point","coordinates":[78.13311,19.99782]},"properties":{"udise":"27140105201","name":"Z. P. PRI. SCHOOL,KANIRAM(T)","state":"MAHARASHTRA","district":"YAVATMAL","block":"ARNI","indicator":"girls_toilet_nonfunctional"}},{"type":"Feature","geometry":{"type":"Point","coordinates":[78.83762,20.23153]},"properties":{"udise":"27140806001","name":"Z. P. PRI. SCHOOL, KEGAON","state":"MAHARASHTRA","district":"YAVATMAL","block":"MAREGAON","indicator":"girls_toilet_nonfunctional"}},{"type":"Feature","geometry":{"type":"Point","coordinates":[77.55219,19.88073]},"properties":{"udise":"27141101201","name":"Z. P.UPP PRI SCHOOL,BORI KH","state":"MAHARASHTRA","district":"YAVATMAL","block":"PUSAD","indicator":"girls_toilet_nonfunctional"}},{"type":"Feature","geometry":{"type":"Point","coordinates":[77.66012,19.96622]},"properties":{"udise":"27140704901","name":"Z P. UPP.PRI. SCHOOL,KHAMALWADI","state":"MAHARASHTRA","district":"YAVATMAL","block":"MAHAGAON","indicator":"girls_toilet_nonfunctional"}},{"type":"Feature","geometry":{"type":"Point","coordinates":[77.54705,19.97839]},"properties":{"udise":"27141110702","name":"Z. P. PRI SCH DEVI NAGAR","state":"MAHARASHTRA","district":"YAVATMAL","block":"PUSAD","indicator":"girls_toilet_nonfunctional"}},{"type":"Feature","geometry":{"type":"Point","coordinates":[78.65667,20.40598]},"properties":{"udise":"27141202101","name":"Z.P.   PRI. SCHOOL, DAPORI (KASAR)","state":"MAHARASHTRA","district":"YAVATMAL","block":"RALEGAON","indicator":"girls_toilet_nonfunctional"}},{"type":"Feature","geometry":{"type":"Point","coordinates":[77.74971,20.365]},"properties":{"udise":"27140304902","name":"Z. P.PRI  SCHOOL, GHATKINHI","state":"MAHARASHTRA","district":"YAVATMAL","block":"DARWHA","indicator":"girls_toilet_nonfunctional"}},{"type":"Feature","geometry":{"type":"Point","coordinates":[77.58318,19.95997]},"properties":{"udise":"27141100101","name":"Z. P. PRI. SCHOOL ASHWINIPUR","state":"MAHARASHTRA","district":"YAVATMAL","block":"PUSAD","indicator":"girls_toilet_nonfunctional"}},{"type":"Feature","geometry":{"type":"Point","coordinates":[77.55364,19.99059]},"properties":{"udise":"27141101901","name":"Z. P.UPP PRI  SCHOOL, BAJARANGNAGAR","state":"MAHARASHTRA","district":"YAVATMAL","block":"PUSAD","indicator":"girls_toilet_nonfunctional"}},{"type":"Feature","geometry":{"type":"Point","coordinates":[77.85749,20.03641]},"properties":{"udise":"27140407301","name":"Z. P. PRI. SCHOOL,WADGAON(D)","state":"MAHARASHTRA","district":"YAVATMAL","block":"DIGRAS","indicator":"girls_toilet_nonfunctional"}},{"type":"Feature","geometry":{"type":"Point","coordinates":[78.79344,19.94882]},"properties":{"udise":"27141611801","name":"Z. P. PRI. SCHOOL, WALHASA","state":"MAHARASHTRA","district":"YAVATMAL","block":"ZARI","indicator":"girls_toilet_nonfunctional"}},{"type":"Feature","geometry":{"type":"Point","coordinates":[78.1868,20.52813]},"properties":{"udise":"27140206001","name":"Z P UPP PRI SCHOOL, PIMPARI","state":"MAHARASHTRA","district":"YAVATMAL","block":"BABHULGAON","indicator":"girls_toilet_nonfunctional"}},{"type":"Feature","geometry":{"type":"Point","coordinates":[78.48821,20.26856]},"properties":{"udise":"27140606201","name":"Z. P. PRI. SCHOOL, KINWAT","state":"MAHARASHTRA","district":"YAVATMAL","block":"KALAMB","indicator":"girls_toilet_nonfunctional"}},{"type":"Feature","geometry":{"type":"Point","coordinates":[78.70387,19.87135]},"properties":{"udise":"27141605801","name":"Z. P. PRI. SCHOOL, KODAPA KHIND","state":"MAHARASHTRA","district":"YAVATMAL","block":"ZARI","indicator":"girls_toilet_nonfunctional"}},{"type":"Feature","geometry":{"type":"Point","coordinates":[78.69196,20.31094]},"properties":{"udise":"27141201301","name":"Z.P.UPP.PRI.SCHOOL, CHAHAND","state":"MAHARASHTRA","district":"YAVATMAL","block":"RALEGAON","indicator":"girls_toilet_nonfunctional"}},{"type":"Feature","geometry":{"type":"Point","coordinates":[78.60188,20.3934]},"properties":{"udise":"27141200301","name":"Z.P.PRI.SCHOOL, ANTARGAON","state":"MAHARASHTRA","district":"YAVATMAL","block":"RALEGAON","indicator":"girls_toilet_nonfunctional"}},{"type":"Feature","geometry":{"type":"Point","coordinates":[78.43289,20.2239]},"properties":{"udise":"27140607401","name":"Z. P. PRI. SCHOOL, MARKANDA","state":"MAHARASHTRA","district":"YAVATMAL","block":"KALAMB","indicator":"girls_toilet_nonfunctional"}}]}