{"type":"FeatureCollection","features":[{"type":"Feature","geometry":{"type":"Point","coordinates":[87.78067,24.17312]},"properties":{"udise":"19082401601","name":"RAMPURHAT HIGH SCHOOL","state":"WEST BENGAL","district":"BIRBHUM","block":"RAMPURHAT MUNICIPALITY","indicator":"no_girls_toilet"}},{"type":"Feature","geometry":{"type":"Point","coordinates":[87.52409,23.91211]},"properties":{"udise":"19082100103","name":"SURI BENIMADHAB INSTITUTION(HS)","state":"WEST BENGAL","district":"BIRBHUM","block":"SURI MUNICIPALITY","indicator":"no_girls_toilet"}},{"type":"Feature","geometry":{"type":"Point","coordinates":[89.46572,26.3138]},"properties":{"udise":"19030813201","name":"COOCH BEHAR UCHCHAMADHYAMIK VIDYALAYA","state":"WEST BENGAL","district":"COOCHBEHAR","block":"COOCH BEHAR-I","indicator":"no_girls_toilet"}},{"type":"Feature","geometry":{"type":"Point","coordinates":[89.44894,26.31974]},"properties":{"udise":"19031701701","name":"MAHARAJA NRIPENDRA NARAYAN HIGH SCHOOL","state":"WEST BENGAL","district":"COOCHBEHAR","block":"COOCH BEHAR MUNICIPALITY","indicator":"no_girls_toilet"}},{"type":"Feature","geometry":{"type":"Point","coordinates":[88.26627,27.04166]},"properties":{"udise":"19013701002","name":"TURNBULL H S SCHOOL","state":"WEST BENGAL","district":"DARJILING","block":"DARJEELING MUNICIPALITY","indicator":"no_girls_toilet"}},{"type":"Feature","geometry":{"type":"Point","coordinates":[88.26521,27.03819]},"properties":{"udise":"19013701001","name":"TURNBULL PRIMARY SCHOOL","state":"WEST BENGAL","district":"DARJILING","block":"DARJEELING MUNICIPALITY","indicator":"no_girls_toilet"}},{"type":"Feature","geometry":{"type":"Point","coordinates":[88.3619,22.8617]},"properties":{"udise":"19122301406","name":"ECOLE DOURGA","state":"WEST BENGAL","district":"HOOGHLY","block":"CHANDANNAGORE CORPORATION","indicator":"no_girls_toilet"}},{"type":"Feature","geometry":{"type":"Point","coordinates":[88.36442,22.87236]},"properties":{"udise":"19122300801","name":"NARUA SIKSHA NIKETAN","state":"WEST BENGAL","district":"HOOGHLY","block":"CHANDANNAGORE CORPORATION","indicator":"no_girls_toilet"}},{"type":"Feature","geometry":{"type":"Point","coordinates":[88.34612,22.74975]},"properties":{"udise":"19122700903","name":"BALLAVPUR HIGH SCHOOL","state":"WEST BENGAL","district":"HOOGHLY","block":"SERAMPORE  MUNICIPALITY","indicator":"no_girls_toilet"}},{"type":"Feature","geometry":{"type":"Point","coordinates":[88.46851,23.09712]},"properties":{"udise":"19121411402","name":"JIRAT COLONY HIGH SCHOOL","state":"WEST BENGAL","district":"HOOGHLY","block":"BALAGARH","indicator":"no_girls_toilet"}},{"type":"Feature","geometry":{"type":"Point","coordinates":[88.34113,22.80716]},"properties":{"udise":"19122501905","name":"CHAMPDANI ADARSHA SHRAMIK VIDYAMANDIR","state":"WEST BENGAL","district":"HOOGHLY","block":"CHAMPDANI  MUNICIPALITY","indicator":"no_girls_toilet"}},{"type":"Feature","geometry":{"type":"Point","coordinates":[88.1,22.84]},"properties":{"udise":"19120907403","name":"KAIKALA BARODEANIA JR HIGH MADRASAH","state":"WEST BENGAL","district":"HOOGHLY","block":"HARIPAL","indicator":"no_girls_toilet"}},{"type":"Feature","geometry":{"type":"Point","coordinates":[88.32859,22.57845]},"properties":{"udise":"19161502804","name":"RAMKRISHNAPUR HIGH ATTD PRY SC","state":"WEST BENGAL","district":"HOWRAH","block":"HOWRAH MUNICIPAL CORPORATION","indicator":"no_girls_toilet"}},{"type":"Feature","geometry":{"type":"Point","coordinates":[88.29218,22.5775]},"properties":{"udise":"19161504117","name":"BAXARAH  HIGH SCHOOL","state":"WEST BENGAL","district":"HOWRAH","block":"HOWRAH MUNICIPAL CORPORATION","indicator":"no_girls_toilet"}},{"type":"Feature","geometry":{"type":"Point","coordinates":[86.82777,22.62919]},"properties":{"udise":"19230406703","name":"SILDA RADHA CHARAN INSTITUTION (HS) U PRY","state":"WEST BENGAL","district":"JHARGRAM","block":"BINPUR-2","indicator":"no_girls_toilet"}},{"type":"Feature","geometry":{"type":"Point","coordinates":[86.99822,22.44142]},"properties":{"udise":"19230801001","name":"JHARGRAM KUMUD KUMARI INSTITUTION U. PRY.","state":"WEST BENGAL","district":"JHARGRAM","block":"JHARGRAM(MN)","indicator":"no_girls_toilet"}},{"type":"Feature","geometry":{"type":"Point","coordinates":[88.34552,22.51164]},"properties":{"udise":"19170109110","name":"DESHAPRAN BIRENDRANATH INSTITUTION FOR BOYS","state":"WEST BENGAL","district":"KOLKATA","block":"KOLKATA MUNICIPAL CORPORATION","indicator":"no_girls_toilet"}},{"type":"Feature","geometry":{"type":"Point","coordinates":[88.367,22.5379]},"properties":{"udise":"19170106816","name":"A.K.FAZLUL HUQ K.M.C.SCH(D)","state":"WEST BENGAL","district":"KOLKATA","block":"KOLKATA MUNICIPAL CORPORATION","indicator":"no_girls_toilet"}},{"type":"Feature","geometry":{"type":"Point","coordinates":[88.3571,22.5768]},"properties":{"udise":"19170104608","name":"K.M.C.12,BOLAIDUTTA STREET","state":"WEST BENGAL","district":"KOLKATA","block":"KOLKATA MUNICIPAL CORPORATION","indicator":"no_girls_toilet"}},{"type":"Feature","geometry":{"type":"Point","coordinates":[88.36413,22.48279]},"properties":{"udise":"19170110216","name":"BANI BHABAN HIGH SCHOOL","state":"WEST BENGAL","district":"KOLKATA","block":"KOLKATA MUNICIPAL CORPORATION","indicator":"no_girls_toilet"}},{"type":"Feature","geometry":{"type":"Point","coordinates":[88.3646,22.57378]},"properties":{"udise":"19170104028","name":"MITRA INSTITUTION (MAIN)","state":"WEST BENGAL","district":"KOLKATA","block":"KOLKATA MUNICIPAL CORPORATION","indicator":"no_girls_toilet"}},{"type":"Feature","geometry":{"type":"Point","coordinates":[88.3711,23.4269]},"properties":{"udise":"19101802110","name":"3 NO SSK","state":"WEST BENGAL","district":"NADIA","block":"NABADWIP MUNICIPALITY ","indicator":"no_girls_toilet"}},{"type":"Feature","geometry":{"type":"Point","coordinates":[88.56302,23.17802]},"properties":{"udise":"19102000705","name":"RANAGHAT P.C HIGH SCHOOL","state":"WEST BENGAL","district":"NADIA","block":"RANAGHAT MUNICIPALITY","indicator":"no_girls_toilet"}},{"type":"Feature","geometry":{"type":"Point","coordinates":[88.38026,22.63118]},"properties":{"udise":"19114102303","name":"SINTHI R.B.T. VIDYAPITH","state":"WEST BENGAL","district":"NORTH TWENTY FOUR PARGANAS","block":"BARANAGAR MUNICIPALITY","indicator":"no_girls_toilet"}},{"type":"Feature","geometry":{"type":"Point","coordinates":[88.40619,22.67235]},"properties":{"udise":"19114300903","name":"SHYAMAPROSAD HIGH SCHOOL(H.S)","state":"WEST BENGAL","district":"NORTH TWENTY FOUR PARGANAS","block":"NORTH DUM DUM MUNICIPALITY","indicator":"no_girls_toilet"}},{"type":"Feature","geometry":{"type":"Point","coordinates":[87.07785,23.70746]},"properties":{"udise":"19261005502","name":"JAMURIA HINDI HIGH SCHOOL","state":"WEST BENGAL","district":"PASCHIM BARDHAMAN","block":"ASANSOL MUNICIPAL CORPORATION","indicator":"no_girls_toilet"}},{"type":"Feature","geometry":{"type":"Point","coordinates":[87.01947,23.74342]},"properties":{"udise":"19260203401","name":"DOMOHANI KELEJORA HIGH SCHOOL(H.S)","state":"WEST BENGAL","district":"PASCHIM BARDHAMAN","block":"BARABANI","indicator":"no_girls_toilet"}},{"type":"Feature","geometry":{"type":"Point","coordinates":[87.3335,22.4187]},"properties":{"udise":"19203000909","name":"RUDRABINA SSP","state":"WEST BENGAL","district":"PASCHIM MEDINIPUR","block":"MIDNAPORE(MN)","indicator":"no_girls_toilet"}},{"type":"Feature","geometry":{"type":"Point","coordinates":[87.3262,22.4163]},"properties":{"udise":"19203000804","name":"KAZI NAZRUL SSP","state":"WEST BENGAL","district":"PASCHIM MEDINIPUR","block":"MIDNAPORE(MN)","indicator":"no_girls_toilet"}},{"type":"Feature","geometry":{"type":"Point","coordinates":[87.7089,22.3857]},"properties":{"udise":"19193101703","name":"PASCHIM KOLLA SSP","state":"WEST BENGAL","district":"PURBA MEDINIPUR","block":"PANSKURA MUNICIPALITY","indicator":"no_girls_toilet"}},{"type":"Feature","geometry":{"type":"Point","coordinates":[87.7426,22.3895]},"properties":{"udise":"19193100801","name":"BAHARGRAM SSP","state":"WEST BENGAL","district":"PURBA MEDINIPUR","block":"PANSKURA MUNICIPALITY","indicator":"no_girls_toilet"}},{"type":"Feature","geometry":{"type":"Point","coordinates":[87.73,22.3746]},"properties":{"udise":"19193101501","name":"GARHPURUSOTTAMPUR SSP","state":"WEST BENGAL","district":"PURBA MEDINIPUR","block":"PANSKURA MUNICIPALITY","indicator":"no_girls_toilet"}},{"type":"Feature","geometry":{"type":"Point","coordinates":[87.9226,22.2736]},"properties":{"udise":"19192700302","name":"DESHAPRAN BIRENDRANATH SASMAL SSP","state":"WEST BENGAL","district":"PURBA MEDINIPUR","block":"TAMLUK MUNICIPALITY","indicator":"no_girls_toilet"}},{"type":"Feature","geometry":{"type":"Point","coordinates":[87.7338,22.3827]},"properties":{"udise":"19193101601","name":"BELUN SSP","state":"WEST BENGAL","district":"PURBA MEDINIPUR","block":"PANSKURA MUNICIPALITY","indicator":"no_girls_toilet"}},{"type":"Feature","geometry":{"type":"Point","coordinates":[87.9084,22.3045]},"properties":{"udise":"19192700409","name":"BIRANGANA MATANGINI HAZRA SSP","state":"WEST BENGAL","district":"PURBA MEDINIPUR","block":"TAMLUK MUNICIPALITY","indicator":"no_girls_toilet"}},{"type":"Feature","geometry":{"type":"Point","coordinates":[87.7563,22.3676]},"properties":{"udise":"19193101108","name":"MADAN MOHANPUR SSP","state":"WEST BENGAL","district":"PURBA MEDINIPUR","block":"PANSKURA MUNICIPALITY","indicator":"no_girls_toilet"}},{"type":"Feature","geometry":{"type":"Point","coordinates":[87.7266,22.3995]},"properties":{"udise":"19193100101","name":"KIFAITCHAK SSP","state":"WEST BENGAL","district":"PURBA MEDINIPUR","block":"PANSKURA MUNICIPALITY","indicator":"no_girls_toilet"}},{"type":"Feature","geometry":{"type":"Point","coordinates":[86.75342,23.2271]},"properties":{"udise":"19141509703","name":"CHANDANPUR PRY","state":"WEST BENGAL","district":"PURULIYA","block":"PUNCHA","indicator":"no_girls_toilet"}},{"type":"Feature","geometry":{"type":"Point","coordinates":[88.40275,22.466]},"properties":{"udise":"19183600504","name":"TENTULBERIA A CHANDRA HS","state":"WEST BENGAL","district":"SOUTH TWENTY FOUR PARGANAS","block":"RAJPUR SONARPUR MUNICIPALITY","indicator":"no_girls_toilet"}},{"type":"Feature","geometry":{"type":"Point","coordinates":[88.26672,22.48959]},"properties":{"udise":"19183401506","name":"GANIPUR HIGH SCHOOL","state":"WEST BENGAL","district":"SOUTH TWENTY FOUR PARGANAS","block":"MAHESHTALA MUNICIPALITY","indicator":"no_girls_toilet"}},{"type":"Feature","geometry":{"type":"Point","coordinates":[88.22128,22.50744]},"properties":{"udise":"19183403203","name":"NANGI HIGH SCHOOL","state":"WEST BENGAL","district":"SOUTH TWENTY FOUR PARGANAS","block":"MAHESHTALA MUNICIPALITY","indicator":"no_girls_toilet"}},{"type":"Feature","geometry":{"type":"Point","coordinates":[88.21218,22.45301]},"properties":{"udise":"19180707202","name":"RAJARAMPUR VIVEKANANDA VIDYAMANDIR","state":"WEST BENGAL","district":"SOUTH TWENTY FOUR PARGANAS","block":"BUDGE BUDGE - 1","indicator":"no_girls_toilet"}},{"type":"Feature","geometry":{"type":"Point","coordinates":[88.40437,22.38514]},"properties":{"udise":"19182806102","name":"LANGALBERIA SURATH SMRITI  BIDYAMANDIR (H.S)","state":"WEST BENGAL","district":"SOUTH TWENTY FOUR PARGANAS","block":"SONARPUR","indicator":"no_girls_toilet"}}]}