{"type":"FeatureCollection","features":[{"type":"Feature","geometry":{"type":"Point","coordinates":[76.6375,31.315]},"properties":{"udise":"02080305902","name":"GHS BUHAR","state":"HIMACHAL PRADESH","district":"BILASPUR (H.P.)","block":"JHANDUTTA","indicator":"no_girls_toilet"}},{"type":"Feature","geometry":{"type":"Point","coordinates":[76.65028,31.31056]},"properties":{"udise":"02080306802","name":"GMS SILWIN","state":"HIMACHAL PRADESH","district":"BILASPUR (H.P.)","block":"JHANDUTTA","indicator":"no_girls_toilet"}},{"type":"Feature","geometry":{"type":"Point","coordinates":[76.74889,31.36722]},"properties":{"udise":"02080101901","name":"GPS CHANDPUR","state":"HIMACHAL PRADESH","district":"BILASPUR (H.P.)","block":"SADAR","indicator":"girls_toilet_nonfunctional"}},{"type":"Feature","geometry":{"type":"Point","coordinates":[76.7025,31.38722]},"properties":{"udise":"02080515001","name":"GPS BIJAYPUR","state":"HIMACHAL PRADESH","district":"BILASPUR (H.P.)","block":"GHUMARWIN-II","indicator":"girls_toilet_nonfunctional"}},{"type":"Feature","geometry":{"type":"Point","coordinates":[76.56722,31.38528]},"properties":{"udise":"02080302604","name":"GSSS BHERI","state":"HIMACHAL PRADESH","district":"BILASPUR (H.P.)","block":"JHANDUTTA","indicator":"girls_toilet_nonfunctional"}},{"type":"Feature","geometry":{"type":"Point","coordinates":[76.81194,31.26611]},"properties":{"udise":"02080118802","name":"GPS BRAHAMPUKHAR","state":"HIMACHAL PRADESH","district":"BILASPUR (H.P.)","block":"SADAR","indicator":"girls_toilet_nonfunctional"}},{"type":"Feature","geometry":{"type":"Point","coordinates":[76.25667,32.60694]},"properties":{"udise":"02010307801","name":"GPS HENTHA","state":"HIMACHAL PRADESH","district":"CHAMBA","block":"CHAMBA","indicator":"girls_toilet_nonfunctional"}},{"type":"Feature","geometry":{"type":"Point","coordinates":[75.87806,32.87139]},"properties":{"udise":"02011004401","name":"GPS LANGERA","state":"HIMACHAL PRADESH","district":"CHAMBA","block":"SALOONI","indicator":"girls_toilet_nonfunctional"}},{"type":"Feature","geometry":{"type":"Point","coordinates":[76.24583,32.60889]},"properties":{"udise":"02010300301","name":"GPS PAROTHA","state":"HIMACHAL PRADESH","district":"CHAMBA","block":"CHAMBA","indicator":"girls_toilet_nonfunctional"}},{"type":"Feature","geometry":{"type":"Point","coordinates":[76.20417,31.84611]},"properties":{"udise":"02020403901","name":"GPS NEHRAN PUKHAR","state":"HIMACHAL PRADESH","district":"KANGRA","block":"DADASIBA","indicator":"no_girls_toilet"}},{"type":"Feature","geometry":{"type":"Point","coordinates":[75.88639,32.10639]},"properties":{"udise":"02020708001","name":"GPS REENGH","state":"HIMACHAL PRADESH","district":"KANGRA","block":"FATEHPUR","indicator":"no_girls_toilet"}},{"type":"Feature","geometry":{"type":"Point","coordinates":[76.36944,32.2125]},"properties":{"udise":"02020603102","name":"GPS GHANIARA (G)","state":"HIMACHAL PRADESH","district":"KANGRA","block":"DHARAMSALA","indicator":"no_girls_toilet"}},{"type":"Feature","geometry":{"type":"Point","coordinates":[76.2155,31.5315]},"properties":{"udise":"02020528001","name":"GPS JASER","state":"HIMACHAL PRADESH","district":"KANGRA","block":"KHUNDIAN","indicator":"no_girls_toilet"}},{"type":"Feature","geometry":{"type":"Point","coordinates":[75.83444,32.03417]},"properties":{"udise":"02020803301","name":"GMS DUHAG BAKSHIAN","state":"HIMACHAL PRADESH","district":"KANGRA","block":"INDORA","indicator":"no_girls_toilet"}},{"type":"Feature","geometry":{"type":"Point","coordinates":[76.41944,32.1125]},"properties":{"udise":"02021204801","name":"GPS MALAN","state":"HIMACHAL PRADESH","district":"KANGRA","block":"NAGROTA BAGWAN","indicator":"girls_toilet_nonfunctional"}},{"type":"Feature","geometry":{"type":"Point","coordinates":[77.85444,31.56667]},"properties":{"udise":"02120100201","name":"GPS UPPER CHAURA","state":"HIMACHAL PRADESH","district":"KINNAUR","block":"NICHAR","indicator":"no_girls_toilet"}},{"type":"Feature","geometry":{"type":"Point","coordinates":[77.98111,31.55278]},"properties":{"udise":"02120107901","name":"GPS NIGANI","state":"HIMACHAL PRADESH","district":"KINNAUR","block":"NICHAR","indicator":"no_girls_toilet"}},{"type":"Feature","geometry":{"type":"Point","coordinates":[77.44028,31.38528]},"properties":{"udise":"02040500408","name":"GPS RAON","state":"HIMACHAL PRADESH","district":"KULLU","block":"ANNI","indicator":"no_girls_toilet"}},{"type":"Feature","geometry":{"type":"Point","coordinates":[77.29222,32.03111]},"properties":{"udise":"02040303609","name":"GMS RASHOL","state":"HIMACHAL PRADESH","district":"KULLU","block":"KULLU-1","indicator":"no_girls_toilet"}},{"type":"Feature","geometry":{"type":"Point","coordinates":[77.23889,32.00639]},"properties":{"udise":"02040303902","name":"GPS BALADHI","state":"HIMACHAL PRADESH","district":"KULLU","block":"KULLU-1","indicator":"no_girls_toilet"}},{"type":"Feature","geometry":{"type":"Point","coordinates":[77.08278,31.98222]},"properties":{"udise":"02040202004","name":"GMS BASTURI  KHALARA","state":"HIMACHAL PRADESH","district":"KULLU","block":"KULLU-2","indicator":"no_girls_toilet"}},{"type":"Feature","geometry":{"type":"Point","coordinates":[77.41833,31.51694]},"properties":{"udise":"02040501502","name":"GPS KOT","state":"HIMACHAL PRADESH","district":"KULLU","block":"ANNI","indicator":"no_girls_toilet"}},{"type":"Feature","geometry":{"type":"Point","coordinates":[77.19194,31.89306]},"properties":{"udise":"02040302304","name":"GPS BIRNI","state":"HIMACHAL PRADESH","district":"KULLU","block":"KULLU-1","indicator":"no_girls_toilet"}},{"type":"Feature","geometry":{"type":"Point","coordinates":[77.4575,31.40306]},"properties":{"udise":"02040500301","name":"GPS KANDAGAI","state":"HIMACHAL PRADESH","district":"KULLU","block":"ANNI","indicator":"no_girls_toilet"}},{"type":"Feature","geometry":{"type":"Point","coordinates":[77.38167,31.77278]},"properties":{"udise":"02040403901","name":"GPS NEWLI","state":"HIMACHAL PRADESH","district":"KULLU","block":"SAINJ","indicator":"no_girls_toilet"}},{"type":"Feature","geometry":{"type":"Point","coordinates":[77.33611,31.67944]},"properties":{"udise":"02040402006","name":"GSSS CHANON","state":"HIMACHAL PRADESH","district":"KULLU","block":"BANJAR","indicator":"girls_toilet_nonfunctional"}},{"type":"Feature","geometry":{"type":"Point","coordinates":[77.43917,31.99528]},"properties":{"udise":"02040304105","name":"GPS PULGA","state":"HIMACHAL PRADESH","district":"KULLU","block":"KULLU-1","indicator":"girls_toilet_nonfunctional"}},{"type":"Feature","geometry":{"type":"Point","coordinates":[77.42472,31.4325]},"properties":{"udise":"02040501101","name":"GPS THOGI","state":"HIMACHAL PRADESH","district":"KULLU","block":"ANNI","indicator":"girls_toilet_nonfunctional"}},{"type":"Feature","geometry":{"type":"Point","coordinates":[77.44306,31.44583]},"properties":{"udise":"02040501202","name":"GCPS CHOWAI","state":"HIMACHAL PRADESH","district":"KULLU","block":"ANNI","indicator":"girls_toilet_nonfunctional"}},{"type":"Feature","geometry":{"type":"Point","coordinates":[77.42028,31.43528]},"properties":{"udise":"02040500812","name":"L.P.S. ANNI","state":"HIMACHAL PRADESH","district":"KULLU","block":"ANNI","indicator":"girls_toilet_nonfunctional"}},{"type":"Feature","geometry":{"type":"Point","coordinates":[77.25306,31.85972]},"properties":{"udise":"02040304406","name":"GHS JAISHTA","state":"HIMACHAL PRADESH","district":"KULLU","block":"KULLU-1","indicator":"girls_toilet_nonfunctional"}},{"type":"Feature","geometry":{"type":"Point","coordinates":[77.16861,31.89694]},"properties":{"udise":"02040302302","name":"GPS NAROGI","state":"HIMACHAL PRADESH","district":"KULLU","block":"KULLU-1","indicator":"girls_toilet_nonfunctional"}},{"type":"Feature","geometry":{"type":"Point","coordinates":[77.49331,31.79111]},"properties":{"udise":"02040403605","name":"GMS LAPAH","state":"HIMACHAL PRADESH","district":"KULLU","block":"SAINJ","indicator":"girls_toilet_nonfunctional"}},{"type":"Feature","geometry":{"type":"Point","coordinates":[77.41028,31.49139]},"properties":{"udise":"02040501703","name":"GPS KANDUGAD","state":"HIMACHAL PRADESH","district":"KULLU","block":"ANNI","indicator":"girls_toilet_nonfunctional"}},{"type":"Feature","geometry":{"type":"Point","coordinates":[77.05389,32.12028]},"properties":{"udise":"02040100103","name":"GPS KUKRI","state":"HIMACHAL PRADESH","district":"KULLU","block":"NAGGAR","indicator":"girls_toilet_nonfunctional"}},{"type":"Feature","geometry":{"type":"Point","coordinates":[77.41306,31.35028]},"properties":{"udise":"02040500605","name":"GPS KOT","state":"HIMACHAL PRADESH","district":"KULLU","block":"ANNI","indicator":"girls_toilet_nonfunctional"}},{"type":"Feature","geometry":{"type":"Point","coordinates":[77.19,32.19]},"properties":{"udise":"02040101506","name":"SVM ALOOGROUND","state":"HIMACHAL PRADESH","district":"KULLU","block":"NAGGAR","indicator":"girls_toilet_nonfunctional"}},{"type":"Feature","geometry":{"type":"Point","coordinates":[77.69694,31.445]},"properties":{"udise":"02040502303","name":"GPS MUND-DHAR","state":"HIMACHAL PRADESH","district":"KULLU","block":"ANNI","indicator":"girls_toilet_nonfunctional"}},{"type":"Feature","geometry":{"type":"Point","coordinates":[77.42083,31.62028]},"properties":{"udise":"02040401801","name":"GPS SARCHI","state":"HIMACHAL PRADESH","district":"KULLU","block":"BANJAR","indicator":"girls_toilet_nonfunctional"}},{"type":"Feature","geometry":{"type":"Point","coordinates":[77.99944,32.28139]},"properties":{"udise":"02030406202","name":"GMS KHURIK","state":"HIMACHAL PRADESH","district":"LAHUL & SPITI","block":"KAZA","indicator":"no_girls_toilet"}},{"type":"Feature","geometry":{"type":"Point","coordinates":[78.14917,32.14361]},"properties":{"udise":"02030405001","name":"GPS LEDANG","state":"HIMACHAL PRADESH","district":"LAHUL & SPITI","block":"KAZA","indicator":"no_girls_toilet"}},{"type":"Feature","geometry":{"type":"Point","coordinates":[78.1,32.17917]},"properties":{"udise":"02030404801","name":"GPS SHEGO","state":"HIMACHAL PRADESH","district":"LAHUL & SPITI","block":"KAZA","indicator":"no_girls_toilet"}},{"type":"Feature","geometry":{"type":"Point","coordinates":[78.01333,32.29778]},"properties":{"udise":"02030405802","name":"GHS KEE GOMPA","state":"HIMACHAL PRADESH","district":"LAHUL & SPITI","block":"KAZA","indicator":"no_girls_toilet"}},{"type":"Feature","geometry":{"type":"Point","coordinates":[78.04,32.04083]},"properties":{"udise":"02030403301","name":"GPS PHUCKCHUNG","state":"HIMACHAL PRADESH","district":"LAHUL & SPITI","block":"KAZA","indicator":"no_girls_toilet"}},{"type":"Feature","geometry":{"type":"Point","coordinates":[78.33444,32.06528]},"properties":{"udise":"02030402101","name":"GPS NADANG","state":"HIMACHAL PRADESH","district":"LAHUL & SPITI","block":"KAZA","indicator":"no_girls_toilet"}},{"type":"Feature","geometry":{"type":"Point","coordinates":[78.0325,31.95917]},"properties":{"udise":"02030404301","name":"GPS MUD","state":"HIMACHAL PRADESH","district":"LAHUL & SPITI","block":"KAZA","indicator":"no_girls_toilet"}},{"type":"Feature","geometry":{"type":"Point","coordinates":[76.46141,32.75195]},"properties":{"udise":"02030302305","name":"GMS AGHAR","state":"HIMACHAL PRADESH","district":"LAHUL & SPITI","block":"UDAIPUR","indicator":"no_girls_toilet"}},{"type":"Feature","geometry":{"type":"Point","coordinates":[78.0225,32.0475]},"properties":{"udise":"02030403001","name":"GPS KAA","state":"HIMACHAL PRADESH","district":"LAHUL & SPITI","block":"KAZA","indicator":"no_girls_toilet"}},{"type":"Feature","geometry":{"type":"Point","coordinates":[78.42139,32.08]},"properties":{"udise":"02030402301","name":"GPS LARI","state":"HIMACHAL PRADESH","district":"LAHUL & SPITI","block":"KAZA","indicator":"no_girls_toilet"}},{"type":"Feature","geometry":{"type":"Point","coordinates":[77.82583,32.43361]},"properties":{"udise":"02030406702","name":"GMS KAIMO","state":"HIMACHAL PRADESH","district":"LAHUL & SPITI","block":"KAZA","indicator":"no_girls_toilet"}},{"type":"Feature","geometry":{"type":"Point","coordinates":[78.05472,32.29306]},"properties":{"udise":"02030405702","name":"GMS TASHIGANG","state":"HIMACHAL PRADESH","district":"LAHUL & SPITI","block":"KAZA","indicator":"no_girls_toilet"}},{"type":"Feature","geometry":{"type":"Point","coordinates":[77.99111,32.29722]},"properties":{"udise":"02030406301","name":"GPS SUMLING","state":"HIMACHAL PRADESH","district":"LAHUL & SPITI","block":"KAZA","indicator":"no_girls_toilet"}},{"type":"Feature","geometry":{"type":"Point","coordinates":[78.56972,32.13028]},"properties":{"udise":"02030400101","name":"GPS GUE","state":"HIMACHAL PRADESH","district":"LAHUL & SPITI","block":"KAZA","indicator":"no_girls_toilet"}},{"type":"Feature","geometry":{"type":"Point","coordinates":[78.08472,32.04583]},"properties":{"udise":"02030404001","name":"GPS UPPER GULLING","state":"HIMACHAL PRADESH","district":"LAHUL & SPITI","block":"KAZA","indicator":"no_girls_toilet"}},{"type":"Feature","geometry":{"type":"Point","coordinates":[78.11083,32.23417]},"properties":{"udise":"02030405201","name":"GPS TANGUT GOMPA","state":"HIMACHAL PRADESH","district":"LAHUL & SPITI","block":"KAZA","indicator":"no_girls_toilet"}},{"type":"Feature","geometry":{"type":"Point","coordinates":[77.99944,32.28139]},"properties":{"udise":"02030406201","name":"GPS KHURIK","state":"HIMACHAL PRADESH","district":"LAHUL & SPITI","block":"KAZA","indicator":"no_girls_toilet"}},{"type":"Feature","geometry":{"type":"Point","coordinates":[78.20333,32.14111]},"properties":{"udise":"02030404601","name":"GPS RAMA","state":"HIMACHAL PRADESH","district":"LAHUL & SPITI","block":"KAZA","indicator":"no_girls_toilet"}},{"type":"Feature","geometry":{"type":"Point","coordinates":[78.07889,32.04472]},"properties":{"udise":"02030403402","name":"GPS KUNGRI GOMPA","state":"HIMACHAL PRADESH","district":"LAHUL & SPITI","block":"KAZA","indicator":"no_girls_toilet"}},{"type":"Feature","geometry":{"type":"Point","coordinates":[78.21722,32.05111]},"properties":{"udise":"02030402901","name":"GPS SILUK","state":"HIMACHAL PRADESH","district":"LAHUL & SPITI","block":"KAZA","indicator":"no_girls_toilet"}},{"type":"Feature","geometry":{"type":"Point","coordinates":[77.89694,32.44556]},"properties":{"udise":"02030406801","name":"GPS KIATO","state":"HIMACHAL PRADESH","district":"LAHUL & SPITI","block":"KAZA","indicator":"girls_toilet_nonfunctional"}},{"type":"Feature","geometry":{"type":"Point","coordinates":[77.82583,32.43361]},"properties":{"udise":"02030406701","name":"GPS KIAMO","state":"HIMACHAL PRADESH","district":"LAHUL & SPITI","block":"KAZA","indicator":"girls_toilet_nonfunctional"}},{"type":"Feature","geometry":{"type":"Point","coordinates":[77.13139,32.47861]},"properties":{"udise":"02030101301","name":"GPS-LABRANG","state":"HIMACHAL PRADESH","district":"LAHUL & SPITI","block":"KEYLONG-I","indicator":"girls_toilet_nonfunctional"}},{"type":"Feature","geometry":{"type":"Point","coordinates":[76.55056,32.76889]},"properties":{"udise":"02030302801","name":"GPS KURCHAID","state":"HIMACHAL PRADESH","district":"LAHUL & SPITI","block":"UDAIPUR","indicator":"girls_toilet_nonfunctional"}},{"type":"Feature","geometry":{"type":"Point","coordinates":[77.77167,32.44194]},"properties":{"udise":"02030406601","name":"GPS KHOLAKSA","state":"HIMACHAL PRADESH","district":"LAHUL & SPITI","block":"KAZA","indicator":"girls_toilet_nonfunctional"}},{"type":"Feature","geometry":{"type":"Point","coordinates":[77.14917,31.65028]},"properties":{"udise":"02051005101","name":"GPS KALHANI-DHAR","state":"HIMACHAL PRADESH","district":"MANDI","block":"SERAJ-2","indicator":"no_girls_toilet"}},{"type":"Feature","geometry":{"type":"Point","coordinates":[76.74083,31.78667]},"properties":{"udise":"02052007105","name":"GPS BHATOUR","state":"HIMACHAL PRADESH","district":"MANDI","block":"DHARAMPUR-2","indicator":"no_girls_toilet"}},{"type":"Feature","geometry":{"type":"Point","coordinates":[76.75279,32.01707]},"properties":{"udise":"02051314701","name":"GPS BHAGEHAR","state":"HIMACHAL PRADESH","district":"MANDI","block":"CHAUNTRA-1","indicator":"no_girls_toilet"}},{"type":"Feature","geometry":{"type":"Point","coordinates":[77.23,31.64]},"properties":{"udise":"02051007202","name":"GHS PLAIDHAR","state":"HIMACHAL PRADESH","district":"MANDI","block":"SERAJ-2","indicator":"no_girls_toilet"}},{"type":"Feature","geometry":{"type":"Point","coordinates":[77.0575,31.59111]},"properties":{"udise":"02050704501","name":"GPS KOTLA","state":"HIMACHAL PRADESH","district":"MANDI","block":"CHACHIOT-1","indicator":"no_girls_toilet"}},{"type":"Feature","geometry":{"type":"Point","coordinates":[77.06889,31.67917]},"properties":{"udise":"02050200301","name":"GPS BAHAN","state":"HIMACHAL PRADESH","district":"MANDI","block":"SADAR-2","indicator":"no_girls_toilet"}},{"type":"Feature","geometry":{"type":"Point","coordinates":[77.07121,31.26889]},"properties":{"udise":"02051616102","name":"GPS BHALINGI","state":"HIMACHAL PRADESH","district":"MANDI","block":"KARSOG-2","indicator":"no_girls_toilet"}},{"type":"Feature","geometry":{"type":"Point","coordinates":[76.77917,31.61972]},"properties":{"udise":"02051809301","name":"GPS KHANDAHAR","state":"HIMACHAL PRADESH","district":"MANDI","block":"GOPALPUR-2","indicator":"no_girls_toilet"}},{"type":"Feature","geometry":{"type":"Point","coordinates":[76.88306,31.74361]},"properties":{"udise":"02050507301","name":"GPS GAMDHOUL","state":"HIMACHAL PRADESH","district":"MANDI","block":"SAIGALOO","indicator":"no_girls_toilet"}},{"type":"Feature","geometry":{"type":"Point","coordinates":[76.84472,31.63111]},"properties":{"udise":"02050504901","name":"GPS GARLAUNI","state":"HIMACHAL PRADESH","district":"MANDI","block":"REWALSAR","indicator":"no_girls_toilet"}},{"type":"Feature","geometry":{"type":"Point","coordinates":[76.85222,31.9675]},"properties":{"udise":"02051102601","name":"GCPS GUMMA","state":"HIMACHAL PRADESH","district":"MANDI","block":"DRANG-1","indicator":"no_girls_toilet"}},{"type":"Feature","geometry":{"type":"Point","coordinates":[76.89167,31.70889]},"properties":{"udise":"02050503001","name":"GCPS SEHLI","state":"HIMACHAL PRADESH","district":"MANDI","block":"SAIGALOO","indicator":"no_girls_toilet"}},{"type":"Feature","geometry":{"type":"Point","coordinates":[76.74861,31.77972]},"properties":{"udise":"02052007301","name":"GCPS GHANALA","state":"HIMACHAL PRADESH","district":"MANDI","block":"DHARAMPUR-2","indicator":"no_girls_toilet"}},{"type":"Feature","geometry":{"type":"Point","coordinates":[76.74,31.77222]},"properties":{"udise":"02052003301","name":"GCPS MARHI","state":"HIMACHAL PRADESH","district":"MANDI","block":"DHARAMPUR-2","indicator":"no_girls_toilet"}},{"type":"Feature","geometry":{"type":"Point","coordinates":[76.97361,31.56528]},"properties":{"udise":"02050610202","name":"GMS DAN","state":"HIMACHAL PRADESH","district":"MANDI","block":"SALWAHAN","indicator":"no_girls_toilet"}},{"type":"Feature","geometry":{"type":"Point","coordinates":[77.10444,31.3628]},"properties":{"udise":"02051606101","name":"GCPS CHANDYARA","state":"HIMACHAL PRADESH","district":"MANDI","block":"KARSOG-2","indicator":"no_girls_toilet"}},{"type":"Feature","geometry":{"type":"Point","coordinates":[76.81583,31.98583]},"properties":{"udise":"02051105901","name":"GPS PALI SHANAN","state":"HIMACHAL PRADESH","district":"MANDI","block":"DRANG-1","indicator":"no_girls_toilet"}},{"type":"Feature","geometry":{"type":"Point","coordinates":[76.94167,31.63639]},"properties":{"udise":"02050604201","name":"GPS BAGLA","state":"HIMACHAL PRADESH","district":"MANDI","block":"BALH","indicator":"girls_toilet_nonfunctional"}},{"type":"Feature","geometry":{"type":"Point","coordinates":[77.16917,31.64917]},"properties":{"udise":"02051004701","name":"GCPS SARACHI","state":"HIMACHAL PRADESH","district":"MANDI","block":"SERAJ-2","indicator":"girls_toilet_nonfunctional"}},{"type":"Feature","geometry":{"type":"Point","coordinates":[76.79667,31.6775]},"properties":{"udise":"02051707401","name":"GPS CHALHOG","state":"HIMACHAL PRADESH","district":"MANDI","block":"GOPALPUR-1","indicator":"girls_toilet_nonfunctional"}},{"type":"Feature","geometry":{"type":"Point","coordinates":[76.96667,31.34167]},"properties":{"udise":"02050400101","name":"GCPS KAMAND","state":"HIMACHAL PRADESH","district":"MANDI","block":"SUNDER NAGAR-2","indicator":"girls_toilet_nonfunctional"}},{"type":"Feature","geometry":{"type":"Point","coordinates":[76.745,31.77444]},"properties":{"udise":"02052007201","name":"GPS BANERDHI","state":"HIMACHAL PRADESH","district":"MANDI","block":"DHARAMPUR-2","indicator":"girls_toilet_nonfunctional"}},{"type":"Feature","geometry":{"type":"Point","coordinates":[77.0117,31.5043]},"properties":{"udise":"02050216701","name":"GPS SERI","state":"HIMACHAL PRADESH","district":"MANDI","block":"SADAR-2","indicator":"girls_toilet_nonfunctional"}},{"type":"Feature","geometry":{"type":"Point","coordinates":[77.29694,31.58167]},"properties":{"udise":"02051001102","name":"GMS CHHALVATTAN","state":"HIMACHAL PRADESH","district":"MANDI","block":"SERAJ-2","indicator":"girls_toilet_nonfunctional"}},{"type":"Feature","geometry":{"type":"Point","coordinates":[77.2067,31.31607]},"properties":{"udise":"02051601301","name":"GPS BHAVNALA","state":"HIMACHAL PRADESH","district":"MANDI","block":"KARSOG-2","indicator":"girls_toilet_nonfunctional"}},{"type":"Feature","geometry":{"type":"Point","coordinates":[76.96583,31.49028]},"properties":{"udise":"02050405502","name":"GMS GARTOLI","state":"HIMACHAL PRADESH","district":"MANDI","block":"SUNDER NAGAR-2","indicator":"girls_toilet_nonfunctional"}},{"type":"Feature","geometry":{"type":"Point","coordinates":[76.87778,31.54361]},"properties":{"udise":"02050303701","name":"GCPS KALAHOD","state":"HIMACHAL PRADESH","district":"MANDI","block":"SUNDER NAGAR-1","indicator":"girls_toilet_nonfunctional"}},{"type":"Feature","geometry":{"type":"Point","coordinates":[77.09444,31.66806]},"properties":{"udise":"02051003801","name":"GPS BANDAL","state":"HIMACHAL PRADESH","district":"MANDI","block":"SERAJ-2","indicator":"girls_toilet_nonfunctional"}},{"type":"Feature","geometry":{"type":"Point","coordinates":[77.1675,31.78667]},"properties":{"udise":"02052104001","name":"GPS TEPPER","state":"HIMACHAL PRADESH","district":"MANDI","block":"AUT","indicator":"girls_toilet_nonfunctional"}},{"type":"Feature","geometry":{"type":"Point","coordinates":[77.12417,31.56306]},"properties":{"udise":"02050708502","name":"SVM BAGSAID","state":"HIMACHAL PRADESH","district":"MANDI","block":"BAGSAID","indicator":"girls_toilet_nonfunctional"}},{"type":"Feature","geometry":{"type":"Point","coordinates":[77.2175,31.67556]},"properties":{"udise":"02051011501","name":"GPS HARIJANBASTI BASUT","state":"HIMACHAL PRADESH","district":"MANDI","block":"SERAJ-2","indicator":"girls_toilet_nonfunctional"}},{"type":"Feature","geometry":{"type":"Point","coordinates":[77.8225,31.19583]},"properties":{"udise":"02112101301","name":"GPS MINI","state":"HIMACHAL PRADESH","district":"SHIMLA","block":"RANSAR (JANGLA)","indicator":"no_girls_toilet"}},{"type":"Feature","geometry":{"type":"Point","coordinates":[77.6525,30.93833]},"properties":{"udise":"02111214801","name":"GPS PUJARLI","state":"HIMACHAL PRADESH","district":"SHIMLA","block":"NERWA","indicator":"no_girls_toilet"}},{"type":"Feature","geometry":{"type":"Point","coordinates":[77.66278,31.10583]},"properties":{"udise":"02110507201","name":"GPS JUBBAL","state":"HIMACHAL PRADESH","district":"SHIMLA","block":"JUBBAL","indicator":"no_girls_toilet"}},{"type":"Feature","geometry":{"type":"Point","coordinates":[77.3475,31.12917]},"properties":{"udise":"02111703301","name":"GPS RAHI GHAT","state":"HIMACHAL PRADESH","district":"SHIMLA","block":"THEOG","indicator":"no_girls_toilet"}},{"type":"Feature","geometry":{"type":"Point","coordinates":[77.71306,30.79278]},"properties":{"udise":"02111214101","name":"GPS BAUR","state":"HIMACHAL PRADESH","district":"SHIMLA","block":"NERWA","indicator":"no_girls_toilet"}},{"type":"Feature","geometry":{"type":"Point","coordinates":[77.45333,30.98444]},"properties":{"udise":"02110305101","name":"GPS PADAWATA","state":"HIMACHAL PRADESH","district":"SHIMLA","block":"DEHA","indicator":"no_girls_toilet"}},{"type":"Feature","geometry":{"type":"Point","coordinates":[77.64694,31.11167]},"properties":{"udise":"02110506701","name":"GPS MADHAIK","state":"HIMACHAL PRADESH","district":"SHIMLA","block":"JUBBAL","indicator":"no_girls_toilet"}},{"type":"Feature","geometry":{"type":"Point","coordinates":[77.69278,31.01472]},"properties":{"udise":"02111215001","name":"GPS MADHANA","state":"HIMACHAL PRADESH","district":"SHIMLA","block":"NERWA","indicator":"no_girls_toilet"}},{"type":"Feature","geometry":{"type":"Point","coordinates":[77.72,30.98611]},"properties":{"udise":"02111201001","name":"GPS KUTAH","state":"HIMACHAL PRADESH","district":"SHIMLA","block":"NERWA","indicator":"no_girls_toilet"}},{"type":"Feature","geometry":{"type":"Point","coordinates":[77.73056,31.41278]},"properties":{"udise":"02111309602","name":"GMS BARKAL","state":"HIMACHAL PRADESH","district":"SHIMLA","block":"RAMPUR","indicator":"no_girls_toilet"}},{"type":"Feature","geometry":{"type":"Point","coordinates":[77.44194,30.995]},"properties":{"udise":"02110305201","name":"GPS CHOWAI","state":"HIMACHAL PRADESH","district":"SHIMLA","block":"DEHA","indicator":"no_girls_toilet"}},{"type":"Feature","geometry":{"type":"Point","coordinates":[77.43528,30.76694]},"properties":{"udise":"02100401401","name":"GPS BHANRA","state":"HIMACHAL PRADESH","district":"SIRMAUR","block":"NOHRADHAR","indicator":"no_girls_toilet"}},{"type":"Feature","geometry":{"type":"Point","coordinates":[77.43222,30.95556]},"properties":{"udise":"02100600409","name":"GMS PAB","state":"HIMACHAL PRADESH","district":"SIRMAUR","block":"RAJGARH","indicator":"no_girls_toilet"}},{"type":"Feature","geometry":{"type":"Point","coordinates":[77.72917,30.65]},"properties":{"udise":"02100900502","name":"GPS DEEMANA","state":"HIMACHAL PRADESH","district":"SIRMAUR","block":"SHILLAI","indicator":"no_girls_toilet"}},{"type":"Feature","geometry":{"type":"Point","coordinates":[77.44384,30.75846]},"properties":{"udise":"02100416801","name":"GPS CHAMRA","state":"HIMACHAL PRADESH","district":"SIRMAUR","block":"NOHRADHAR","indicator":"no_girls_toilet"}},{"type":"Feature","geometry":{"type":"Point","coordinates":[77.61028,30.63]},"properties":{"udise":"02101100501","name":"GPCS BAILA GAJON","state":"HIMACHAL PRADESH","district":"SIRMAUR","block":"KAFFOTTA","indicator":"no_girls_toilet"}},{"type":"Feature","geometry":{"type":"Point","coordinates":[77.26639,30.58417]},"properties":{"udise":"02101001001","name":"GPS DEVKA","state":"HIMACHAL PRADESH","district":"SIRMAUR","block":"SURLA","indicator":"no_girls_toilet"}},{"type":"Feature","geometry":{"type":"Point","coordinates":[77.54028,30.49083]},"properties":{"udise":"02101302101","name":"GPS MATAK MAJRI","state":"HIMACHAL PRADESH","district":"SIRMAUR","block":"MAJRA","indicator":"no_girls_toilet"}},{"type":"Feature","geometry":{"type":"Point","coordinates":[77.185,30.59944]},"properties":{"udise":"02101010802","name":"GPS NERON","state":"HIMACHAL PRADESH","district":"SIRMAUR","block":"SURLA","indicator":"no_girls_toilet"}},{"type":"Feature","geometry":{"type":"Point","coordinates":[77.2231,30.4848]},"properties":{"udise":"02100401802","name":"GMS GUSSAN","state":"HIMACHAL PRADESH","district":"SIRMAUR","block":"NOHRADHAR","indicator":"no_girls_toilet"}},{"type":"Feature","geometry":{"type":"Point","coordinates":[77.37722,30.90639]},"properties":{"udise":"02100607001","name":"GPS ULAKH KATOGA","state":"HIMACHAL PRADESH","district":"SIRMAUR","block":"RAJGARH","indicator":"girls_toilet_nonfunctional"}},{"type":"Feature","geometry":{"type":"Point","coordinates":[77.34472,30.93306]},"properties":{"udise":"02100606701","name":"GPS BHOG KHASHMALI","state":"HIMACHAL PRADESH","district":"SIRMAUR","block":"RAJGARH","indicator":"girls_toilet_nonfunctional"}},{"type":"Feature","geometry":{"type":"Point","coordinates":[77.74139,30.48]},"properties":{"udise":"02100501703","name":"GPS SINGPURA","state":"HIMACHAL PRADESH","district":"SIRMAUR","block":"KHORONWALA","indicator":"girls_toilet_nonfunctional"}},{"type":"Feature","geometry":{"type":"Point","coordinates":[77.40583,30.77806]},"properties":{"udise":"02100401105","name":"GPS BHANGARI","state":"HIMACHAL PRADESH","district":"SIRMAUR","block":"NOHRADHAR","indicator":"girls_toilet_nonfunctional"}},{"type":"Feature","geometry":{"type":"Point","coordinates":[77.38056,30.62278]},"properties":{"udise":"02100205602","name":"GSSS KAMLAR","state":"HIMACHAL PRADESH","district":"SIRMAUR","block":"DADAHU","indicator":"girls_toilet_nonfunctional"}},{"type":"Feature","geometry":{"type":"Point","coordinates":[76.87972,30.97667]},"properties":{"udise":"02090204301","name":"GPS DUNI NALI","state":"HIMACHAL PRADESH","district":"SOLAN","block":"PATTA MEHLOG","indicator":"no_girls_toilet"}},{"type":"Feature","geometry":{"type":"Point","coordinates":[77.01694,30.79194]},"properties":{"udise":"02090112201","name":"GPS JANDORI","state":"HIMACHAL PRADESH","district":"SOLAN","block":"DHARAMPUR","indicator":"girls_toilet_nonfunctional"}},{"type":"Feature","geometry":{"type":"Point","coordinates":[77.63528,31.51167]},"properties":{"udise":"02070103402","name":"GPS PANDOGA (G)","state":"HIMACHAL PRADESH","district":"UNA","block":"HAROLI","indicator":"girls_toilet_nonfunctional"}},{"type":"Feature","geometry":{"type":"Point","coordinates":[76.23861,31.62361]},"properties":{"udise":"02070604001","name":"GPS PIPLOO","state":"HIMACHAL PRADESH","district":"UNA","block":"BANGANA","indicator":"girls_toilet_nonfunctional"}},{"type":"Feature","geometry":{"type":"Point","coordinates":[76.16333,31.58639]},"properties":{"udise":"02070508201","name":"GPS BAHERI","state":"HIMACHAL PRADESH","district":"UNA","block":"AMB","indicator":"girls_toilet_nonfunctional"}},{"type":"Feature","geometry":{"type":"Point","coordinates":[76.24111,31.42611]},"properties":{"udise":"02070101703","name":"GPS DOL MAJARA","state":"HIMACHAL PRADESH","district":"UNA","block":"HAROLI","indicator":"girls_toilet_nonfunctional"}}]}