{"type":"FeatureCollection","features":[{"type":"Feature","geometry":{"type":"Point","coordinates":[88.16111,27.38167]},"properties":{"udise":"11020400401","name":"KHANDU SS","state":"SIKKIM","district":"GYALSHING","block":"DENTAM","indicator":"no_girls_toilet"}},{"type":"Feature","geometry":{"type":"Point","coordinates":[88.15167,27.24833]},"properties":{"udise":"11020401302","name":"SANKHU MONASTIC SCHOOL","state":"SIKKIM","district":"GYALSHING","block":"DENTAM","indicator":"no_girls_toilet"}},{"type":"Feature","geometry":{"type":"Point","coordinates":[88.17,27.265]},"properties":{"udise":"11020402901","name":"L SAPONG PS","state":"SIKKIM","district":"GYALSHING","block":"DENTAM","indicator":"girls_toilet_nonfunctional"}},{"type":"Feature","geometry":{"type":"Point","coordinates":[88.45936,27.55316]},"properties":{"udise":"11010402301","name":"THOLUNG MONASTIC PS","state":"SIKKIM","district":"MANGAN","block":"PASSINGDONG","indicator":"no_girls_toilet"}},{"type":"Feature","geometry":{"type":"Point","coordinates":[88.66056,27.63167]},"properties":{"udise":"11010200306","name":"BOP PS","state":"SIKKIM","district":"MANGAN","block":"CHUNGTHANG","indicator":"no_girls_toilet"}},{"type":"Feature","geometry":{"type":"Point","coordinates":[88.24381,27.465]},"properties":{"udise":"11030300801","name":"AMALAY JHS","state":"SIKKIM","district":"NAMCHI","block":"TEMI","indicator":"no_girls_toilet"}},{"type":"Feature","geometry":{"type":"Point","coordinates":[88.23175,27.49833]},"properties":{"udise":"11030301102","name":"LITTLE ANGELS ACADEMY","state":"SIKKIM","district":"NAMCHI","block":"TEMI","indicator":"no_girls_toilet"}},{"type":"Feature","geometry":{"type":"Point","coordinates":[88.32583,27.24833]},"properties":{"udise":"11030500602","name":"SHARON VALLEY SCHOOL","state":"SIKKIM","district":"NAMCHI","block":"SIKKIP","indicator":"no_girls_toilet"}},{"type":"Feature","geometry":{"type":"Point","coordinates":[88.42838,27.26282]},"properties":{"udise":"11030302506","name":"UNIVERSAL ACADEMY","state":"SIKKIM","district":"NAMCHI","block":"TEMI","indicator":"no_girls_toilet"}},{"type":"Feature","geometry":{"type":"Point","coordinates":[88.38444,27.74833]},"properties":{"udise":"11030206908","name":"SAMBHOTA TIBETAN SCHOOL, RAVANGLA","state":"SIKKIM","district":"NAMCHI","block":"RAVANGLA","indicator":"no_girls_toilet"}},{"type":"Feature","geometry":{"type":"Point","coordinates":[88.3136,27.23898]},"properties":{"udise":"11030501102","name":"Horeb Academy","state":"SIKKIM","district":"NAMCHI","block":"SIKKIP","indicator":"no_girls_toilet"}},{"type":"Feature","geometry":{"type":"Point","coordinates":[88.14733,27.465]},"properties":{"udise":"11030602802","name":"TONGIL PEACE ACADEMY","state":"SIKKIM","district":"NAMCHI","block":"NAMTHANG","indicator":"no_girls_toilet"}},{"type":"Feature","geometry":{"type":"Point","coordinates":[88.3319,27.30606]},"properties":{"udise":"11030204802","name":"Reveal Academy","state":"SIKKIM","district":"NAMCHI","block":"RAVANGLA","indicator":"no_girls_toilet"}},{"type":"Feature","geometry":{"type":"Point","coordinates":[88.37448,27.27212]},"properties":{"udise":"11030206909","name":"JEEWAN JYOTI  ACADEMY","state":"SIKKIM","district":"NAMCHI","block":"RAVANGLA","indicator":"no_girls_toilet"}},{"type":"Feature","geometry":{"type":"Point","coordinates":[88.41194,27.18167]},"properties":{"udise":"11030602804","name":"PERBING SAMTEN CHOLING GUMPA","state":"SIKKIM","district":"NAMCHI","block":"NAMTHANG","indicator":"no_girls_toilet"}},{"type":"Feature","geometry":{"type":"Point","coordinates":[88.30472,27.215]},"properties":{"udise":"11030204702","name":"DEMAZONG ENGLISH ACADEMY","state":"SIKKIM","district":"NAMCHI","block":"RAVANGLA","indicator":"girls_toilet_nonfunctional"}},{"type":"Feature","geometry":{"type":"Point","coordinates":[88.23862,27.44833]},"properties":{"udise":"11030302001","name":"UPPER TANAK PS","state":"SIKKIM","district":"NAMCHI","block":"TEMI","indicator":"girls_toilet_nonfunctional"}},{"type":"Feature","geometry":{"type":"Point","coordinates":[88.72167,27.63167]},"properties":{"udise":"11040103402","name":"AHO-YANGTAM SANSKRIT PATHSALA","state":"SIKKIM","district":"PAKYONG","block":"Namcheybong","indicator":"no_girls_toilet"}},{"type":"Feature","geometry":{"type":"Point","coordinates":[88.65756,27.18167]},"properties":{"udise":"11040404007","name":"RHENOCK KHAMDONG SANSKRIT PATSALA","state":"SIKKIM","district":"PAKYONG","block":"RHENOCK","indicator":"no_girls_toilet"}},{"type":"Feature","geometry":{"type":"Point","coordinates":[88.41194,27.53167]},"properties":{"udise":"11040800402","name":"S.K SV.C PENDAM (PVT)","state":"SIKKIM","district":"PAKYONG","block":"DUGA","indicator":"no_girls_toilet"}},{"type":"Feature","geometry":{"type":"Point","coordinates":[88.61997,27.20165]},"properties":{"udise":"11040101301","name":"TITRIBOTEY PS","state":"SIKKIM","district":"PAKYONG","block":"PAKYONG","indicator":"no_girls_toilet"}},{"type":"Feature","geometry":{"type":"Point","coordinates":[88.72068,27.23167]},"properties":{"udise":"11040401601","name":"LAMTEN PS","state":"SIKKIM","district":"PAKYONG","block":"REGU","indicator":"girls_toilet_nonfunctional"}},{"type":"Feature","geometry":{"type":"Point","coordinates":[88.28917,27.215]},"properties":{"udise":"11020303401","name":"M. TAKUTHANG PS","state":"SIKKIM","district":"SORENG","block":"MANGALBARIA","indicator":"girls_toilet_nonfunctional"}}]}