{"type":"FeatureCollection","features":[{"type":"Feature","geometry":{"type":"Point","coordinates":[76.95182,30.17492]},"properties":{"udise":"06020405003","name":"MADANI PUBLIC SCHOOL","state":"HARYANA","district":"AMBALA","block":"BARARA","indicator":"girls_toilet_nonfunctional"}},{"type":"Feature","geometry":{"type":"Point","coordinates":[76.32502,28.8658]},"properties":{"udise":"06130505303","name":"VSRS GSSS KALINGA","state":"HARYANA","district":"BHIWANI","block":"BHIWANI","indicator":"girls_toilet_nonfunctional"}},{"type":"Feature","geometry":{"type":"Point","coordinates":[75.55835,29.46097]},"properties":{"udise":"06100105002","name":"GSSS M.P.ROHI","state":"HARYANA","district":"FATEHABAD","block":"FATEHABAD","indicator":"no_girls_toilet"}},{"type":"Feature","geometry":{"type":"Point","coordinates":[75.8273,29.53216]},"properties":{"udise":"06100202801","name":"GPS SANIYANA","state":"HARYANA","district":"FATEHABAD","block":"BHUNA","indicator":"no_girls_toilet"}},{"type":"Feature","geometry":{"type":"Point","coordinates":[75.51672,29.70114]},"properties":{"udise":"06100404003","name":"GPS LAHLI","state":"HARYANA","district":"FATEHABAD","block":"RATIA","indicator":"no_girls_toilet"}},{"type":"Feature","geometry":{"type":"Point","coordinates":[77.06381,28.5091]},"properties":{"udise":"06180103701","name":"Government Model Sanskriti Primary School Molahera-B","state":"HARYANA","district":"GURUGRAM","block":"GURGAON","indicator":"no_girls_toilet"}},{"type":"Feature","geometry":{"type":"Point","coordinates":[75.71262,28.95724]},"properties":{"udise":"06120604901","name":"GPS TALWANDI RUKKA","state":"HARYANA","district":"HISAR","block":"HISAR-I","indicator":"no_girls_toilet"}},{"type":"Feature","geometry":{"type":"Point","coordinates":[76.04023,29.11904]},"properties":{"udise":"06120403401","name":"GPS JAMAWARI","state":"HARYANA","district":"HISAR","block":"HANSI-I","indicator":"no_girls_toilet"}},{"type":"Feature","geometry":{"type":"Point","coordinates":[75.7949,29.21466]},"properties":{"udise":"06120601604","name":"GHS DHANSU","state":"HARYANA","district":"HISAR","block":"HISAR-I","indicator":"no_girls_toilet"}},{"type":"Feature","geometry":{"type":"Point","coordinates":[75.55966,29.03506]},"properties":{"udise":"06120703906","name":"GPS GORCHHI","state":"HARYANA","district":"HISAR","block":"HISAR-II","indicator":"no_girls_toilet"}},{"type":"Feature","geometry":{"type":"Point","coordinates":[75.85975,29.35765]},"properties":{"udise":"06120302801","name":"GPS KHEDAR","state":"HARYANA","district":"HISAR","block":"BARWALA","indicator":"no_girls_toilet"}},{"type":"Feature","geometry":{"type":"Point","coordinates":[75.58598,29.10612]},"properties":{"udise":"06120704801","name":"GPS RAWALWAS KHURD","state":"HARYANA","district":"HISAR","block":"HISAR-II","indicator":"no_girls_toilet"}},{"type":"Feature","geometry":{"type":"Point","coordinates":[75.57418,29.21852]},"properties":{"udise":"06120702101","name":"GPS JAKHOD KHERA","state":"HARYANA","district":"HISAR","block":"HISAR-II","indicator":"no_girls_toilet"}},{"type":"Feature","geometry":{"type":"Point","coordinates":[75.60572,29.0416]},"properties":{"udise":"06120703105","name":"GPS PANIHAR CHAK","state":"HARYANA","district":"HISAR","block":"HISAR-II","indicator":"no_girls_toilet"}},{"type":"Feature","geometry":{"type":"Point","coordinates":[75.71631,29.08348]},"properties":{"udise":"06120602503","name":"GHS KAIMARI","state":"HARYANA","district":"HISAR","block":"HISAR-I","indicator":"no_girls_toilet"}},{"type":"Feature","geometry":{"type":"Point","coordinates":[75.74679,29.15865]},"properties":{"udise":"06120700901","name":"GPS BURAK","state":"HARYANA","district":"HISAR","block":"HISAR-II","indicator":"no_girls_toilet"}},{"type":"Feature","geometry":{"type":"Point","coordinates":[75.66199,29.00712]},"properties":{"udise":"06120601001","name":"GPS CHIROD","state":"HARYANA","district":"HISAR","block":"HISAR-I","indicator":"no_girls_toilet"}},{"type":"Feature","geometry":{"type":"Point","coordinates":[75.7644,28.9679]},"properties":{"udise":"06120600208","name":"GMS BADYAN BRAHMANAN","state":"HARYANA","district":"HISAR","block":"HISAR-I","indicator":"no_girls_toilet"}},{"type":"Feature","geometry":{"type":"Point","coordinates":[75.88514,29.24185]},"properties":{"udise":"06120403001","name":"GPS GHIRAI","state":"HARYANA","district":"HISAR","block":"HANSI-I","indicator":"no_girls_toilet"}},{"type":"Feature","geometry":{"type":"Point","coordinates":[75.7835,29.12879]},"properties":{"udise":"06120604601","name":"GPS SATROD KHURD","state":"HARYANA","district":"HISAR","block":"HISAR-I","indicator":"no_girls_toilet"}},{"type":"Feature","geometry":{"type":"Point","coordinates":[75.61996,29.19576]},"properties":{"udise":"06120703301","name":"GMSPS NEOLI KALAN","state":"HARYANA","district":"HISAR","block":"HISAR-II","indicator":"no_girls_toilet"}},{"type":"Feature","geometry":{"type":"Point","coordinates":[75.77083,29.17417]},"properties":{"udise":"06120700117","name":"BUNIYAD SR SEC SCHOOL SANT NAGAR HISSAR","state":"HARYANA","district":"HISAR","block":"HISAR-I","indicator":"girls_toilet_nonfunctional"}},{"type":"Feature","geometry":{"type":"Point","coordinates":[76.3141,29.20417]},"properties":{"udise":"06090200801","name":"GPS BUANA","state":"HARYANA","district":"JIND","block":"JULANA","indicator":"girls_toilet_nonfunctional"}},{"type":"Feature","geometry":{"type":"Point","coordinates":[76.43333,29.56917]},"properties":{"udise":"06050502901","name":"GMSPS ROHERA","state":"HARYANA","district":"KAITHAL","block":"RAJOUND","indicator":"no_girls_toilet"}},{"type":"Feature","geometry":{"type":"Point","coordinates":[76.43333,29.56917]},"properties":{"udise":"06050502903","name":"GSSS ROHERA","state":"HARYANA","district":"KAITHAL","block":"RAJOUND","indicator":"no_girls_toilet"}},{"type":"Feature","geometry":{"type":"Point","coordinates":[76.56953,29.77715]},"properties":{"udise":"06050402403","name":"GSSS FATEHPUR","state":"HARYANA","district":"KAITHAL","block":"PUNDRI","indicator":"girls_toilet_nonfunctional"}},{"type":"Feature","geometry":{"type":"Point","coordinates":[76.69137,30.10771]},"properties":{"udise":"06040602204","name":"GPS THASKA MIRANJI","state":"HARYANA","district":"KURUKSHETRA","block":"PEHOWA","indicator":"no_girls_toilet"}},{"type":"Feature","geometry":{"type":"Point","coordinates":[77.09772,27.95808]},"properties":{"udise":"06200400706","name":"SHINE STAR PUBLIC SCHOOL, RITHAD","state":"HARYANA","district":"NUH","block":"NAGINA","indicator":"girls_toilet_nonfunctional"}},{"type":"Feature","geometry":{"type":"Point","coordinates":[77.12372,28.10687]},"properties":{"udise":"06200509604","name":"HIND SR. SEC. SCHOOL BAINSI","state":"HARYANA","district":"NUH","block":"NUH","indicator":"girls_toilet_nonfunctional"}},{"type":"Feature","geometry":{"type":"Point","coordinates":[77.12663,27.9317]},"properties":{"udise":"06200403307","name":"KIDS GARDEN PUBLIC SCHOOL SUGARPUR MARORA","state":"HARYANA","district":"NUH","block":"NAGINA","indicator":"girls_toilet_nonfunctional"}},{"type":"Feature","geometry":{"type":"Point","coordinates":[76.9544,29.40961]},"properties":{"udise":"06074100247","name":"SIDDHARTHA PUBLIC SCHOOL DEV NAGAR","state":"HARYANA","district":"PANIPAT","block":"PANIPAT","indicator":"no_girls_toilet"}},{"type":"Feature","geometry":{"type":"Point","coordinates":[76.96834,29.39991]},"properties":{"udise":"06070103364","name":"ARYA SEN SER SCHOOL G.T.","state":"HARYANA","district":"PANIPAT","block":"PANIPAT","indicator":"no_girls_toilet"}},{"type":"Feature","geometry":{"type":"Point","coordinates":[77.00438,29.24443]},"properties":{"udise":"06070400103","name":"VAISH PRIMARY SAMALKHA","state":"HARYANA","district":"PANIPAT","block":"SAMALKHA","indicator":"no_girls_toilet"}},{"type":"Feature","geometry":{"type":"Point","coordinates":[77.00437,29.24443]},"properties":{"udise":"06070400104","name":"VAISH SR SEC  SAMALKHA","state":"HARYANA","district":"PANIPAT","block":"SAMALKHA","indicator":"no_girls_toilet"}},{"type":"Feature","geometry":{"type":"Point","coordinates":[76.69148,28.10475]},"properties":{"udise":"06170101801","name":"GPS BOLNI","state":"HARYANA","district":"REWARI","block":"BAWAL","indicator":"no_girls_toilet"}},{"type":"Feature","geometry":{"type":"Point","coordinates":[76.58098,28.88494]},"properties":{"udise":"06140404047","name":"V.K.M.SR.SC.SCH.KATH MANDI,RTK","state":"HARYANA","district":"ROHTAK","block":"ROHTAK","indicator":"no_girls_toilet"}},{"type":"Feature","geometry":{"type":"Point","coordinates":[76.55683,28.92775]},"properties":{"udise":"06140400604","name":"ADARSH GURUKUL S.S.S","state":"HARYANA","district":"ROHTAK","block":"ROHTAK","indicator":"no_girls_toilet"}},{"type":"Feature","geometry":{"type":"Point","coordinates":[74.74954,29.78481]},"properties":{"udise":"06110203001","name":"GMSPS GORIWALA","state":"HARYANA","district":"SIRSA","block":"DABWALI","indicator":"no_girls_toilet"}},{"type":"Feature","geometry":{"type":"Point","coordinates":[74.8375,29.52767]},"properties":{"udise":"06110607205","name":"GMSPS RANIA","state":"HARYANA","district":"SIRSA","block":"RANIA","indicator":"no_girls_toilet"}},{"type":"Feature","geometry":{"type":"Point","coordinates":[74.61978,29.60477]},"properties":{"udise":"06114100458","name":"NEW STAR SCHOOL, BANI","state":"HARYANA","district":"SIRSA","block":"RANIA","indicator":"girls_toilet_nonfunctional"}},{"type":"Feature","geometry":{"type":"Point","coordinates":[76.51086,29.09667]},"properties":{"udise":"06080700901","name":"GPS DHANANA","state":"HARYANA","district":"SONIPAT","block":"KATHURA","indicator":"no_girls_toilet"}}]}